<?xml version="1.0" encoding="UTF-8"?>
<kml xmlns="http://www.opengis.net/kml/2.2" xmlns:gx="http://www.google.com/kml/ext/2.2" xmlns:kml="http://www.opengis.net/kml/2.2" xmlns:atom="http://www.w3.org/2005/Atom">
<Document>
	<name>carp_oc6_Z4.kml</name>
	<StyleMap id="msn_ylw-pushpin">
		<Pair>
			<key>normal</key>
			<styleUrl>#sn_ylw-pushpin</styleUrl>
		</Pair>
		<Pair>
			<key>highlight</key>
			<styleUrl>#sh_ylw-pushpin</styleUrl>
		</Pair>
	</StyleMap>
	<StyleMap id="msn_ylw-pushpin0">
		<Pair>
			<key>normal</key>
			<styleUrl>#sn_ylw-pushpin0</styleUrl>
		</Pair>
		<Pair>
			<key>highlight</key>
			<styleUrl>#sh_ylw-pushpin0</styleUrl>
		</Pair>
	</StyleMap>
	<Style id="sh_ylw-pushpin">
		<IconStyle>
			<color>ff0880fd</color>
			<scale>1.2</scale>
		</IconStyle>
	</Style>
	<Style id="sh_ylw-pushpin0">
		<IconStyle>
			<color>ff0880fd</color>
			<scale>1.2</scale>
		</IconStyle>
		<BalloonStyle>
		</BalloonStyle>
	</Style>
	<Style id="sn_ylw-pushpin">
		<IconStyle>
			<color>ff0880fd</color>
		</IconStyle>
	</Style>
	<Style id="sn_ylw-pushpin0">
		<IconStyle>
			<color>ff0880fd</color>
		</IconStyle>
		<BalloonStyle>
		</BalloonStyle>
	</Style>
	<Folder>
		<name>carp_oc6_Z4</name>
		<open>1</open>
		<Placemark>
			<name>CARP6-Z4-14</name>
			<styleUrl>#msn_ylw-pushpin</styleUrl>
			<Point>
				<coordinates>-123.263514438183,54.7736567259388,0</coordinates>
			</Point>
		</Placemark>
		<Placemark>
			<name>CARP6-Z4-46</name>
			<styleUrl>#msn_ylw-pushpin0</styleUrl>
			<Point>
				<coordinates>-123.3036262289839,54.74373374853871,0</coordinates>
			</Point>
		</Placemark>
		<Placemark>
			<name>CARP6-Z4-58</name>
			<styleUrl>#msn_ylw-pushpin</styleUrl>
			<Point>
				<coordinates>-123.261584322059,54.7628481174644,0</coordinates>
			</Point>
		</Placemark>
		<Placemark>
			<name>CARP6-Z4-63</name>
			<styleUrl>#msn_ylw-pushpin</styleUrl>
			<Point>
				<coordinates>-123.28712877221,54.7350472142463,0</coordinates>
			</Point>
		</Placemark>
		<Placemark>
			<name>CARP6-Z4-76</name>
			<styleUrl>#msn_ylw-pushpin0</styleUrl>
			<Point>
				<coordinates>-123.2981332030703,54.74838813667034,0</coordinates>
			</Point>
		</Placemark>
		<Placemark>
			<name>CARP6-Z4-106</name>
			<styleUrl>#msn_ylw-pushpin</styleUrl>
			<Point>
				<coordinates>-123.275496196253,54.7630758167887,0</coordinates>
			</Point>
		</Placemark>
		<Placemark>
			<name>CARP6-Z4-107</name>
			<styleUrl>#msn_ylw-pushpin</styleUrl>
			<Point>
				<coordinates>-123.243484147132,54.7846545680398,0</coordinates>
			</Point>
		</Placemark>
		<Placemark>
			<name>CARP6-Z4-128</name>
			<styleUrl>#msn_ylw-pushpin0</styleUrl>
			<Point>
				<coordinates>-123.3050382257352,54.7496299530369,0</coordinates>
			</Point>
		</Placemark>
		<Placemark>
			<name>CARP6-Z4-140</name>
			<styleUrl>#msn_ylw-pushpin</styleUrl>
			<Point>
				<coordinates>-123.340317287875,54.7706378330138,0</coordinates>
			</Point>
		</Placemark>
		<Placemark>
			<name>CARP6-Z4-194</name>
			<styleUrl>#msn_ylw-pushpin</styleUrl>
			<Point>
				<coordinates>-123.328220020986,54.768411388108,0</coordinates>
			</Point>
		</Placemark>
		<Placemark>
			<name>CARP6-Z4-233</name>
			<styleUrl>#msn_ylw-pushpin</styleUrl>
			<Point>
				<coordinates>-123.25104021462,54.78524024980659,0</coordinates>
			</Point>
		</Placemark>
		<Placemark>
			<name>CARP6-Z4-240</name>
			<styleUrl>#msn_ylw-pushpin</styleUrl>
			<Point>
				<coordinates>-123.287624585323,54.733754981186,0</coordinates>
			</Point>
		</Placemark>
		<Placemark>
			<name>CARP6-Z4-243</name>
			<styleUrl>#msn_ylw-pushpin</styleUrl>
			<Point>
				<coordinates>-123.26930168626,54.7665890699716,0</coordinates>
			</Point>
		</Placemark>
		<Placemark>
			<name>CARP6-Z4-251</name>
			<styleUrl>#msn_ylw-pushpin</styleUrl>
			<Point>
				<coordinates>-123.29852665244,54.7618270240957,0</coordinates>
			</Point>
		</Placemark>
		<Placemark>
			<name>CARP6-Z4-266</name>
			<styleUrl>#msn_ylw-pushpin</styleUrl>
			<Point>
				<coordinates>-123.267538418794,54.76955691056691,0</coordinates>
			</Point>
		</Placemark>
		<Placemark>
			<name>CARP6-Z4-284</name>
			<styleUrl>#msn_ylw-pushpin</styleUrl>
			<Point>
				<coordinates>-123.305020646769,54.7297661326605,0</coordinates>
			</Point>
		</Placemark>
		<Placemark>
			<name>CARP6-Z4-319</name>
			<styleUrl>#msn_ylw-pushpin</styleUrl>
			<Point>
				<coordinates>-123.247358759957,54.7782968356586,0</coordinates>
			</Point>
		</Placemark>
		<Placemark>
			<name>CARP6-Z4-320</name>
			<styleUrl>#msn_ylw-pushpin</styleUrl>
			<Point>
				<coordinates>-123.283532360265,54.76149131058259,0</coordinates>
			</Point>
		</Placemark>
		<Placemark>
			<name>CARP6-Z4-426</name>
			<styleUrl>#msn_ylw-pushpin</styleUrl>
			<Point>
				<coordinates>-123.337288868402,54.7698561142132,0</coordinates>
			</Point>
		</Placemark>
		<Placemark>
			<name>CARP6-Z4-427</name>
			<styleUrl>#msn_ylw-pushpin</styleUrl>
			<Point>
				<coordinates>-123.31991815262,54.76309370271699,0</coordinates>
			</Point>
		</Placemark>
	</Folder>
</Document>
</kml>
