<?xml version="1.0" standalone="yes"?>
<gpx xmlns="http://www.topografix.com/GPX/1/1" creator="KML2GPX.COM" version="1.1" xmlns:xsi="http://www.w3.org/2001/XMLSchema-instance" xsi:schemaLocation="http://www.topografix.com/GPX/1/1 http://www.topografix.com/GPX/1/1/gpx.xsd">
    <metadata>
        <name><![CDATA[Carp_oc7_Z3.kml]]></name>
        <desc><![CDATA[Converted from a KML file KML2GPX.COM]]></desc>
                </metadata>

                                                                                
                <wpt lat="54.74426938438311" lon="-123.370320896106">
                                                            <ele>0</ele>
                    <name><![CDATA[CARP7-Z3-6]]></name>
                    <cmt><![CDATA[Waypoint no: 1]]></cmt>
                    <desc><![CDATA[This is waypoint no: 1]]></desc>
                </wpt>
                                                                                                                            
                <wpt lat="54.72806695742301" lon="-123.373506946848">
                                                            <ele>0</ele>
                    <name><![CDATA[CARP7-Z3-19]]></name>
                    <cmt><![CDATA[Waypoint no: 2]]></cmt>
                    <desc><![CDATA[This is waypoint no: 2]]></desc>
                </wpt>
                                                                                                                            
                <wpt lat="54.7253908351162" lon="-123.329817611621">
                                                            <ele>0</ele>
                    <name><![CDATA[CARP7-Z3-27]]></name>
                    <cmt><![CDATA[Waypoint no: 3]]></cmt>
                    <desc><![CDATA[This is waypoint no: 3]]></desc>
                </wpt>
                                                                                                                            
                <wpt lat="54.73754416354728" lon="-123.3353318130647">
                                                            <ele>0</ele>
                    <name><![CDATA[CARP7-Z3-30]]></name>
                    <cmt><![CDATA[Waypoint no: 4]]></cmt>
                    <desc><![CDATA[This is waypoint no: 4]]></desc>
                </wpt>
                                                                                                                            
                <wpt lat="54.7635028989257" lon="-123.356900531223">
                                                            <ele>0</ele>
                    <name><![CDATA[CARP7-Z3-53]]></name>
                    <cmt><![CDATA[Waypoint no: 5]]></cmt>
                    <desc><![CDATA[This is waypoint no: 5]]></desc>
                </wpt>
                                                                                                                            
                <wpt lat="54.7181283317262" lon="-123.361632220657">
                                                            <ele>0</ele>
                    <name><![CDATA[CARP7-Z3-101]]></name>
                    <cmt><![CDATA[Waypoint no: 6]]></cmt>
                    <desc><![CDATA[This is waypoint no: 6]]></desc>
                </wpt>
                                                                                                                            
                <wpt lat="54.7252036270504" lon="-123.373640629465">
                                                            <ele>0</ele>
                    <name><![CDATA[CARP7-Z3-108]]></name>
                    <cmt><![CDATA[Waypoint no: 7]]></cmt>
                    <desc><![CDATA[This is waypoint no: 7]]></desc>
                </wpt>
                                                                                                                            
                <wpt lat="54.74057492357979" lon="-123.3535683077403">
                                                            <ele>0</ele>
                    <name><![CDATA[CARP7-Z3-136]]></name>
                    <cmt><![CDATA[Waypoint no: 8]]></cmt>
                    <desc><![CDATA[This is waypoint no: 8]]></desc>
                </wpt>
                                                                                                                            
                <wpt lat="54.72710227929501" lon="-123.314963341454">
                                                            <ele>0</ele>
                    <name><![CDATA[CARP7-Z3-149]]></name>
                    <cmt><![CDATA[Waypoint no: 9]]></cmt>
                    <desc><![CDATA[This is waypoint no: 9]]></desc>
                </wpt>
                                                                                                                            
                <wpt lat="54.7271715427531" lon="-123.327075011369">
                                                            <ele>0</ele>
                    <name><![CDATA[CARP7-Z3-167]]></name>
                    <cmt><![CDATA[Waypoint no: 10]]></cmt>
                    <desc><![CDATA[This is waypoint no: 10]]></desc>
                </wpt>
                                                                                                                            
                <wpt lat="54.7508759108774" lon="-123.364036668121">
                                                            <ele>0</ele>
                    <name><![CDATA[CARP7-Z3-168]]></name>
                    <cmt><![CDATA[Waypoint no: 11]]></cmt>
                    <desc><![CDATA[This is waypoint no: 11]]></desc>
                </wpt>
                                                                                                                            
                <wpt lat="54.7211582960028" lon="-123.356591988475">
                                                            <ele>0</ele>
                    <name><![CDATA[CARP7-Z3-194]]></name>
                    <cmt><![CDATA[Waypoint no: 12]]></cmt>
                    <desc><![CDATA[This is waypoint no: 12]]></desc>
                </wpt>
                                                                                                                            
                <wpt lat="54.7150393911729" lon="-123.376189151649">
                                                            <ele>0</ele>
                    <name><![CDATA[CARP7-Z3-202]]></name>
                    <cmt><![CDATA[Waypoint no: 13]]></cmt>
                    <desc><![CDATA[This is waypoint no: 13]]></desc>
                </wpt>
                                                                                                                            
                <wpt lat="54.74775306014387" lon="-123.3513495154671">
                                                            <ele>0</ele>
                    <name><![CDATA[CARP7-Z3-238]]></name>
                    <cmt><![CDATA[Waypoint no: 14]]></cmt>
                    <desc><![CDATA[This is waypoint no: 14]]></desc>
                </wpt>
                                                                                                                            
                <wpt lat="54.7412944808671" lon="-123.371563413811">
                                                            <ele>0</ele>
                    <name><![CDATA[CARP7-Z3-249]]></name>
                    <cmt><![CDATA[Waypoint no: 15]]></cmt>
                    <desc><![CDATA[This is waypoint no: 15]]></desc>
                </wpt>
                                                                                                                            
                <wpt lat="54.7208675695143" lon="-123.376433082532">
                                                            <ele>0</ele>
                    <name><![CDATA[CARP7-Z3-258]]></name>
                    <cmt><![CDATA[Waypoint no: 16]]></cmt>
                    <desc><![CDATA[This is waypoint no: 16]]></desc>
                </wpt>
                                                                                                                            
                <wpt lat="54.76149912445191" lon="-123.35396156198">
                                                            <ele>0</ele>
                    <name><![CDATA[CARP7-Z3-266]]></name>
                    <cmt><![CDATA[Waypoint no: 17]]></cmt>
                    <desc><![CDATA[This is waypoint no: 17]]></desc>
                </wpt>
                                                                                                                            
                <wpt lat="54.7243454304139" lon="-123.344593495583">
                                                            <ele>0</ele>
                    <name><![CDATA[CARP7-Z3-279]]></name>
                    <cmt><![CDATA[Waypoint no: 18]]></cmt>
                    <desc><![CDATA[This is waypoint no: 18]]></desc>
                </wpt>
                                                                                                                            
                <wpt lat="54.71848432534701" lon="-123.367307238222">
                                                            <ele>0</ele>
                    <name><![CDATA[CARP7-Z3-314]]></name>
                    <cmt><![CDATA[Waypoint no: 19]]></cmt>
                    <desc><![CDATA[This is waypoint no: 19]]></desc>
                </wpt>
                                                                                                                            
                <wpt lat="54.7263206760169" lon="-123.313030486225">
                                                            <ele>0</ele>
                    <name><![CDATA[CARP7-Z3-322]]></name>
                    <cmt><![CDATA[Waypoint no: 20]]></cmt>
                    <desc><![CDATA[This is waypoint no: 20]]></desc>
                </wpt>
                                                            
                    
    
</gpx>