<?xml version="1.0" encoding="utf-8" ?>
<kml xmlns="http://www.opengis.net/kml/2.2">
<Document id="root_doc">
<Folder><name>carp_occ6_trapping_points</name>
  <Placemark>
	<name>CARP6-1</name>
      <Point><coordinates>-123.353256328351,54.8007584980425</coordinates></Point>
  </Placemark>
  <Placemark>
	<name>CARP6-2</name>
      <Point><coordinates>-123.330866802254,54.8114912814967</coordinates></Point>
  </Placemark>
  <Placemark>
	<name>CARP6-3</name>
      <Point><coordinates>-123.322498037968,54.8047506772459</coordinates></Point>
  </Placemark>
  <Placemark>
	<name>CARP6-4</name>
      <Point><coordinates>-123.368490373545,54.7997087542997</coordinates></Point>
  </Placemark>
  <Placemark>
	<name>CARP6-5</name>
      <Point><coordinates>-123.375775276279,54.7234932192754</coordinates></Point>
  </Placemark>
  <Placemark>
	<name>CARP6-6</name>
      <Point><coordinates>-123.40328273952,54.7582353851276</coordinates></Point>
  </Placemark>
  <Placemark>
	<name>CARP6-7</name>
      <Point><coordinates>-123.407210917119,54.7714412238842</coordinates></Point>
  </Placemark>
  <Placemark>
	<name>CARP6-8</name>
      <Point><coordinates>-123.406152341894,54.7466900413224</coordinates></Point>
  </Placemark>
  <Placemark>
	<name>CARP6-9</name>
      <Point><coordinates>-123.357956302973,54.7657711035898</coordinates></Point>
  </Placemark>
  <Placemark>
	<name>CARP6-10</name>
      <Point><coordinates>-123.378552357579,54.7191605227731</coordinates></Point>
  </Placemark>
  <Placemark>
	<name>CARP6-11</name>
      <Point><coordinates>-123.345825122768,54.81000995394</coordinates></Point>
  </Placemark>
  <Placemark>
	<name>CARP6-12</name>
      <Point><coordinates>-123.35873685415,54.806614410494</coordinates></Point>
  </Placemark>
  <Placemark>
	<name>CARP6-13</name>
      <Point><coordinates>-123.348385599696,54.8098565131251</coordinates></Point>
  </Placemark>
  <Placemark>
	<name>CARP6-14</name>
      <Point><coordinates>-123.263514438183,54.7736567259388</coordinates></Point>
  </Placemark>
  <Placemark>
	<name>CARP6-15</name>
      <Point><coordinates>-123.365559241833,54.8035829683077</coordinates></Point>
  </Placemark>
  <Placemark>
	<name>CARP6-16</name>
      <Point><coordinates>-123.315712954412,54.7785850192896</coordinates></Point>
  </Placemark>
  <Placemark>
	<name>CARP6-17</name>
      <Point><coordinates>-123.326886299927,54.7251770984237</coordinates></Point>
  </Placemark>
  <Placemark>
	<name>CARP6-18</name>
      <Point><coordinates>-123.354095807558,54.7993619151376</coordinates></Point>
  </Placemark>
  <Placemark>
	<name>CARP6-19</name>
      <Point><coordinates>-123.370012740977,54.7518934540687</coordinates></Point>
  </Placemark>
  <Placemark>
	<name>CARP6-20</name>
      <Point><coordinates>-123.360677880442,54.7999690470165</coordinates></Point>
  </Placemark>
  <Placemark>
	<name>CARP6-21</name>
      <Point><coordinates>-123.313735499044,54.7609416563094</coordinates></Point>
  </Placemark>
  <Placemark>
	<name>CARP6-22</name>
      <Point><coordinates>-123.371538550198,54.7905959373118</coordinates></Point>
  </Placemark>
  <Placemark>
	<name>CARP6-23</name>
      <Point><coordinates>-123.395567722736,54.7829313619833</coordinates></Point>
  </Placemark>
  <Placemark>
	<name>CARP6-24</name>
      <Point><coordinates>-123.386675657048,54.7785711392296</coordinates></Point>
  </Placemark>
  <Placemark>
	<name>CARP6-25</name>
      <Point><coordinates>-123.346529601507,54.8205154511659</coordinates></Point>
  </Placemark>
  <Placemark>
	<name>CARP6-26</name>
      <Point><coordinates>-123.335716876797,54.7873355703817</coordinates></Point>
  </Placemark>
  <Placemark>
	<name>CARP6-27</name>
      <Point><coordinates>-123.363606858503,54.8066900167362</coordinates></Point>
  </Placemark>
  <Placemark>
	<name>CARP6-28</name>
      <Point><coordinates>-123.313968288666,54.7864650166046</coordinates></Point>
  </Placemark>
  <Placemark>
	<name>CARP6-29</name>
      <Point><coordinates>-123.380312612838,54.7781408559889</coordinates></Point>
  </Placemark>
  <Placemark>
	<name>CARP6-30</name>
      <Point><coordinates>-123.339665540386,54.788694342702</coordinates></Point>
  </Placemark>
  <Placemark>
	<name>CARP6-31</name>
      <Point><coordinates>-123.342439051769,54.8094001141023</coordinates></Point>
  </Placemark>
  <Placemark>
	<name>CARP6-32</name>
      <Point><coordinates>-123.375948270782,54.7458247005773</coordinates></Point>
  </Placemark>
  <Placemark>
	<name>CARP6-33</name>
      <Point><coordinates>-123.398049392585,54.7853441299743</coordinates></Point>
  </Placemark>
  <Placemark>
	<name>CARP6-34</name>
      <Point><coordinates>-123.363985741543,54.7652897088862</coordinates></Point>
  </Placemark>
  <Placemark>
	<name>CARP6-35</name>
      <Point><coordinates>-123.377021610966,54.7953257970871</coordinates></Point>
  </Placemark>
  <Placemark>
	<name>CARP6-36</name>
      <Point><coordinates>-123.313905636686,54.78611230635</coordinates></Point>
  </Placemark>
  <Placemark>
	<name>CARP6-37</name>
      <Point><coordinates>-123.349601830521,54.8173309351445</coordinates></Point>
  </Placemark>
  <Placemark>
	<name>CARP6-38</name>
      <Point><coordinates>-123.38109463918,54.7199024191738</coordinates></Point>
  </Placemark>
  <Placemark>
	<name>CARP6-39</name>
      <Point><coordinates>-123.37984207078,54.7259649722696</coordinates></Point>
  </Placemark>
  <Placemark>
	<name>CARP6-40</name>
      <Point><coordinates>-123.282530144275,54.737762094172</coordinates></Point>
  </Placemark>
  <Placemark>
	<name>CARP6-41</name>
      <Point><coordinates>-123.354116688299,54.7996358057396</coordinates></Point>
  </Placemark>
  <Placemark>
	<name>CARP6-42</name>
      <Point><coordinates>-123.247462765626,54.7740844576851</coordinates></Point>
  </Placemark>
  <Placemark>
	<name>CARP6-43</name>
      <Point><coordinates>-123.342450389596,54.7727809170592</coordinates></Point>
  </Placemark>
  <Placemark>
	<name>CARP6-44</name>
      <Point><coordinates>-123.404352882921,54.7801010177084</coordinates></Point>
  </Placemark>
  <Placemark>
	<name>CARP6-45</name>
      <Point><coordinates>-123.387836485695,54.7744418187938</coordinates></Point>
  </Placemark>
  <Placemark>
	<name>CARP6-46</name>
      <Point><coordinates>-123.276644818146,54.766859622204</coordinates></Point>
  </Placemark>
  <Placemark>
	<name>CARP6-47</name>
      <Point><coordinates>-123.411506839211,54.7691015791809</coordinates></Point>
  </Placemark>
  <Placemark>
	<name>CARP6-48</name>
      <Point><coordinates>-123.337597490792,54.8020913977189</coordinates></Point>
  </Placemark>
  <Placemark>
	<name>CARP6-49</name>
      <Point><coordinates>-123.374509336956,54.7391548722724</coordinates></Point>
  </Placemark>
  <Placemark>
	<name>CARP6-50</name>
      <Point><coordinates>-123.366522491416,54.7524388913308</coordinates></Point>
  </Placemark>
  <Placemark>
	<name>CARP6-51</name>
      <Point><coordinates>-123.376315501016,54.7274099214817</coordinates></Point>
  </Placemark>
  <Placemark>
	<name>CARP6-52</name>
      <Point><coordinates>-123.40767974023,54.7748504283181</coordinates></Point>
  </Placemark>
  <Placemark>
	<name>CARP6-53</name>
      <Point><coordinates>-123.360541445592,54.7718235363797</coordinates></Point>
  </Placemark>
  <Placemark>
	<name>CARP6-54</name>
      <Point><coordinates>-123.333316407173,54.7957138379812</coordinates></Point>
  </Placemark>
  <Placemark>
	<name>CARP6-55</name>
      <Point><coordinates>-123.399473052401,54.7622748576569</coordinates></Point>
  </Placemark>
  <Placemark>
	<name>CARP6-56</name>
      <Point><coordinates>-123.313238234002,54.725819335207</coordinates></Point>
  </Placemark>
  <Placemark>
	<name>CARP6-57</name>
      <Point><coordinates>-123.369350354844,54.7572696660272</coordinates></Point>
  </Placemark>
  <Placemark>
	<name>CARP6-58</name>
      <Point><coordinates>-123.261584322059,54.7628481174644</coordinates></Point>
  </Placemark>
  <Placemark>
	<name>CARP6-59</name>
      <Point><coordinates>-123.339312605793,54.7959070833463</coordinates></Point>
  </Placemark>
  <Placemark>
	<name>CARP6-60</name>
      <Point><coordinates>-123.365692244432,54.7610583120503</coordinates></Point>
  </Placemark>
  <Placemark>
	<name>CARP6-61</name>
      <Point><coordinates>-123.329803153414,54.7267154752238</coordinates></Point>
  </Placemark>
  <Placemark>
	<name>CARP6-62</name>
      <Point><coordinates>-123.372086477032,54.7609280318401</coordinates></Point>
  </Placemark>
  <Placemark>
	<name>CARP6-63</name>
      <Point><coordinates>-123.28712877221,54.7350472142463</coordinates></Point>
  </Placemark>
  <Placemark>
	<name>CARP6-64</name>
      <Point><coordinates>-123.36007260069,54.807265802835</coordinates></Point>
  </Placemark>
  <Placemark>
	<name>CARP6-65</name>
      <Point><coordinates>-123.374432896285,54.7100184750923</coordinates></Point>
  </Placemark>
  <Placemark>
	<name>CARP6-66</name>
      <Point><coordinates>-123.379273832644,54.7223924055135</coordinates></Point>
  </Placemark>
  <Placemark>
	<name>CARP6-67</name>
      <Point><coordinates>-123.407959953551,54.787682669722</coordinates></Point>
  </Placemark>
  <Placemark>
	<name>CARP6-68</name>
      <Point><coordinates>-123.243823992481,54.7758305342498</coordinates></Point>
  </Placemark>
  <Placemark>
	<name>CARP6-69</name>
      <Point><coordinates>-123.389680828716,54.7594828844739</coordinates></Point>
  </Placemark>
  <Placemark>
	<name>CARP6-70</name>
      <Point><coordinates>-123.378239237227,54.7595354349754</coordinates></Point>
  </Placemark>
  <Placemark>
	<name>CARP6-71</name>
      <Point><coordinates>-123.36961490842,54.7206890886899</coordinates></Point>
  </Placemark>
  <Placemark>
	<name>CARP6-72</name>
      <Point><coordinates>-123.312419802258,54.7282706836625</coordinates></Point>
  </Placemark>
  <Placemark>
	<name>CARP6-73</name>
      <Point><coordinates>-123.385988177042,54.7805041907175</coordinates></Point>
  </Placemark>
  <Placemark>
	<name>CARP6-74</name>
      <Point><coordinates>-123.362826440486,54.7694756099224</coordinates></Point>
  </Placemark>
  <Placemark>
	<name>CARP6-75</name>
      <Point><coordinates>-123.36437795214,54.7152282142415</coordinates></Point>
  </Placemark>
  <Placemark>
	<name>CARP6-76</name>
      <Point><coordinates>-123.277542904279,54.7628957555267</coordinates></Point>
  </Placemark>
  <Placemark>
	<name>CARP6-77</name>
      <Point><coordinates>-123.246927092106,54.7874796598964</coordinates></Point>
  </Placemark>
  <Placemark>
	<name>CARP6-78</name>
      <Point><coordinates>-123.379230014,54.7126937545699</coordinates></Point>
  </Placemark>
  <Placemark>
	<name>CARP6-79</name>
      <Point><coordinates>-123.412470095139,54.7695146037684</coordinates></Point>
  </Placemark>
  <Placemark>
	<name>CARP6-80</name>
      <Point><coordinates>-123.346574821844,54.8202285573116</coordinates></Point>
  </Placemark>
  <Placemark>
	<name>CARP6-81</name>
      <Point><coordinates>-123.312252675292,54.7877426020095</coordinates></Point>
  </Placemark>
  <Placemark>
	<name>CARP6-82</name>
      <Point><coordinates>-123.372278736161,54.7922937401269</coordinates></Point>
  </Placemark>
  <Placemark>
	<name>CARP6-83</name>
      <Point><coordinates>-123.406119632523,54.7694592078508</coordinates></Point>
  </Placemark>
  <Placemark>
	<name>CARP6-84</name>
      <Point><coordinates>-123.363662959078,54.7595554755858</coordinates></Point>
  </Placemark>
  <Placemark>
	<name>CARP6-85</name>
      <Point><coordinates>-123.376162367446,54.7284779221378</coordinates></Point>
  </Placemark>
  <Placemark>
	<name>CARP6-86</name>
      <Point><coordinates>-123.33540692881,54.7740926428451</coordinates></Point>
  </Placemark>
  <Placemark>
	<name>CARP6-87</name>
      <Point><coordinates>-123.365971814799,54.8026860392036</coordinates></Point>
  </Placemark>
  <Placemark>
	<name>CARP6-88</name>
      <Point><coordinates>-123.342780908814,54.8200699234053</coordinates></Point>
  </Placemark>
  <Placemark>
	<name>CARP6-89</name>
      <Point><coordinates>-123.414609920107,54.7687311319706</coordinates></Point>
  </Placemark>
  <Placemark>
	<name>CARP6-90</name>
      <Point><coordinates>-123.373523180627,54.7823639609953</coordinates></Point>
  </Placemark>
  <Placemark>
	<name>CARP6-91</name>
      <Point><coordinates>-123.361583365245,54.7907359910688</coordinates></Point>
  </Placemark>
  <Placemark>
	<name>CARP6-92</name>
      <Point><coordinates>-123.332614789672,54.7895175795567</coordinates></Point>
  </Placemark>
  <Placemark>
	<name>CARP6-93</name>
      <Point><coordinates>-123.346103157407,54.821130086016</coordinates></Point>
  </Placemark>
  <Placemark>
	<name>CARP6-94</name>
      <Point><coordinates>-123.422697532963,54.7819197458758</coordinates></Point>
  </Placemark>
  <Placemark>
	<name>CARP6-95</name>
      <Point><coordinates>-123.378087866977,54.761093552188</coordinates></Point>
  </Placemark>
  <Placemark>
	<name>CARP6-96</name>
      <Point><coordinates>-123.357730024367,54.8062833229373</coordinates></Point>
  </Placemark>
  <Placemark>
	<name>CARP6-97</name>
      <Point><coordinates>-123.368551139724,54.71422109038</coordinates></Point>
  </Placemark>
  <Placemark>
	<name>CARP6-98</name>
      <Point><coordinates>-123.319805689046,54.7630358505484</coordinates></Point>
  </Placemark>
  <Placemark>
	<name>CARP6-99</name>
      <Point><coordinates>-123.355835517097,54.8072671280711</coordinates></Point>
  </Placemark>
  <Placemark>
	<name>CARP6-100</name>
      <Point><coordinates>-123.426669755617,54.7782868162836</coordinates></Point>
  </Placemark>
  <Placemark>
	<name>CARP6-101</name>
      <Point><coordinates>-123.338016583044,54.7907649707562</coordinates></Point>
  </Placemark>
  <Placemark>
	<name>CARP6-102</name>
      <Point><coordinates>-123.264979470855,54.7742708833622</coordinates></Point>
  </Placemark>
  <Placemark>
	<name>CARP6-103</name>
      <Point><coordinates>-123.277350210358,54.7420408339732</coordinates></Point>
  </Placemark>
  <Placemark>
	<name>CARP6-104</name>
      <Point><coordinates>-123.320598610722,54.7830260777082</coordinates></Point>
  </Placemark>
  <Placemark>
	<name>CARP6-105</name>
      <Point><coordinates>-123.397421925443,54.7637508991492</coordinates></Point>
  </Placemark>
  <Placemark>
	<name>CARP6-106</name>
      <Point><coordinates>-123.275496196253,54.7630758167887</coordinates></Point>
  </Placemark>
  <Placemark>
	<name>CARP6-107</name>
      <Point><coordinates>-123.243484147132,54.7846545680398</coordinates></Point>
  </Placemark>
  <Placemark>
	<name>CARP6-108</name>
      <Point><coordinates>-123.361632220657,54.7970773561192</coordinates></Point>
  </Placemark>
  <Placemark>
	<name>CARP6-109</name>
      <Point><coordinates>-123.41056020048,54.7625660214667</coordinates></Point>
  </Placemark>
  <Placemark>
	<name>CARP6-110</name>
      <Point><coordinates>-123.250831550832,54.7876618658721</coordinates></Point>
  </Placemark>
  <Placemark>
	<name>CARP6-111</name>
      <Point><coordinates>-123.351602385352,54.8124194243462</coordinates></Point>
  </Placemark>
  <Placemark>
	<name>CARP6-112</name>
      <Point><coordinates>-123.318512663538,54.7271715427531</coordinates></Point>
  </Placemark>
  <Placemark>
	<name>CARP6-113</name>
      <Point><coordinates>-123.279986904348,54.7392688387381</coordinates></Point>
  </Placemark>
  <Placemark>
	<name>CARP6-114</name>
      <Point><coordinates>-123.268968887145,54.7673394085465</coordinates></Point>
  </Placemark>
  <Placemark>
	<name>CARP6-115</name>
      <Point><coordinates>-123.364238313287,54.7222796613369</coordinates></Point>
  </Placemark>
  <Placemark>
	<name>CARP6-116</name>
      <Point><coordinates>-123.426348384998,54.780631739847</coordinates></Point>
  </Placemark>
  <Placemark>
	<name>CARP6-117</name>
      <Point><coordinates>-123.319745646994,54.7808611086578</coordinates></Point>
  </Placemark>
  <Placemark>
	<name>CARP6-118</name>
      <Point><coordinates>-123.326635945854,54.7827615540827</coordinates></Point>
  </Placemark>
  <Placemark>
	<name>CARP6-119</name>
      <Point><coordinates>-123.382417026131,54.7857168087639</coordinates></Point>
  </Placemark>
  <Placemark>
	<name>CARP6-120</name>
      <Point><coordinates>-123.403789525946,54.7702093839405</coordinates></Point>
  </Placemark>
  <Placemark>
	<name>CARP6-121</name>
      <Point><coordinates>-123.399105515634,54.7639442788902</coordinates></Point>
  </Placemark>
  <Placemark>
	<name>CARP6-122</name>
      <Point><coordinates>-123.363257847226,54.7186910090658</coordinates></Point>
  </Placemark>
  <Placemark>
	<name>CARP6-123</name>
      <Point><coordinates>-123.327423519197,54.7987529651467</coordinates></Point>
  </Placemark>
  <Placemark>
	<name>CARP6-124</name>
      <Point><coordinates>-123.359370610448,54.7180050666511</coordinates></Point>
  </Placemark>
  <Placemark>
	<name>CARP6-125</name>
      <Point><coordinates>-123.349504271979,54.8182318873167</coordinates></Point>
  </Placemark>
  <Placemark>
	<name>CARP6-126</name>
      <Point><coordinates>-123.338625631293,54.8140658490331</coordinates></Point>
  </Placemark>
  <Placemark>
	<name>CARP6-127</name>
      <Point><coordinates>-123.295198924105,54.7629150786451</coordinates></Point>
  </Placemark>
  <Placemark>
	<name>CARP6-128</name>
      <Point><coordinates>-123.27088706966,54.7664999897961</coordinates></Point>
  </Placemark>
  <Placemark>
	<name>CARP6-129</name>
      <Point><coordinates>-123.278965855722,54.7649679715915</coordinates></Point>
  </Placemark>
  <Placemark>
	<name>CARP6-130</name>
      <Point><coordinates>-123.369530676296,54.7462980004796</coordinates></Point>
  </Placemark>
  <Placemark>
	<name>CARP6-131</name>
      <Point><coordinates>-123.402239203754,54.7751625666983</coordinates></Point>
  </Placemark>
  <Placemark>
	<name>CARP6-132</name>
      <Point><coordinates>-123.423222806635,54.774104346358</coordinates></Point>
  </Placemark>
  <Placemark>
	<name>CARP6-133</name>
      <Point><coordinates>-123.403028583912,54.7636317618333</coordinates></Point>
  </Placemark>
  <Placemark>
	<name>CARP6-134</name>
      <Point><coordinates>-123.367808836604,54.8017280421145</coordinates></Point>
  </Placemark>
  <Placemark>
	<name>CARP6-135</name>
      <Point><coordinates>-123.276107062301,54.7629560901125</coordinates></Point>
  </Placemark>
  <Placemark>
	<name>CARP6-136</name>
      <Point><coordinates>-123.376908023656,54.7454162060653</coordinates></Point>
  </Placemark>
  <Placemark>
	<name>CARP6-137</name>
      <Point><coordinates>-123.388881978678,54.7761432410196</coordinates></Point>
  </Placemark>
  <Placemark>
	<name>CARP6-138</name>
      <Point><coordinates>-123.36218569029,54.7221391473993</coordinates></Point>
  </Placemark>
  <Placemark>
	<name>CARP6-139</name>
      <Point><coordinates>-123.361362635039,54.7957105823999</coordinates></Point>
  </Placemark>
  <Placemark>
	<name>CARP6-140</name>
      <Point><coordinates>-123.340317287875,54.7706378330138</coordinates></Point>
  </Placemark>
  <Placemark>
	<name>CARP6-141</name>
      <Point><coordinates>-123.374675890152,54.7113567453187</coordinates></Point>
  </Placemark>
  <Placemark>
	<name>CARP6-142</name>
      <Point><coordinates>-123.34532658849,54.8102847106914</coordinates></Point>
  </Placemark>
  <Placemark>
	<name>CARP6-143</name>
      <Point><coordinates>-123.285045249415,54.7612940668955</coordinates></Point>
  </Placemark>
  <Placemark>
	<name>CARP6-144</name>
      <Point><coordinates>-123.375739114353,54.7135113583831</coordinates></Point>
  </Placemark>
  <Placemark>
	<name>CARP6-145</name>
      <Point><coordinates>-123.335314629596,54.8002517624098</coordinates></Point>
  </Placemark>
  <Placemark>
	<name>CARP6-146</name>
      <Point><coordinates>-123.388231922656,54.7823809763196</coordinates></Point>
  </Placemark>
  <Placemark>
	<name>CARP6-147</name>
      <Point><coordinates>-123.327405375899,54.7824593082485</coordinates></Point>
  </Placemark>
  <Placemark>
	<name>CARP6-148</name>
      <Point><coordinates>-123.275917732499,54.7666126644048</coordinates></Point>
  </Placemark>
  <Placemark>
	<name>CARP6-149</name>
      <Point><coordinates>-123.321819227223,54.7272371187515</coordinates></Point>
  </Placemark>
  <Placemark>
	<name>CARP6-150</name>
      <Point><coordinates>-123.371136280023,54.793342540393</coordinates></Point>
  </Placemark>
  <Placemark>
	<name>CARP6-151</name>
      <Point><coordinates>-123.319009726413,54.7854253433273</coordinates></Point>
  </Placemark>
  <Placemark>
	<name>CARP6-152</name>
      <Point><coordinates>-123.357962498791,54.754313781669</coordinates></Point>
  </Placemark>
  <Placemark>
	<name>CARP6-153</name>
      <Point><coordinates>-123.278189650575,54.7619796679546</coordinates></Point>
  </Placemark>
  <Placemark>
	<name>CARP6-154</name>
      <Point><coordinates>-123.364713759611,54.804537592182</coordinates></Point>
  </Placemark>
  <Placemark>
	<name>CARP6-155</name>
      <Point><coordinates>-123.40432703372,54.7619669419195</coordinates></Point>
  </Placemark>
  <Placemark>
	<name>CARP6-156</name>
      <Point><coordinates>-123.400296611145,54.7593794040062</coordinates></Point>
  </Placemark>
  <Placemark>
	<name>CARP6-157</name>
      <Point><coordinates>-123.356978864216,54.7636461919721</coordinates></Point>
  </Placemark>
  <Placemark>
	<name>CARP6-158</name>
      <Point><coordinates>-123.412656307757,54.7549576777588</coordinates></Point>
  </Placemark>
  <Placemark>
	<name>CARP6-159</name>
      <Point><coordinates>-123.399710072441,54.7617330150478</coordinates></Point>
  </Placemark>
  <Placemark>
	<name>CARP6-160</name>
      <Point><coordinates>-123.353925489979,54.7227849974321</coordinates></Point>
  </Placemark>
  <Placemark>
	<name>CARP6-161</name>
      <Point><coordinates>-123.365879128185,54.7131769437323</coordinates></Point>
  </Placemark>
  <Placemark>
	<name>CARP6-162</name>
      <Point><coordinates>-123.372976273339,54.7184992610305</coordinates></Point>
  </Placemark>
  <Placemark>
	<name>CARP6-163</name>
      <Point><coordinates>-123.418607224514,54.7744134902672</coordinates></Point>
  </Placemark>
  <Placemark>
	<name>CARP6-164</name>
      <Point><coordinates>-123.350074768613,54.8037113186291</coordinates></Point>
  </Placemark>
  <Placemark>
	<name>CARP6-165</name>
      <Point><coordinates>-123.340214404016,54.7987987042948</coordinates></Point>
  </Placemark>
  <Placemark>
	<name>CARP6-166</name>
      <Point><coordinates>-123.379487417151,54.7807793295966</coordinates></Point>
  </Placemark>
  <Placemark>
	<name>CARP6-167</name>
      <Point><coordinates>-123.404211495364,54.7718635907072</coordinates></Point>
  </Placemark>
  <Placemark>
	<name>CARP6-168</name>
      <Point><coordinates>-123.356541249493,54.7680952045544</coordinates></Point>
  </Placemark>
  <Placemark>
	<name>CARP6-169</name>
      <Point><coordinates>-123.374602439808,54.7208777619489</coordinates></Point>
  </Placemark>
  <Placemark>
	<name>CARP6-170</name>
      <Point><coordinates>-123.366044533009,54.7624864463865</coordinates></Point>
  </Placemark>
  <Placemark>
	<name>CARP6-171</name>
      <Point><coordinates>-123.345972892601,54.7718019580274</coordinates></Point>
  </Placemark>
  <Placemark>
	<name>CARP6-172</name>
      <Point><coordinates>-123.356579526299,54.7181463360833</coordinates></Point>
  </Placemark>
  <Placemark>
	<name>CARP6-173</name>
      <Point><coordinates>-123.324503448535,54.8033060046017</coordinates></Point>
  </Placemark>
  <Placemark>
	<name>CARP6-174</name>
      <Point><coordinates>-123.311917838312,54.7819257941636</coordinates></Point>
  </Placemark>
  <Placemark>
	<name>CARP6-175</name>
      <Point><coordinates>-123.351210124475,54.8027838988641</coordinates></Point>
  </Placemark>
  <Placemark>
	<name>CARP6-176</name>
      <Point><coordinates>-123.356384785499,54.8033359346259</coordinates></Point>
  </Placemark>
  <Placemark>
	<name>CARP6-177</name>
      <Point><coordinates>-123.389328265638,54.7591658597602</coordinates></Point>
  </Placemark>
  <Placemark>
	<name>CARP6-178</name>
      <Point><coordinates>-123.373902780749,54.7203336726259</coordinates></Point>
  </Placemark>
  <Placemark>
	<name>CARP6-179</name>
      <Point><coordinates>-123.35084440065,54.8131775371581</coordinates></Point>
  </Placemark>
  <Placemark>
	<name>CARP6-180</name>
      <Point><coordinates>-123.380412728754,54.7185282143078</coordinates></Point>
  </Placemark>
  <Placemark>
	<name>CARP6-181</name>
      <Point><coordinates>-123.419214644571,54.7729615725651</coordinates></Point>
  </Placemark>
  <Placemark>
	<name>CARP6-182</name>
      <Point><coordinates>-123.353886252571,54.7558764002367</coordinates></Point>
  </Placemark>
  <Placemark>
	<name>CARP6-183</name>
      <Point><coordinates>-123.368430617635,54.7974678518152</coordinates></Point>
  </Placemark>
  <Placemark>
	<name>CARP6-184</name>
      <Point><coordinates>-123.330742776368,54.7258338182753</coordinates></Point>
  </Placemark>
  <Placemark>
	<name>CARP6-185</name>
      <Point><coordinates>-123.334192322457,54.8128501521503</coordinates></Point>
  </Placemark>
  <Placemark>
	<name>CARP6-186</name>
      <Point><coordinates>-123.359483575546,54.7996368607268</coordinates></Point>
  </Placemark>
  <Placemark>
	<name>CARP6-187</name>
      <Point><coordinates>-123.343809519464,54.7223122359455</coordinates></Point>
  </Placemark>
  <Placemark>
	<name>CARP6-188</name>
      <Point><coordinates>-123.407814018409,54.7869789075364</coordinates></Point>
  </Placemark>
  <Placemark>
	<name>CARP6-189</name>
      <Point><coordinates>-123.402039963373,54.7746171649237</coordinates></Point>
  </Placemark>
  <Placemark>
	<name>CARP6-190</name>
      <Point><coordinates>-123.247358198439,54.7846084673536</coordinates></Point>
  </Placemark>
  <Placemark>
	<name>CARP6-191</name>
      <Point><coordinates>-123.429655301032,54.777296948953</coordinates></Point>
  </Placemark>
  <Placemark>
	<name>CARP6-192</name>
      <Point><coordinates>-123.406842848766,54.7542788407991</coordinates></Point>
  </Placemark>
  <Placemark>
	<name>CARP6-193</name>
      <Point><coordinates>-123.338647677296,54.7892866130308</coordinates></Point>
  </Placemark>
  <Placemark>
	<name>CARP6-194</name>
      <Point><coordinates>-123.328220020986,54.768411388108</coordinates></Point>
  </Placemark>
  <Placemark>
	<name>CARP6-195</name>
      <Point><coordinates>-123.382068893189,54.7601105676698</coordinates></Point>
  </Placemark>
  <Placemark>
	<name>CARP6-196</name>
      <Point><coordinates>-123.337348866913,54.8016104309197</coordinates></Point>
  </Placemark>
  <Placemark>
	<name>CARP6-197</name>
      <Point><coordinates>-123.377955364851,54.7951868725572</coordinates></Point>
  </Placemark>
  <Placemark>
	<name>CARP6-198</name>
      <Point><coordinates>-123.369001126303,54.7995278942654</coordinates></Point>
  </Placemark>
  <Placemark>
	<name>CARP6-199</name>
      <Point><coordinates>-123.383194381444,54.7160926923624</coordinates></Point>
  </Placemark>
  <Placemark>
	<name>CARP6-200</name>
      <Point><coordinates>-123.409319740113,54.7880649202262</coordinates></Point>
  </Placemark>
  <Placemark>
	<name>CARP6-201</name>
      <Point><coordinates>-123.253637559791,54.7845330985065</coordinates></Point>
  </Placemark>
  <Placemark>
	<name>CARP6-202</name>
      <Point><coordinates>-123.369651235099,54.7530063252641</coordinates></Point>
  </Placemark>
  <Placemark>
	<name>CARP6-203</name>
      <Point><coordinates>-123.312673792062,54.7834599934985</coordinates></Point>
  </Placemark>
  <Placemark>
	<name>CARP6-204</name>
      <Point><coordinates>-123.347380265734,54.7209702506122</coordinates></Point>
  </Placemark>
  <Placemark>
	<name>CARP6-205</name>
      <Point><coordinates>-123.377631400714,54.7266449191538</coordinates></Point>
  </Placemark>
  <Placemark>
	<name>CARP6-206</name>
      <Point><coordinates>-123.32285893008,54.7951287472356</coordinates></Point>
  </Placemark>
  <Placemark>
	<name>CARP6-207</name>
      <Point><coordinates>-123.383374495215,54.7822891928536</coordinates></Point>
  </Placemark>
  <Placemark>
	<name>CARP6-208</name>
      <Point><coordinates>-123.247288377131,54.7848438456027</coordinates></Point>
  </Placemark>
  <Placemark>
	<name>CARP6-209</name>
      <Point><coordinates>-123.344849682798,54.8207015704436</coordinates></Point>
  </Placemark>
  <Placemark>
	<name>CARP6-210</name>
      <Point><coordinates>-123.313007651462,54.7817968041354</coordinates></Point>
  </Placemark>
  <Placemark>
	<name>CARP6-211</name>
      <Point><coordinates>-123.356410114623,54.7550414144671</coordinates></Point>
  </Placemark>
  <Placemark>
	<name>CARP6-212</name>
      <Point><coordinates>-123.316070956493,54.7893515301022</coordinates></Point>
  </Placemark>
  <Placemark>
	<name>CARP6-213</name>
      <Point><coordinates>-123.324399393243,54.8022747356677</coordinates></Point>
  </Placemark>
  <Placemark>
	<name>CARP6-214</name>
      <Point><coordinates>-123.37826755287,54.7446568691741</coordinates></Point>
  </Placemark>
  <Placemark>
	<name>CARP6-215</name>
      <Point><coordinates>-123.32688721375,54.7818668489345</coordinates></Point>
  </Placemark>
  <Placemark>
	<name>CARP6-216</name>
      <Point><coordinates>-123.36506859996,54.7987876388878</coordinates></Point>
  </Placemark>
  <Placemark>
	<name>CARP6-217</name>
      <Point><coordinates>-123.333336361795,54.7918936975055</coordinates></Point>
  </Placemark>
  <Placemark>
	<name>CARP6-218</name>
      <Point><coordinates>-123.331211288745,54.790279866544</coordinates></Point>
  </Placemark>
  <Placemark>
	<name>CARP6-219</name>
      <Point><coordinates>-123.360488930863,54.7976396764034</coordinates></Point>
  </Placemark>
  <Placemark>
	<name>CARP6-220</name>
      <Point><coordinates>-123.373112964836,54.7367150257276</coordinates></Point>
  </Placemark>
  <Placemark>
	<name>CARP6-221</name>
      <Point><coordinates>-123.293172886951,54.763446251515</coordinates></Point>
  </Placemark>
  <Placemark>
	<name>CARP6-222</name>
      <Point><coordinates>-123.36133732552,54.7710102998428</coordinates></Point>
  </Placemark>
  <Placemark>
	<name>CARP6-223</name>
      <Point><coordinates>-123.366642489401,54.7633379063135</coordinates></Point>
  </Placemark>
  <Placemark>
	<name>CARP6-224</name>
      <Point><coordinates>-123.369912848407,54.7187976234638</coordinates></Point>
  </Placemark>
  <Placemark>
	<name>CARP6-225</name>
      <Point><coordinates>-123.398101313021,54.7591080781592</coordinates></Point>
  </Placemark>
  <Placemark>
	<name>CARP6-226</name>
      <Point><coordinates>-123.373317807004,54.734860350173</coordinates></Point>
  </Placemark>
  <Placemark>
	<name>CARP6-227</name>
      <Point><coordinates>-123.357886219198,54.7976442000949</coordinates></Point>
  </Placemark>
  <Placemark>
	<name>CARP6-228</name>
      <Point><coordinates>-123.307921894903,54.7613903613969</coordinates></Point>
  </Placemark>
  <Placemark>
	<name>CARP6-229</name>
      <Point><coordinates>-123.317833550855,54.725907544522</coordinates></Point>
  </Placemark>
  <Placemark>
	<name>CARP6-230</name>
      <Point><coordinates>-123.373952921193,54.7420839702978</coordinates></Point>
  </Placemark>
  <Placemark>
	<name>CARP6-231</name>
      <Point><coordinates>-123.320067223325,54.7253213384353</coordinates></Point>
  </Placemark>
  <Placemark>
	<name>CARP6-232</name>
      <Point><coordinates>-123.366366456131,54.7595262963697</coordinates></Point>
  </Placemark>
  <Placemark>
	<name>CARP6-233</name>
      <Point><coordinates>-123.25104021462,54.7852402498066</coordinates></Point>
  </Placemark>
  <Placemark>
	<name>CARP6-234</name>
      <Point><coordinates>-123.342995167169,54.8093058558203</coordinates></Point>
  </Placemark>
  <Placemark>
	<name>CARP6-235</name>
      <Point><coordinates>-123.363451795372,54.8050684840188</coordinates></Point>
  </Placemark>
  <Placemark>
	<name>CARP6-236</name>
      <Point><coordinates>-123.415874469595,54.7861178701516</coordinates></Point>
  </Placemark>
  <Placemark>
	<name>CARP6-237</name>
      <Point><coordinates>-123.385973155612,54.7582925271522</coordinates></Point>
  </Placemark>
  <Placemark>
	<name>CARP6-238</name>
      <Point><coordinates>-123.359207954356,54.7925098782603</coordinates></Point>
  </Placemark>
  <Placemark>
	<name>CARP6-239</name>
      <Point><coordinates>-123.342538481454,54.8060589889193</coordinates></Point>
  </Placemark>
  <Placemark>
	<name>CARP6-240</name>
      <Point><coordinates>-123.287624585323,54.733754981186</coordinates></Point>
  </Placemark>
  <Placemark>
	<name>CARP6-241</name>
      <Point><coordinates>-123.327258801348,54.7959522825622</coordinates></Point>
  </Placemark>
  <Placemark>
	<name>CARP6-242</name>
      <Point><coordinates>-123.37139192353,54.7921665755635</coordinates></Point>
  </Placemark>
  <Placemark>
	<name>CARP6-243</name>
      <Point><coordinates>-123.26930168626,54.7665890699716</coordinates></Point>
  </Placemark>
  <Placemark>
	<name>CARP6-244</name>
      <Point><coordinates>-123.336457484292,54.8019506419757</coordinates></Point>
  </Placemark>
  <Placemark>
	<name>CARP6-245</name>
      <Point><coordinates>-123.418263074793,54.7744283595618</coordinates></Point>
  </Placemark>
  <Placemark>
	<name>CARP6-246</name>
      <Point><coordinates>-123.346959254904,54.8084453151829</coordinates></Point>
  </Placemark>
  <Placemark>
	<name>CARP6-247</name>
      <Point><coordinates>-123.379330548954,54.7836225967118</coordinates></Point>
  </Placemark>
  <Placemark>
	<name>CARP6-248</name>
      <Point><coordinates>-123.322030580012,54.7795830974893</coordinates></Point>
  </Placemark>
  <Placemark>
	<name>CARP6-249</name>
      <Point><coordinates>-123.407786155979,54.7554566651472</coordinates></Point>
  </Placemark>
  <Placemark>
	<name>CARP6-250</name>
      <Point><coordinates>-123.404254793536,54.7801213263993</coordinates></Point>
  </Placemark>
  <Placemark>
	<name>CARP6-251</name>
      <Point><coordinates>-123.29852665244,54.7618270240957</coordinates></Point>
  </Placemark>
  <Placemark>
	<name>CARP6-252</name>
      <Point><coordinates>-123.243790982266,54.7858313583172</coordinates></Point>
  </Placemark>
  <Placemark>
	<name>CARP6-253</name>
      <Point><coordinates>-123.351313624113,54.8220393550409</coordinates></Point>
  </Placemark>
  <Placemark>
	<name>CARP6-254</name>
      <Point><coordinates>-123.320710595308,54.7264210249727</coordinates></Point>
  </Placemark>
  <Placemark>
	<name>CARP6-255</name>
      <Point><coordinates>-123.427955730253,54.7747638533084</coordinates></Point>
  </Placemark>
  <Placemark>
	<name>CARP6-256</name>
      <Point><coordinates>-123.344358552704,54.7239223442215</coordinates></Point>
  </Placemark>
  <Placemark>
	<name>CARP6-257</name>
      <Point><coordinates>-123.386778432253,54.7876670436585</coordinates></Point>
  </Placemark>
  <Placemark>
	<name>CARP6-258</name>
      <Point><coordinates>-123.250332105795,54.7865892171248</coordinates></Point>
  </Placemark>
  <Placemark>
	<name>CARP6-259</name>
      <Point><coordinates>-123.348793183723,54.8057680872243</coordinates></Point>
  </Placemark>
  <Placemark>
	<name>CARP6-260</name>
      <Point><coordinates>-123.421604804445,54.7763825104462</coordinates></Point>
  </Placemark>
  <Placemark>
	<name>CARP6-261</name>
      <Point><coordinates>-123.352875218538,54.8017386202442</coordinates></Point>
  </Placemark>
  <Placemark>
	<name>CARP6-262</name>
      <Point><coordinates>-123.359873822493,54.7184291198303</coordinates></Point>
  </Placemark>
  <Placemark>
	<name>CARP6-263</name>
      <Point><coordinates>-123.376629450779,54.7829451226719</coordinates></Point>
  </Placemark>
  <Placemark>
	<name>CARP6-264</name>
      <Point><coordinates>-123.371406434904,54.7967237082196</coordinates></Point>
  </Placemark>
  <Placemark>
	<name>CARP6-265</name>
      <Point><coordinates>-123.388602463097,54.7885222269248</coordinates></Point>
  </Placemark>
  <Placemark>
	<name>CARP6-266</name>
      <Point><coordinates>-123.267538418794,54.7695569105669</coordinates></Point>
  </Placemark>
  <Placemark>
	<name>CARP6-267</name>
      <Point><coordinates>-123.362713046898,54.7718273204437</coordinates></Point>
  </Placemark>
  <Placemark>
	<name>CARP6-268</name>
      <Point><coordinates>-123.336522094189,54.7814375050776</coordinates></Point>
  </Placemark>
  <Placemark>
	<name>CARP6-269</name>
      <Point><coordinates>-123.396202422088,54.7574424135948</coordinates></Point>
  </Placemark>
  <Placemark>
	<name>CARP6-270</name>
      <Point><coordinates>-123.312185718809,54.7814915731187</coordinates></Point>
  </Placemark>
  <Placemark>
	<name>CARP6-271</name>
      <Point><coordinates>-123.356655689012,54.7551515063027</coordinates></Point>
  </Placemark>
  <Placemark>
	<name>CARP6-272</name>
      <Point><coordinates>-123.348881616027,54.8190011373791</coordinates></Point>
  </Placemark>
  <Placemark>
	<name>CARP6-273</name>
      <Point><coordinates>-123.364597431621,54.7530073220796</coordinates></Point>
  </Placemark>
  <Placemark>
	<name>CARP6-274</name>
      <Point><coordinates>-123.374888842821,54.7868830535153</coordinates></Point>
  </Placemark>
  <Placemark>
	<name>CARP6-275</name>
      <Point><coordinates>-123.406661530349,54.7751177734271</coordinates></Point>
  </Placemark>
  <Placemark>
	<name>CARP6-276</name>
      <Point><coordinates>-123.382145449121,54.7158839935981</coordinates></Point>
  </Placemark>
  <Placemark>
	<name>CARP6-277</name>
      <Point><coordinates>-123.279055295799,54.7666959623149</coordinates></Point>
  </Placemark>
  <Placemark>
	<name>CARP6-278</name>
      <Point><coordinates>-123.42150682494,54.7705997634129</coordinates></Point>
  </Placemark>
  <Placemark>
	<name>CARP6-279</name>
      <Point><coordinates>-123.406062609855,54.7681476386815</coordinates></Point>
  </Placemark>
  <Placemark>
	<name>CARP6-280</name>
      <Point><coordinates>-123.347968397228,54.8154604835218</coordinates></Point>
  </Placemark>
  <Placemark>
	<name>CARP6-281</name>
      <Point><coordinates>-123.387057149754,54.7785326480065</coordinates></Point>
  </Placemark>
  <Placemark>
	<name>CARP6-282</name>
      <Point><coordinates>-123.376582903838,54.7592950351277</coordinates></Point>
  </Placemark>
  <Placemark>
	<name>CARP6-283</name>
      <Point><coordinates>-123.366041775524,54.7859734725892</coordinates></Point>
  </Placemark>
  <Placemark>
	<name>CARP6-284</name>
      <Point><coordinates>-123.305020646769,54.7297661326605</coordinates></Point>
  </Placemark>
  <Placemark>
	<name>CARP6-285</name>
      <Point><coordinates>-123.402747422636,54.7727238049023</coordinates></Point>
  </Placemark>
  <Placemark>
	<name>CARP6-286</name>
      <Point><coordinates>-123.316000881951,54.7878371979075</coordinates></Point>
  </Placemark>
  <Placemark>
	<name>CARP6-287</name>
      <Point><coordinates>-123.376738929846,54.7969542050902</coordinates></Point>
  </Placemark>
  <Placemark>
	<name>CARP6-288</name>
      <Point><coordinates>-123.371924061528,54.71839155061</coordinates></Point>
  </Placemark>
  <Placemark>
	<name>CARP6-289</name>
      <Point><coordinates>-123.345095369167,54.8098729262419</coordinates></Point>
  </Placemark>
  <Placemark>
	<name>CARP6-290</name>
      <Point><coordinates>-123.420885707254,54.7760757614847</coordinates></Point>
  </Placemark>
  <Placemark>
	<name>CARP6-291</name>
      <Point><coordinates>-123.312723691262,54.7868471098533</coordinates></Point>
  </Placemark>
  <Placemark>
	<name>CARP6-292</name>
      <Point><coordinates>-123.373149109871,54.7295370247123</coordinates></Point>
  </Placemark>
  <Placemark>
	<name>CARP6-293</name>
      <Point><coordinates>-123.350325068819,54.8155358383559</coordinates></Point>
  </Placemark>
  <Placemark>
	<name>CARP6-294</name>
      <Point><coordinates>-123.338843230879,54.7887734621732</coordinates></Point>
  </Placemark>
  <Placemark>
	<name>CARP6-295</name>
      <Point><coordinates>-123.351685092118,54.8074585496455</coordinates></Point>
  </Placemark>
  <Placemark>
	<name>CARP6-296</name>
      <Point><coordinates>-123.338798239664,54.7724598955426</coordinates></Point>
  </Placemark>
  <Placemark>
	<name>CARP6-297</name>
      <Point><coordinates>-123.37011935163,54.7887469449048</coordinates></Point>
  </Placemark>
  <Placemark>
	<name>CARP6-298</name>
      <Point><coordinates>-123.390779190484,54.7574792825418</coordinates></Point>
  </Placemark>
  <Placemark>
	<name>CARP6-299</name>
      <Point><coordinates>-123.404130867859,54.7777125947081</coordinates></Point>
  </Placemark>
  <Placemark>
	<name>CARP6-300</name>
      <Point><coordinates>-123.335327176358,54.793873875748</coordinates></Point>
  </Placemark>
  <Placemark>
	<name>CARP6-301</name>
      <Point><coordinates>-123.370119944129,54.7975725756859</coordinates></Point>
  </Placemark>
  <Placemark>
	<name>CARP6-302</name>
      <Point><coordinates>-123.388056036153,54.7865369435473</coordinates></Point>
  </Placemark>
  <Placemark>
	<name>CARP6-303</name>
      <Point><coordinates>-123.40466779136,54.7866010189572</coordinates></Point>
  </Placemark>
  <Placemark>
	<name>CARP6-304</name>
      <Point><coordinates>-123.324385256491,54.8093620496135</coordinates></Point>
  </Placemark>
  <Placemark>
	<name>CARP6-305</name>
      <Point><coordinates>-123.403448724153,54.7872239877528</coordinates></Point>
  </Placemark>
  <Placemark>
	<name>CARP6-306</name>
      <Point><coordinates>-123.243112771635,54.7781962946435</coordinates></Point>
  </Placemark>
  <Placemark>
	<name>CARP6-307</name>
      <Point><coordinates>-123.361357012423,54.8007455815879</coordinates></Point>
  </Placemark>
  <Placemark>
	<name>CARP6-308</name>
      <Point><coordinates>-123.399824304148,54.7894153522082</coordinates></Point>
  </Placemark>
  <Placemark>
	<name>CARP6-309</name>
      <Point><coordinates>-123.375763182118,54.7236482118121</coordinates></Point>
  </Placemark>
  <Placemark>
	<name>CARP6-310</name>
      <Point><coordinates>-123.418097313901,54.7847493403367</coordinates></Point>
  </Placemark>
  <Placemark>
	<name>CARP6-311</name>
      <Point><coordinates>-123.352917787989,54.809123029169</coordinates></Point>
  </Placemark>
  <Placemark>
	<name>CARP6-312</name>
      <Point><coordinates>-123.427674451921,54.7826325047919</coordinates></Point>
  </Placemark>
  <Placemark>
	<name>CARP6-313</name>
      <Point><coordinates>-123.35760167048,54.7594924790337</coordinates></Point>
  </Placemark>
  <Placemark>
	<name>CARP6-314</name>
      <Point><coordinates>-123.371283193752,54.7118509087629</coordinates></Point>
  </Placemark>
  <Placemark>
	<name>CARP6-315</name>
      <Point><coordinates>-123.322220216086,54.7923433996515</coordinates></Point>
  </Placemark>
  <Placemark>
	<name>CARP6-316</name>
      <Point><coordinates>-123.33874233268,54.7903487916897</coordinates></Point>
  </Placemark>
  <Placemark>
	<name>CARP6-317</name>
      <Point><coordinates>-123.341077927576,54.7233112551804</coordinates></Point>
  </Placemark>
  <Placemark>
	<name>CARP6-318</name>
      <Point><coordinates>-123.328541689518,54.7257244529863</coordinates></Point>
  </Placemark>
  <Placemark>
	<name>CARP6-319</name>
      <Point><coordinates>-123.247358759957,54.7782968356586</coordinates></Point>
  </Placemark>
  <Placemark>
	<name>CARP6-320</name>
      <Point><coordinates>-123.283532360265,54.7614913105826</coordinates></Point>
  </Placemark>
  <Placemark>
	<name>CARP6-321</name>
      <Point><coordinates>-123.337488389629,54.7932657413573</coordinates></Point>
  </Placemark>
  <Placemark>
	<name>CARP6-322</name>
      <Point><coordinates>-123.317121485194,54.7289569985769</coordinates></Point>
  </Placemark>
  <Placemark>
	<name>CARP6-323</name>
      <Point><coordinates>-123.346815517042,54.807503876731</coordinates></Point>
  </Placemark>
  <Placemark>
	<name>CARP6-324</name>
      <Point><coordinates>-123.37238895257,54.7945206036753</coordinates></Point>
  </Placemark>
  <Placemark>
	<name>CARP6-325</name>
      <Point><coordinates>-123.393949250792,54.7772628955369</coordinates></Point>
  </Placemark>
  <Placemark>
	<name>CARP6-326</name>
      <Point><coordinates>-123.253208535651,54.7671801605059</coordinates></Point>
  </Placemark>
  <Placemark>
	<name>CARP6-327</name>
      <Point><coordinates>-123.401858260356,54.7723603986122</coordinates></Point>
  </Placemark>
  <Placemark>
	<name>CARP6-328</name>
      <Point><coordinates>-123.323869054928,54.8057531575815</coordinates></Point>
  </Placemark>
  <Placemark>
	<name>CARP6-329</name>
      <Point><coordinates>-123.413111767953,54.7871381528446</coordinates></Point>
  </Placemark>
  <Placemark>
	<name>CARP6-330</name>
      <Point><coordinates>-123.32704881914,54.8044405259287</coordinates></Point>
  </Placemark>
  <Placemark>
	<name>CARP6-331</name>
      <Point><coordinates>-123.356166827569,54.755649979085</coordinates></Point>
  </Placemark>
  <Placemark>
	<name>CARP6-332</name>
      <Point><coordinates>-123.324920970533,54.7829857225482</coordinates></Point>
  </Placemark>
  <Placemark>
	<name>CARP6-333</name>
      <Point><coordinates>-123.321700718582,54.7795548908177</coordinates></Point>
  </Placemark>
  <Placemark>
	<name>CARP6-334</name>
      <Point><coordinates>-123.38236290439,54.7138476754729</coordinates></Point>
  </Placemark>
  <Placemark>
	<name>CARP6-335</name>
      <Point><coordinates>-123.352447279756,54.8038967920989</coordinates></Point>
  </Placemark>
  <Placemark>
	<name>CARP6-336</name>
      <Point><coordinates>-123.363054227558,54.7525367884609</coordinates></Point>
  </Placemark>
  <Placemark>
	<name>CARP6-337</name>
      <Point><coordinates>-123.409949139485,54.7554491664709</coordinates></Point>
  </Placemark>
  <Placemark>
	<name>CARP6-338</name>
      <Point><coordinates>-123.401727796052,54.7593253769939</coordinates></Point>
  </Placemark>
  <Placemark>
	<name>CARP6-339</name>
      <Point><coordinates>-123.313896201245,54.726197274939</coordinates></Point>
  </Placemark>
  <Placemark>
	<name>CARP6-340</name>
      <Point><coordinates>-123.347948899759,54.7162553632913</coordinates></Point>
  </Placemark>
  <Placemark>
	<name>CARP6-341</name>
      <Point><coordinates>-123.360622224942,54.7938634745954</coordinates></Point>
  </Placemark>
  <Placemark>
	<name>CARP6-342</name>
      <Point><coordinates>-123.404630576632,54.7796998897783</coordinates></Point>
  </Placemark>
  <Placemark>
	<name>CARP6-343</name>
      <Point><coordinates>-123.339247834074,54.7807946482926</coordinates></Point>
  </Placemark>
  <Placemark>
	<name>CARP6-344</name>
      <Point><coordinates>-123.315077971895,54.7819450235</coordinates></Point>
  </Placemark>
  <Placemark>
	<name>CARP6-345</name>
      <Point><coordinates>-123.312419412145,54.7262157732832</coordinates></Point>
  </Placemark>
  <Placemark>
	<name>CARP6-346</name>
      <Point><coordinates>-123.406354944598,54.7680376423362</coordinates></Point>
  </Placemark>
  <Placemark>
	<name>CARP6-347</name>
      <Point><coordinates>-123.403312506961,54.7630362850414</coordinates></Point>
  </Placemark>
  <Placemark>
	<name>CARP6-348</name>
      <Point><coordinates>-123.345511955112,54.8189276321065</coordinates></Point>
  </Placemark>
  <Placemark>
	<name>CARP6-349</name>
      <Point><coordinates>-123.374442189946,54.7870288601</coordinates></Point>
  </Placemark>
  <Placemark>
	<name>CARP6-350</name>
      <Point><coordinates>-123.364432287995,54.7965921196468</coordinates></Point>
  </Placemark>
  <Placemark>
	<name>CARP6-351</name>
      <Point><coordinates>-123.39969586143,54.7906894485516</coordinates></Point>
  </Placemark>
  <Placemark>
	<name>CARP6-352</name>
      <Point><coordinates>-123.368459454056,54.7545672057188</coordinates></Point>
  </Placemark>
  <Placemark>
	<name>CARP6-353</name>
      <Point><coordinates>-123.40728121269,54.7602704415412</coordinates></Point>
  </Placemark>
  <Placemark>
	<name>CARP6-354</name>
      <Point><coordinates>-123.407734012634,54.7596316061249</coordinates></Point>
  </Placemark>
  <Placemark>
	<name>CARP6-355</name>
      <Point><coordinates>-123.322021579757,54.8063709727181</coordinates></Point>
  </Placemark>
  <Placemark>
	<name>CARP6-356</name>
      <Point><coordinates>-123.421329764641,54.7819553861646</coordinates></Point>
  </Placemark>
  <Placemark>
	<name>CARP6-357</name>
      <Point><coordinates>-123.340240780384,54.7954443771881</coordinates></Point>
  </Placemark>
  <Placemark>
	<name>CARP6-358</name>
      <Point><coordinates>-123.243215768917,54.784454814749</coordinates></Point>
  </Placemark>
  <Placemark>
	<name>CARP6-359</name>
      <Point><coordinates>-123.406282452099,54.7578740766024</coordinates></Point>
  </Placemark>
  <Placemark>
	<name>CARP6-360</name>
      <Point><coordinates>-123.418913545083,54.7826447201492</coordinates></Point>
  </Placemark>
  <Placemark>
	<name>CARP6-361</name>
      <Point><coordinates>-123.421626169556,54.7745251227196</coordinates></Point>
  </Placemark>
  <Placemark>
	<name>CARP6-362</name>
      <Point><coordinates>-123.411571899346,54.7752071100703</coordinates></Point>
  </Placemark>
  <Placemark>
	<name>CARP6-363</name>
      <Point><coordinates>-123.40746068937,54.7522822472304</coordinates></Point>
  </Placemark>
  <Placemark>
	<name>CARP6-364</name>
      <Point><coordinates>-123.366049622595,54.793769522929</coordinates></Point>
  </Placemark>
  <Placemark>
	<name>CARP6-365</name>
      <Point><coordinates>-123.369175131643,54.7902867316666</coordinates></Point>
  </Placemark>
  <Placemark>
	<name>CARP6-366</name>
      <Point><coordinates>-123.338597326108,54.7969546850113</coordinates></Point>
  </Placemark>
  <Placemark>
	<name>CARP6-367</name>
      <Point><coordinates>-123.3417178891,54.8202173635829</coordinates></Point>
  </Placemark>
  <Placemark>
	<name>CARP6-368</name>
      <Point><coordinates>-123.263002876405,54.7741186305768</coordinates></Point>
  </Placemark>
  <Placemark>
	<name>CARP6-369</name>
      <Point><coordinates>-123.401105598959,54.7770790642012</coordinates></Point>
  </Placemark>
  <Placemark>
	<name>CARP6-370</name>
      <Point><coordinates>-123.370161057799,54.7916683136854</coordinates></Point>
  </Placemark>
  <Placemark>
	<name>CARP6-371</name>
      <Point><coordinates>-123.373596188259,54.7273490864034</coordinates></Point>
  </Placemark>
  <Placemark>
	<name>CARP6-372</name>
      <Point><coordinates>-123.354013721472,54.8044518623526</coordinates></Point>
  </Placemark>
  <Placemark>
	<name>CARP6-373</name>
      <Point><coordinates>-123.409232272392,54.7764926400116</coordinates></Point>
  </Placemark>
  <Placemark>
	<name>CARP6-374</name>
      <Point><coordinates>-123.414302851825,54.7865717091894</coordinates></Point>
  </Placemark>
  <Placemark>
	<name>CARP6-375</name>
      <Point><coordinates>-123.367307238222,54.7858672195562</coordinates></Point>
  </Placemark>
  <Placemark>
	<name>CARP6-376</name>
      <Point><coordinates>-123.400143392639,54.7732995111532</coordinates></Point>
  </Placemark>
  <Placemark>
	<name>CARP6-377</name>
      <Point><coordinates>-123.314582305069,54.7863299190075</coordinates></Point>
  </Placemark>
  <Placemark>
	<name>CARP6-378</name>
      <Point><coordinates>-123.365847500847,54.789045371364</coordinates></Point>
  </Placemark>
  <Placemark>
	<name>CARP6-379</name>
      <Point><coordinates>-123.365935136647,54.7887531874801</coordinates></Point>
  </Placemark>
  <Placemark>
	<name>CARP6-380</name>
      <Point><coordinates>-123.401645084647,54.7884303699997</coordinates></Point>
  </Placemark>
  <Placemark>
	<name>CARP6-381</name>
      <Point><coordinates>-123.356298755968,54.8013179496913</coordinates></Point>
  </Placemark>
  <Placemark>
	<name>CARP6-382</name>
      <Point><coordinates>-123.40589585716,54.7725398159699</coordinates></Point>
  </Placemark>
  <Placemark>
	<name>CARP6-383</name>
      <Point><coordinates>-123.344268216176,54.8214226082989</coordinates></Point>
  </Placemark>
  <Placemark>
	<name>CARP6-384</name>
      <Point><coordinates>-123.364165167857,54.795058922872</coordinates></Point>
  </Placemark>
  <Placemark>
	<name>CARP6-385</name>
      <Point><coordinates>-123.307460021932,54.761623094547</coordinates></Point>
  </Placemark>
  <Placemark>
	<name>CARP6-386</name>
      <Point><coordinates>-123.366270293944,54.7539371439014</coordinates></Point>
  </Placemark>
  <Placemark>
	<name>CARP6-387</name>
      <Point><coordinates>-123.402176284317,54.7761009389076</coordinates></Point>
  </Placemark>
  <Placemark>
	<name>CARP6-388</name>
      <Point><coordinates>-123.372695334097,54.7415319943771</coordinates></Point>
  </Placemark>
  <Placemark>
	<name>CARP6-389</name>
      <Point><coordinates>-123.378052426421,54.7216376038316</coordinates></Point>
  </Placemark>
  <Placemark>
	<name>CARP6-390</name>
      <Point><coordinates>-123.422405266615,54.7738030472507</coordinates></Point>
  </Placemark>
  <Placemark>
	<name>CARP6-391</name>
      <Point><coordinates>-123.359995315554,54.7222070531747</coordinates></Point>
  </Placemark>
  <Placemark>
	<name>CARP6-392</name>
      <Point><coordinates>-123.412380531004,54.7736001545207</coordinates></Point>
  </Placemark>
  <Placemark>
	<name>CARP6-393</name>
      <Point><coordinates>-123.385468927697,54.7765772037203</coordinates></Point>
  </Placemark>
  <Placemark>
	<name>CARP6-394</name>
      <Point><coordinates>-123.388995184057,54.7577501875893</coordinates></Point>
  </Placemark>
  <Placemark>
	<name>CARP6-395</name>
      <Point><coordinates>-123.359565572407,54.7231705542432</coordinates></Point>
  </Placemark>
  <Placemark>
	<name>CARP6-396</name>
      <Point><coordinates>-123.332087351847,54.7942425581082</coordinates></Point>
  </Placemark>
  <Placemark>
	<name>CARP6-397</name>
      <Point><coordinates>-123.365317504861,54.7609024645765</coordinates></Point>
  </Placemark>
  <Placemark>
	<name>CARP6-398</name>
      <Point><coordinates>-123.409560838157,54.7711950237874</coordinates></Point>
  </Placemark>
  <Placemark>
	<name>CARP6-399</name>
      <Point><coordinates>-123.405157989734,54.7697198147507</coordinates></Point>
  </Placemark>
  <Placemark>
	<name>CARP6-400</name>
      <Point><coordinates>-123.311805117215,54.7850743994808</coordinates></Point>
  </Placemark>
  <Placemark>
	<name>CARP6-401</name>
      <Point><coordinates>-123.340993244383,54.8194223341238</coordinates></Point>
  </Placemark>
  <Placemark>
	<name>CARP6-402</name>
      <Point><coordinates>-123.348330216859,54.8140910262354</coordinates></Point>
  </Placemark>
  <Placemark>
	<name>CARP6-403</name>
      <Point><coordinates>-123.400869908498,54.7641990058034</coordinates></Point>
  </Placemark>
  <Placemark>
	<name>CARP6-404</name>
      <Point><coordinates>-123.338639348306,54.7939354620876</coordinates></Point>
  </Placemark>
  <Placemark>
	<name>CARP6-405</name>
      <Point><coordinates>-123.399606943662,54.7636546772735</coordinates></Point>
  </Placemark>
  <Placemark>
	<name>CARP6-406</name>
      <Point><coordinates>-123.379963410683,54.7888620173869</coordinates></Point>
  </Placemark>
  <Placemark>
	<name>CARP6-407</name>
      <Point><coordinates>-123.373736050853,54.7163692521923</coordinates></Point>
  </Placemark>
  <Placemark>
	<name>CARP6-408</name>
      <Point><coordinates>-123.365579793767,54.7166949532207</coordinates></Point>
  </Placemark>
  <Placemark>
	<name>CARP6-409</name>
      <Point><coordinates>-123.35966572775,54.7672431584423</coordinates></Point>
  </Placemark>
  <Placemark>
	<name>CARP6-410</name>
      <Point><coordinates>-123.314920340626,54.7277897061115</coordinates></Point>
  </Placemark>
  <Placemark>
	<name>CARP6-411</name>
      <Point><coordinates>-123.366935396558,54.7491015697524</coordinates></Point>
  </Placemark>
  <Placemark>
	<name>CARP6-412</name>
      <Point><coordinates>-123.369154817234,54.788650374325</coordinates></Point>
  </Placemark>
  <Placemark>
	<name>CARP6-413</name>
      <Point><coordinates>-123.361217496752,54.7148905172586</coordinates></Point>
  </Placemark>
  <Placemark>
	<name>CARP6-414</name>
      <Point><coordinates>-123.358393870043,54.8034197446373</coordinates></Point>
  </Placemark>
  <Placemark>
	<name>CARP6-415</name>
      <Point><coordinates>-123.256237186216,54.7650948093959</coordinates></Point>
  </Placemark>
  <Placemark>
	<name>CARP6-416</name>
      <Point><coordinates>-123.383392628667,54.7879231768667</coordinates></Point>
  </Placemark>
  <Placemark>
	<name>CARP6-417</name>
      <Point><coordinates>-123.328242478063,54.7989498964524</coordinates></Point>
  </Placemark>
  <Placemark>
	<name>CARP6-418</name>
      <Point><coordinates>-123.379030132854,54.7171465066723</coordinates></Point>
  </Placemark>
  <Placemark>
	<name>CARP6-419</name>
      <Point><coordinates>-123.408697479875,54.7514948982789</coordinates></Point>
  </Placemark>
  <Placemark>
	<name>CARP6-420</name>
      <Point><coordinates>-123.371110166911,54.7642748633162</coordinates></Point>
  </Placemark>
  <Placemark>
	<name>CARP6-421</name>
      <Point><coordinates>-123.356476579208,54.7670768297343</coordinates></Point>
  </Placemark>
  <Placemark>
	<name>CARP6-422</name>
      <Point><coordinates>-123.381775850597,54.7162512676234</coordinates></Point>
  </Placemark>
  <Placemark>
	<name>CARP6-423</name>
      <Point><coordinates>-123.371896345823,54.7886971999557</coordinates></Point>
  </Placemark>
  <Placemark>
	<name>CARP6-424</name>
      <Point><coordinates>-123.425298312311,54.7789066430902</coordinates></Point>
  </Placemark>
  <Placemark>
	<name>CARP6-425</name>
      <Point><coordinates>-123.357191130871,54.7599881299522</coordinates></Point>
  </Placemark>
  <Placemark>
	<name>CARP6-426</name>
      <Point><coordinates>-123.337288868402,54.7698561142132</coordinates></Point>
  </Placemark>
  <Placemark>
	<name>CARP6-427</name>
      <Point><coordinates>-123.31991815262,54.763093702717</coordinates></Point>
  </Placemark>
  <Placemark>
	<name>CARP6-428</name>
      <Point><coordinates>-123.377201162693,54.7154804508013</coordinates></Point>
  </Placemark>
  <Placemark>
	<name>CARP6-429</name>
      <Point><coordinates>-123.334523612144,54.7900761070598</coordinates></Point>
  </Placemark>
  <Placemark>
	<name>CARP6-430</name>
      <Point><coordinates>-123.374634510645,54.7857304314771</coordinates></Point>
  </Placemark>
  <Placemark>
	<name>CARP6-431</name>
      <Point><coordinates>-123.365477335685,54.7634741304916</coordinates></Point>
  </Placemark>
  <Placemark>
	<name>CARP6-432</name>
      <Point><coordinates>-123.246542376886,54.7792749035138</coordinates></Point>
  </Placemark>
  <Placemark>
	<name>CARP6-433</name>
      <Point><coordinates>-123.371648498407,54.7828825101487</coordinates></Point>
  </Placemark>
</Folder>
</Document></kml>
