<?xml version="1.0" standalone="yes"?>
<gpx xmlns="http://www.topografix.com/GPX/1/1" creator="KML2GPX.COM" version="1.1" xmlns:xsi="http://www.w3.org/2001/XMLSchema-instance" xsi:schemaLocation="http://www.topografix.com/GPX/1/1 http://www.topografix.com/GPX/1/1/gpx.xsd">
    <metadata>
        <name><![CDATA[Carp_oc7_Z4.kml]]></name>
        <desc><![CDATA[Converted from a KML file KML2GPX.COM]]></desc>
                </metadata>

                                                                                
                <wpt lat="54.7695351808988" lon="-123.329803153414">
                                                            <ele>0</ele>
                    <name><![CDATA[CARP7-Z4-62]]></name>
                    <cmt><![CDATA[Waypoint no: 1]]></cmt>
                    <desc><![CDATA[This is waypoint no: 1]]></desc>
                </wpt>
                                                                                                                            
                <wpt lat="54.7778954562206" lon="-123.247545004169">
                                                            <ele>0</ele>
                    <name><![CDATA[CARP7-Z4-78]]></name>
                    <cmt><![CDATA[Waypoint no: 2]]></cmt>
                    <desc><![CDATA[This is waypoint no: 2]]></desc>
                </wpt>
                                                                                                                            
                <wpt lat="54.7706160876646" lon="-123.340706618856">
                                                            <ele>0</ele>
                    <name><![CDATA[CARP7-Z4-110]]></name>
                    <cmt><![CDATA[Waypoint no: 3]]></cmt>
                    <desc><![CDATA[This is waypoint no: 3]]></desc>
                </wpt>
                                                                                                                            
                <wpt lat="54.72756074109229" lon="-123.310814089045">
                                                            <ele>0</ele>
                    <name><![CDATA[CARP7-Z4-115]]></name>
                    <cmt><![CDATA[Waypoint no: 4]]></cmt>
                    <desc><![CDATA[This is waypoint no: 4]]></desc>
                </wpt>
                                                                                                                            
                <wpt lat="54.74554824495851" lon="-123.3193735820323">
                                                            <ele>0</ele>
                    <name><![CDATA[CARP7-Z4-118]]></name>
                    <cmt><![CDATA[Waypoint no: 5]]></cmt>
                    <desc><![CDATA[This is waypoint no: 5]]></desc>
                </wpt>
                                                                                                                            
                <wpt lat="54.7321668976986" lon="-123.295198924105">
                                                            <ele>0</ele>
                    <name><![CDATA[CARP7-Z4-121]]></name>
                    <cmt><![CDATA[Waypoint no: 6]]></cmt>
                    <desc><![CDATA[This is waypoint no: 6]]></desc>
                </wpt>
                                                                                                                            
                <wpt lat="54.7708012481544" lon="-123.267256197409">
                                                            <ele>0</ele>
                    <name><![CDATA[CARP7-Z4-160]]></name>
                    <cmt><![CDATA[Waypoint no: 7]]></cmt>
                    <desc><![CDATA[This is waypoint no: 7]]></desc>
                </wpt>
                                                                                                                            
                <wpt lat="54.7291338044737" lon="-123.312259344277">
                                                            <ele>0</ele>
                    <name><![CDATA[CARP7-Z4-170]]></name>
                    <cmt><![CDATA[Waypoint no: 8]]></cmt>
                    <desc><![CDATA[This is waypoint no: 8]]></desc>
                </wpt>
                                                                                                                            
                <wpt lat="54.7639442788902" lon="-123.320067510473">
                                                            <ele>0</ele>
                    <name><![CDATA[CARP7-Z4-180]]></name>
                    <cmt><![CDATA[Waypoint no: 9]]></cmt>
                    <desc><![CDATA[This is waypoint no: 9]]></desc>
                </wpt>
                                                                                                                            
                <wpt lat="54.7336879539204" lon="-123.291277656648">
                                                            <ele>0</ele>
                    <name><![CDATA[CARP7-Z4-189]]></name>
                    <cmt><![CDATA[Waypoint no: 10]]></cmt>
                    <desc><![CDATA[This is waypoint no: 10]]></desc>
                </wpt>
                                                                                                                            
                <wpt lat="54.78365391504371" lon="-123.243594934948">
                                                            <ele>0</ele>
                    <name><![CDATA[CARP7-Z4-190]]></name>
                    <cmt><![CDATA[Waypoint no: 11]]></cmt>
                    <desc><![CDATA[This is waypoint no: 11]]></desc>
                </wpt>
                                                                                                                            
                <wpt lat="54.7628175029104" lon="-123.295159970344">
                                                            <ele>0</ele>
                    <name><![CDATA[CARP7-Z4-204]]></name>
                    <cmt><![CDATA[Waypoint no: 12]]></cmt>
                    <desc><![CDATA[This is waypoint no: 12]]></desc>
                </wpt>
                                                                                                                            
                <wpt lat="54.75089598003768" lon="-123.2993665726084">
                                                            <ele>0</ele>
                    <name><![CDATA[CARP7-Z4-216]]></name>
                    <cmt><![CDATA[Waypoint no: 13]]></cmt>
                    <desc><![CDATA[This is waypoint no: 13]]></desc>
                </wpt>
                                                                                                                            
                <wpt lat="54.7718273204437" lon="-123.342092783054">
                                                            <ele>0</ele>
                    <name><![CDATA[CARP7-Z4-247]]></name>
                    <cmt><![CDATA[Waypoint no: 14]]></cmt>
                    <desc><![CDATA[This is waypoint no: 14]]></desc>
                </wpt>
                                                                                                                            
                <wpt lat="54.76329867439549" lon="-123.274626077791">
                                                            <ele>0</ele>
                    <name><![CDATA[CARP7-Z4-260]]></name>
                    <cmt><![CDATA[Waypoint no: 15]]></cmt>
                    <desc><![CDATA[This is waypoint no: 15]]></desc>
                </wpt>
                                                                                                                            
                <wpt lat="54.7689047479213" lon="-123.270492916768">
                                                            <ele>0</ele>
                    <name><![CDATA[CARP7-Z4-263]]></name>
                    <cmt><![CDATA[Waypoint no: 16]]></cmt>
                    <desc><![CDATA[This is waypoint no: 16]]></desc>
                </wpt>
                                                                                                                            
                <wpt lat="54.75048595288294" lon="-123.305551684163">
                                                            <ele>0</ele>
                    <name><![CDATA[CARP7-Z4-280]]></name>
                    <cmt><![CDATA[Waypoint no: 17]]></cmt>
                    <desc><![CDATA[This is waypoint no: 17]]></desc>
                </wpt>
                                                                                                                            
                <wpt lat="54.740730848887" lon="-123.281274819003">
                                                            <ele>0</ele>
                    <name><![CDATA[CARP7-Z4-317]]></name>
                    <cmt><![CDATA[Waypoint no: 18]]></cmt>
                    <desc><![CDATA[This is waypoint no: 18]]></desc>
                </wpt>
                                                                                                                            
                <wpt lat="54.75747928254181" lon="-123.274585168695">
                                                            <ele>0</ele>
                    <name><![CDATA[CARP7-Z4-320]]></name>
                    <cmt><![CDATA[Waypoint no: 19]]></cmt>
                    <desc><![CDATA[This is waypoint no: 19]]></desc>
                </wpt>
                                                                                                                            
                <wpt lat="54.7509819954017" lon="-123.280163057826">
                                                            <ele>0</ele>
                    <name><![CDATA[CARP7-Z4-333]]></name>
                    <cmt><![CDATA[Waypoint no: 20]]></cmt>
                    <desc><![CDATA[This is waypoint no: 20]]></desc>
                </wpt>
                                                            
                    
    
</gpx>