<?xml version="1.0" standalone="yes"?>
<gpx xmlns="http://www.topografix.com/GPX/1/1" creator="KML2GPX.COM" version="1.1" xmlns:xsi="http://www.w3.org/2001/XMLSchema-instance" xsi:schemaLocation="http://www.topografix.com/GPX/1/1 http://www.topografix.com/GPX/1/1/gpx.xsd">
    <metadata>
        <name><![CDATA[Carp_oc5_Z2.kml]]></name>
        <desc><![CDATA[Converted from a KML file KML2GPX.COM]]></desc>
                </metadata>

                                                                                
                <wpt lat="54.7674719573028" lon="-123.40328273952">
                                                            <ele>0</ele>
                    <name><![CDATA[CARP5-Z2-10]]></name>
                    <cmt><![CDATA[Waypoint no: 1]]></cmt>
                    <desc><![CDATA[This is waypoint no: 1]]></desc>
                </wpt>
                                                                                                                            
                <wpt lat="54.78914370299781" lon="-123.378552357579">
                                                            <ele>0</ele>
                    <name><![CDATA[CARP5-Z2-16]]></name>
                    <cmt><![CDATA[Waypoint no: 2]]></cmt>
                    <desc><![CDATA[This is waypoint no: 2]]></desc>
                </wpt>
                                                                                                                            
                <wpt lat="54.7723025691695" lon="-123.409233917868">
                                                            <ele>0</ele>
                    <name><![CDATA[CARP5-Z2-17]]></name>
                    <cmt><![CDATA[Waypoint no: 3]]></cmt>
                    <desc><![CDATA[This is waypoint no: 3]]></desc>
                </wpt>
                                                                                                                            
                <wpt lat="54.7584586785835" lon="-123.386675657048">
                                                            <ele>0</ele>
                    <name><![CDATA[CARP5-Z2-27]]></name>
                    <cmt><![CDATA[Waypoint no: 4]]></cmt>
                    <desc><![CDATA[This is waypoint no: 4]]></desc>
                </wpt>
                                                                                                                            
                <wpt lat="54.7809364121428" lon="-123.377021610966">
                                                            <ele>0</ele>
                    <name><![CDATA[CARP5-Z2-41]]></name>
                    <cmt><![CDATA[Waypoint no: 5]]></cmt>
                    <desc><![CDATA[This is waypoint no: 5]]></desc>
                </wpt>
                                                                                                                            
                <wpt lat="54.77480691639709" lon="-123.419727501401">
                                                            <ele>0</ele>
                    <name><![CDATA[CARP5-Z2-56]]></name>
                    <cmt><![CDATA[Waypoint no: 6]]></cmt>
                    <desc><![CDATA[This is waypoint no: 6]]></desc>
                </wpt>
                                                                                                                            
                <wpt lat="54.7724720152966" lon="-123.393882535335">
                                                            <ele>0</ele>
                    <name><![CDATA[CARP5-Z2-66]]></name>
                    <cmt><![CDATA[Waypoint no: 7]]></cmt>
                    <desc><![CDATA[This is waypoint no: 7]]></desc>
                </wpt>
                                                                                                                            
                <wpt lat="54.7732846845044" lon="-123.390864075581">
                                                            <ele>0</ele>
                    <name><![CDATA[CARP5-Z2-69]]></name>
                    <cmt><![CDATA[Waypoint no: 8]]></cmt>
                    <desc><![CDATA[This is waypoint no: 8]]></desc>
                </wpt>
                                                                                                                            
                <wpt lat="54.7611562371076" lon="-123.372086477032">
                                                            <ele>0</ele>
                    <name><![CDATA[CARP5-Z2-70]]></name>
                    <cmt><![CDATA[Waypoint no: 9]]></cmt>
                    <desc><![CDATA[This is waypoint no: 9]]></desc>
                </wpt>
                                                                                                                            
                <wpt lat="54.77455944972989" lon="-123.406676623895">
                                                            <ele>0</ele>
                    <name><![CDATA[CARP5-Z2-84]]></name>
                    <cmt><![CDATA[Waypoint no: 10]]></cmt>
                    <desc><![CDATA[This is waypoint no: 10]]></desc>
                </wpt>
                                                                                                                            
                <wpt lat="54.78320383401821" lon="-123.39784299771">
                                                            <ele>0</ele>
                    <name><![CDATA[CARP5-Z2-97]]></name>
                    <cmt><![CDATA[Waypoint no: 11]]></cmt>
                    <desc><![CDATA[This is waypoint no: 11]]></desc>
                </wpt>
                                                                                                                            
                <wpt lat="54.77631028969649" lon="-123.418346473698">
                                                            <ele>0</ele>
                    <name><![CDATA[CARP5-Z2-98]]></name>
                    <cmt><![CDATA[Waypoint no: 12]]></cmt>
                    <desc><![CDATA[This is waypoint no: 12]]></desc>
                </wpt>
                                                                                                                            
                <wpt lat="54.77113594390689" lon="-123.422697532963">
                                                            <ele>0</ele>
                    <name><![CDATA[CARP5-Z2-103]]></name>
                    <cmt><![CDATA[Waypoint no: 13]]></cmt>
                    <desc><![CDATA[This is waypoint no: 13]]></desc>
                </wpt>
                                                                                                                            
                <wpt lat="54.7772393670657" lon="-123.387679910466">
                                                            <ele>0</ele>
                    <name><![CDATA[CARP5-Z2-120]]></name>
                    <cmt><![CDATA[Waypoint no: 14]]></cmt>
                    <desc><![CDATA[This is waypoint no: 14]]></desc>
                </wpt>
                                                                                                                            
                <wpt lat="54.7635028989257" lon="-123.36218569029">
                                                            <ele>0</ele>
                    <name><![CDATA[CARP5-Z2-150]]></name>
                    <cmt><![CDATA[Waypoint no: 15]]></cmt>
                    <desc><![CDATA[This is waypoint no: 15]]></desc>
                </wpt>
                                                                                                                            
                <wpt lat="54.7572696660272" lon="-123.406852490881">
                                                            <ele>0</ele>
                    <name><![CDATA[CARP5-Z2-167]]></name>
                    <cmt><![CDATA[Waypoint no: 16]]></cmt>
                    <desc><![CDATA[This is waypoint no: 16]]></desc>
                </wpt>
                                                                                                                            
                <wpt lat="54.7595354349754" lon="-123.39901138838">
                                                            <ele>0</ele>
                    <name><![CDATA[CARP5-Z2-178]]></name>
                    <cmt><![CDATA[Waypoint no: 17]]></cmt>
                    <desc><![CDATA[This is waypoint no: 17]]></desc>
                </wpt>
                                                                                                                            
                <wpt lat="54.7854369413562" lon="-123.378632502989">
                                                            <ele>0</ele>
                    <name><![CDATA[CARP5-Z2-200]]></name>
                    <cmt><![CDATA[Waypoint no: 18]]></cmt>
                    <desc><![CDATA[This is waypoint no: 18]]></desc>
                </wpt>
                                                                                                                            
                <wpt lat="54.7623905586188" lon="-123.375720199012">
                                                            <ele>0</ele>
                    <name><![CDATA[CARP5-Z2-210]]></name>
                    <cmt><![CDATA[Waypoint no: 19]]></cmt>
                    <desc><![CDATA[This is waypoint no: 19]]></desc>
                </wpt>
                                                                                                                            
                <wpt lat="54.7842154289618" lon="-123.389435425468">
                                                            <ele>0</ele>
                    <name><![CDATA[CARP5-Z2-227]]></name>
                    <cmt><![CDATA[Waypoint no: 20]]></cmt>
                    <desc><![CDATA[This is waypoint no: 20]]></desc>
                </wpt>
                                                                                                                            
                <wpt lat="54.7703295634156" lon="-123.359207263224">
                                                            <ele>0</ele>
                    <name><![CDATA[CARP5-Z2-229]]></name>
                    <cmt><![CDATA[Waypoint no: 21]]></cmt>
                    <desc><![CDATA[This is waypoint no: 21]]></desc>
                </wpt>
                                                            
                    
    
</gpx>