<?xml version="1.0" encoding="UTF-8"?>
<kml xmlns="http://www.opengis.net/kml/2.2" xmlns:gx="http://www.google.com/kml/ext/2.2" xmlns:kml="http://www.opengis.net/kml/2.2" xmlns:atom="http://www.w3.org/2005/Atom">
<Document>
	<name>carp_occ3_z3.kml</name>
	<Style id="sn_ylw-pushpin">
		<IconStyle>
			<color>ffcf6ffd</color>
		</IconStyle>
		<BalloonStyle>
		</BalloonStyle>
	</Style>
	<StyleMap id="msn_ylw-pushpin">
		<Pair>
			<key>normal</key>
			<styleUrl>#sn_ylw-pushpin</styleUrl>
		</Pair>
		<Pair>
			<key>highlight</key>
			<styleUrl>#sh_ylw-pushpin</styleUrl>
		</Pair>
	</StyleMap>
	<Style id="sh_ylw-pushpin">
		<IconStyle>
			<color>ffcf6ffd</color>
			<scale>1.2</scale>
		</IconStyle>
		<BalloonStyle>
		</BalloonStyle>
	</Style>
	<Folder>
		<name>carp_occ3_z3</name>
		<Placemark>
			<name>CARP3-Z3-9</name>
			<styleUrl>#msn_ylw-pushpin</styleUrl>
			<Point>
				<coordinates>-123.357956302973,54.76577110358979,0</coordinates>
			</Point>
		</Placemark>
		<Placemark>
			<name>CARP3-Z3-10</name>
			<styleUrl>#msn_ylw-pushpin</styleUrl>
			<Point>
				<coordinates>-123.378552357579,54.71916052277311,0</coordinates>
			</Point>
		</Placemark>
		<Placemark>
			<name>CARP3-Z3-34</name>
			<styleUrl>#msn_ylw-pushpin</styleUrl>
			<Point>
				<coordinates>-123.363985741543,54.76528970888621,0</coordinates>
			</Point>
		</Placemark>
		<Placemark>
			<name>CARP3-Z3-50</name>
			<styleUrl>#msn_ylw-pushpin</styleUrl>
			<Point>
				<coordinates>-123.366522491416,54.7524388913308,0</coordinates>
			</Point>
		</Placemark>
		<Placemark>
			<name>CARP3-Z3-51</name>
			<styleUrl>#msn_ylw-pushpin</styleUrl>
			<Point>
				<coordinates>-123.376315501016,54.7274099214817,0</coordinates>
			</Point>
		</Placemark>
		<Placemark>
			<name>CARP3-Z3-61</name>
			<styleUrl>#msn_ylw-pushpin</styleUrl>
			<Point>
				<coordinates>-123.329803153414,54.7267154752238,0</coordinates>
			</Point>
		</Placemark>
		<Placemark>
			<name>CARP3-Z3-62</name>
			<styleUrl>#msn_ylw-pushpin</styleUrl>
			<Point>
				<coordinates>-123.372086477032,54.76092803184011,0</coordinates>
			</Point>
		</Placemark>
		<Placemark>
			<name>CARP3-Z3-71</name>
			<styleUrl>#msn_ylw-pushpin</styleUrl>
			<Point>
				<coordinates>-123.36961490842,54.72068908868989,0</coordinates>
			</Point>
		</Placemark>
		<Placemark>
			<name>CARP3-Z3-97</name>
			<styleUrl>#msn_ylw-pushpin</styleUrl>
			<Point>
				<coordinates>-123.368551139724,54.71422109038,0</coordinates>
			</Point>
		</Placemark>
		<Placemark>
			<name>CARP3-Z3-115</name>
			<styleUrl>#msn_ylw-pushpin</styleUrl>
			<Point>
				<coordinates>-123.364238313287,54.7222796613369,0</coordinates>
			</Point>
		</Placemark>
		<Placemark>
			<name>CARP3-Z3-122</name>
			<styleUrl>#msn_ylw-pushpin</styleUrl>
			<Point>
				<coordinates>-123.363257847226,54.7186910090658,0</coordinates>
			</Point>
		</Placemark>
		<Placemark>
			<name>CARP3-Z3-149</name>
			<styleUrl>#msn_ylw-pushpin</styleUrl>
			<Point>
				<coordinates>-123.321819227223,54.72723711875151,0</coordinates>
			</Point>
		</Placemark>
		<Placemark>
			<name>CARP3-Z3-169</name>
			<styleUrl>#msn_ylw-pushpin</styleUrl>
			<Point>
				<coordinates>-123.374602439808,54.72087776194889,0</coordinates>
			</Point>
		</Placemark>
		<Placemark>
			<name>CARP3-Z3-182</name>
			<styleUrl>#msn_ylw-pushpin</styleUrl>
			<Point>
				<coordinates>-123.353886252571,54.7558764002367,0</coordinates>
			</Point>
		</Placemark>
		<Placemark>
			<name>CARP3-Z3-220</name>
			<styleUrl>#msn_ylw-pushpin</styleUrl>
			<Point>
				<coordinates>-123.373112964836,54.7367150257276,0</coordinates>
			</Point>
		</Placemark>
		<Placemark>
			<name>CARP3-Z3-256</name>
			<styleUrl>#msn_ylw-pushpin</styleUrl>
			<Point>
				<coordinates>-123.344358552704,54.7239223442215,0</coordinates>
			</Point>
		</Placemark>
		<Placemark>
			<name>CARP3-Z3-318</name>
			<styleUrl>#msn_ylw-pushpin</styleUrl>
			<Point>
				<coordinates>-123.328541689518,54.7257244529863,0</coordinates>
			</Point>
		</Placemark>
		<Placemark>
			<name>CARP3-Z3-352</name>
			<styleUrl>#msn_ylw-pushpin</styleUrl>
			<Point>
				<coordinates>-123.368459454056,54.75456720571881,0</coordinates>
			</Point>
		</Placemark>
		<Placemark>
			<name>CARP3-Z3-371</name>
			<styleUrl>#msn_ylw-pushpin</styleUrl>
			<Point>
				<coordinates>-123.373596188259,54.7273490864034,0</coordinates>
			</Point>
		</Placemark>
		<Placemark>
			<name>CARP3-Z3-388</name>
			<styleUrl>#msn_ylw-pushpin</styleUrl>
			<Point>
				<coordinates>-123.372695334097,54.7415319943771,0</coordinates>
			</Point>
		</Placemark>
		<Placemark>
			<name>CARP3-Z3-391</name>
			<styleUrl>#msn_ylw-pushpin</styleUrl>
			<Point>
				<coordinates>-123.359995315554,54.7222070531747,0</coordinates>
			</Point>
		</Placemark>
		<Placemark>
			<name>CARP3-Z3-428</name>
			<styleUrl>#msn_ylw-pushpin</styleUrl>
			<Point>
				<coordinates>-123.377201162693,54.7154804508013,0</coordinates>
			</Point>
		</Placemark>
	</Folder>
</Document>
</kml>
