<?xml version="1.0" encoding="UTF-8"?>
<kml xmlns="http://www.opengis.net/kml/2.2" xmlns:gx="http://www.google.com/kml/ext/2.2" xmlns:kml="http://www.opengis.net/kml/2.2" xmlns:atom="http://www.w3.org/2005/Atom">
<Document>
	<name>Carp_oc7_Z4.kml</name>
	<StyleMap id="msn_ylw-pushpin">
		<Pair>
			<key>normal</key>
			<styleUrl>#sn_ylw-pushpin</styleUrl>
		</Pair>
		<Pair>
			<key>highlight</key>
			<styleUrl>#sh_ylw-pushpin0</styleUrl>
		</Pair>
	</StyleMap>
	<StyleMap id="msn_ylw-pushpin0">
		<Pair>
			<key>normal</key>
			<styleUrl>#sn_ylw-pushpin0</styleUrl>
		</Pair>
		<Pair>
			<key>highlight</key>
			<styleUrl>#sh_ylw-pushpin</styleUrl>
		</Pair>
	</StyleMap>
	<Style id="sh_ylw-pushpin">
		<IconStyle>
			<color>ff400080</color>
			<scale>1.2</scale>
		</IconStyle>
		<BalloonStyle>
		</BalloonStyle>
	</Style>
	<Style id="sh_ylw-pushpin0">
		<IconStyle>
			<color>ff400080</color>
			<scale>1.2</scale>
		</IconStyle>
	</Style>
	<Style id="sn_ylw-pushpin">
		<IconStyle>
			<color>ff400080</color>
		</IconStyle>
	</Style>
	<Style id="sn_ylw-pushpin0">
		<IconStyle>
			<color>ff400080</color>
		</IconStyle>
		<BalloonStyle>
		</BalloonStyle>
	</Style>
	<Folder>
		<name>Carp_oc7_Z4</name>
		<Placemark>
			<name>CARP7-Z4-62</name>
			<styleUrl>#msn_ylw-pushpin</styleUrl>
			<Point>
				<coordinates>-123.329803153414,54.7695351808988,0</coordinates>
			</Point>
		</Placemark>
		<Placemark>
			<name>CARP7-Z4-78</name>
			<styleUrl>#msn_ylw-pushpin</styleUrl>
			<Point>
				<coordinates>-123.247545004169,54.7778954562206,0</coordinates>
			</Point>
		</Placemark>
		<Placemark>
			<name>CARP7-Z4-110</name>
			<styleUrl>#msn_ylw-pushpin</styleUrl>
			<Point>
				<coordinates>-123.340706618856,54.7706160876646,0</coordinates>
			</Point>
		</Placemark>
		<Placemark>
			<name>CARP7-Z4-115</name>
			<styleUrl>#msn_ylw-pushpin</styleUrl>
			<Point>
				<coordinates>-123.310814089045,54.72756074109229,0</coordinates>
			</Point>
		</Placemark>
		<Placemark>
			<name>CARP7-Z4-118</name>
			<styleUrl>#msn_ylw-pushpin0</styleUrl>
			<Point>
				<coordinates>-123.3193735820323,54.74554824495851,0</coordinates>
			</Point>
		</Placemark>
		<Placemark>
			<name>CARP7-Z4-121</name>
			<styleUrl>#msn_ylw-pushpin</styleUrl>
			<Point>
				<coordinates>-123.295198924105,54.7321668976986,0</coordinates>
			</Point>
		</Placemark>
		<Placemark>
			<name>CARP7-Z4-160</name>
			<styleUrl>#msn_ylw-pushpin</styleUrl>
			<Point>
				<coordinates>-123.267256197409,54.7708012481544,0</coordinates>
			</Point>
		</Placemark>
		<Placemark>
			<name>CARP7-Z4-170</name>
			<styleUrl>#msn_ylw-pushpin</styleUrl>
			<Point>
				<coordinates>-123.312259344277,54.7291338044737,0</coordinates>
			</Point>
		</Placemark>
		<Placemark>
			<name>CARP7-Z4-180</name>
			<styleUrl>#msn_ylw-pushpin</styleUrl>
			<Point>
				<coordinates>-123.320067510473,54.7639442788902,0</coordinates>
			</Point>
		</Placemark>
		<Placemark>
			<name>CARP7-Z4-189</name>
			<styleUrl>#msn_ylw-pushpin</styleUrl>
			<Point>
				<coordinates>-123.291277656648,54.7336879539204,0</coordinates>
			</Point>
		</Placemark>
		<Placemark>
			<name>CARP7-Z4-190</name>
			<styleUrl>#msn_ylw-pushpin</styleUrl>
			<Point>
				<coordinates>-123.243594934948,54.78365391504371,0</coordinates>
			</Point>
		</Placemark>
		<Placemark>
			<name>CARP7-Z4-204</name>
			<styleUrl>#msn_ylw-pushpin</styleUrl>
			<Point>
				<coordinates>-123.295159970344,54.7628175029104,0</coordinates>
			</Point>
		</Placemark>
		<Placemark>
			<name>CARP7-Z4-216</name>
			<styleUrl>#msn_ylw-pushpin0</styleUrl>
			<Point>
				<coordinates>-123.2993665726084,54.75089598003768,0</coordinates>
			</Point>
		</Placemark>
		<Placemark>
			<name>CARP7-Z4-247</name>
			<styleUrl>#msn_ylw-pushpin</styleUrl>
			<Point>
				<coordinates>-123.342092783054,54.7718273204437,0</coordinates>
			</Point>
		</Placemark>
		<Placemark>
			<name>CARP7-Z4-260</name>
			<styleUrl>#msn_ylw-pushpin</styleUrl>
			<Point>
				<coordinates>-123.274626077791,54.76329867439549,0</coordinates>
			</Point>
		</Placemark>
		<Placemark>
			<name>CARP7-Z4-263</name>
			<styleUrl>#msn_ylw-pushpin</styleUrl>
			<Point>
				<coordinates>-123.270492916768,54.7689047479213,0</coordinates>
			</Point>
		</Placemark>
		<Placemark>
			<name>CARP7-Z4-280</name>
			<styleUrl>#msn_ylw-pushpin0</styleUrl>
			<Point>
				<coordinates>-123.305551684163,54.75048595288294,0</coordinates>
			</Point>
		</Placemark>
		<Placemark>
			<name>CARP7-Z4-317</name>
			<styleUrl>#msn_ylw-pushpin</styleUrl>
			<Point>
				<coordinates>-123.281274819003,54.740730848887,0</coordinates>
			</Point>
		</Placemark>
		<Placemark>
			<name>CARP7-Z4-320</name>
			<styleUrl>#msn_ylw-pushpin</styleUrl>
			<Point>
				<coordinates>-123.274585168695,54.75747928254181,0</coordinates>
			</Point>
		</Placemark>
		<Placemark>
			<name>CARP7-Z4-333</name>
			<styleUrl>#msn_ylw-pushpin</styleUrl>
			<Point>
				<coordinates>-123.280163057826,54.7509819954017,0</coordinates>
			</Point>
		</Placemark>
	</Folder>
</Document>
</kml>
