<?xml version="1.0" encoding="UTF-8"?>
<kml xmlns="http://www.opengis.net/kml/2.2" xmlns:gx="http://www.google.com/kml/ext/2.2" xmlns:kml="http://www.opengis.net/kml/2.2" xmlns:atom="http://www.w3.org/2005/Atom">
<Document>
	<name>carp_oc6_Z1.kml</name>
	<StyleMap id="default">
		<Pair>
			<key>normal</key>
			<styleUrl>#default0</styleUrl>
		</Pair>
		<Pair>
			<key>highlight</key>
			<styleUrl>#hl</styleUrl>
		</Pair>
	</StyleMap>
	<Style id="default0">
		<IconStyle>
			<color>ffccff66</color>
		</IconStyle>
	</Style>
	<Style id="hl">
		<IconStyle>
			<color>ffccff66</color>
			<scale>1.2</scale>
		</IconStyle>
	</Style>
	<Folder>
		<name>carp_oc6_Z1</name>
		<open>1</open>
		<Placemark>
			<name>CARP6-Z1-2</name>
			<styleUrl>#default</styleUrl>
			<Point>
				<coordinates>-123.330866802254,54.8114912814967,0</coordinates>
			</Point>
		</Placemark>
		<Placemark>
			<name>CARP6-Z1-13</name>
			<styleUrl>#default</styleUrl>
			<Point>
				<coordinates>-123.348385599696,54.8098565131251,0</coordinates>
			</Point>
		</Placemark>
		<Placemark>
			<name>CARP6-Z1-22</name>
			<styleUrl>#default</styleUrl>
			<Point>
				<coordinates>-123.371538550198,54.79059593731179,0</coordinates>
			</Point>
		</Placemark>
		<Placemark>
			<name>CARP6-Z1-41</name>
			<styleUrl>#default</styleUrl>
			<Point>
				<coordinates>-123.354116688299,54.79963580573959,0</coordinates>
			</Point>
		</Placemark>
		<Placemark>
			<name>CARP6-Z1-117</name>
			<styleUrl>#default</styleUrl>
			<Point>
				<coordinates>-123.319745646994,54.7808611086578,0</coordinates>
			</Point>
		</Placemark>
		<Placemark>
			<name>CARP6-Z1-142</name>
			<styleUrl>#default</styleUrl>
			<Point>
				<coordinates>-123.34532658849,54.8102847106914,0</coordinates>
			</Point>
		</Placemark>
		<Placemark>
			<name>CARP6-Z1-151</name>
			<styleUrl>#default</styleUrl>
			<Point>
				<coordinates>-123.319009726413,54.7854253433273,0</coordinates>
			</Point>
		</Placemark>
		<Placemark>
			<name>CARP6-Z1-165</name>
			<styleUrl>#default</styleUrl>
			<Point>
				<coordinates>-123.340214404016,54.7987987042948,0</coordinates>
			</Point>
		</Placemark>
		<Placemark>
			<name>CARP6-Z1-171</name>
			<styleUrl>#default</styleUrl>
			<Point>
				<coordinates>-123.345972892601,54.7718019580274,0</coordinates>
			</Point>
		</Placemark>
		<Placemark>
			<name>CARP6-Z1-173</name>
			<styleUrl>#default</styleUrl>
			<Point>
				<coordinates>-123.324503448535,54.8033060046017,0</coordinates>
			</Point>
		</Placemark>
		<Placemark>
			<name>CARP6-Z1-227</name>
			<styleUrl>#default</styleUrl>
			<Point>
				<coordinates>-123.357886219198,54.7976442000949,0</coordinates>
			</Point>
		</Placemark>
		<Placemark>
			<name>CARP6-Z1-241</name>
			<styleUrl>#default</styleUrl>
			<Point>
				<coordinates>-123.327258801348,54.7959522825622,0</coordinates>
			</Point>
		</Placemark>
		<Placemark>
			<name>CARP6-Z1-268</name>
			<styleUrl>#default</styleUrl>
			<Point>
				<coordinates>-123.336522094189,54.7814375050776,0</coordinates>
			</Point>
		</Placemark>
		<Placemark>
			<name>CARP6-Z1-272</name>
			<styleUrl>#default</styleUrl>
			<Point>
				<coordinates>-123.348881616027,54.8190011373791,0</coordinates>
			</Point>
		</Placemark>
		<Placemark>
			<name>CARP6-Z1-300</name>
			<styleUrl>#default</styleUrl>
			<Point>
				<coordinates>-123.335327176358,54.793873875748,0</coordinates>
			</Point>
		</Placemark>
		<Placemark>
			<name>CARP6-Z1-315</name>
			<styleUrl>#default</styleUrl>
			<Point>
				<coordinates>-123.322220216086,54.79234339965149,0</coordinates>
			</Point>
		</Placemark>
		<Placemark>
			<name>CARP6-Z1-343</name>
			<styleUrl>#default</styleUrl>
			<Point>
				<coordinates>-123.339247834074,54.7807946482926,0</coordinates>
			</Point>
		</Placemark>
		<Placemark>
			<name>CARP6-Z1-350</name>
			<styleUrl>#default</styleUrl>
			<Point>
				<coordinates>-123.364432287995,54.7965921196468,0</coordinates>
			</Point>
		</Placemark>
		<Placemark>
			<name>CARP6-Z1-366</name>
			<styleUrl>#default</styleUrl>
			<Point>
				<coordinates>-123.338597326108,54.7969546850113,0</coordinates>
			</Point>
		</Placemark>
		<Placemark>
			<name>CARP6-Z1-379</name>
			<styleUrl>#default</styleUrl>
			<Point>
				<coordinates>-123.365935136647,54.7887531874801,0</coordinates>
			</Point>
		</Placemark>
	</Folder>
</Document>
</kml>
