<?xml version="1.0"?>
<gpx version="1.1" creator="GDAL 3.4.0" xmlns:xsi="http://www.w3.org/2001/XMLSchema-instance" xmlns="http://www.topografix.com/GPX/1/1" xsi:schemaLocation="http://www.topografix.com/GPX/1/1 http://www.topografix.com/GPX/1/1/gpx.xsd">
<metadata><bounds minlat="54.710018475092312" minlon="-123.429655301031687" maxlat="54.822039355040864" maxlon="-123.243112771634529"/></metadata>              
<wpt lat="54.800758498042462" lon="-123.353256328351463">
  <name>CARP3-1</name>
</wpt>
<wpt lat="54.81149128149665" lon="-123.33086680225378">
  <name>CARP3-2</name>
</wpt>
<wpt lat="54.804750677245885" lon="-123.32249803796779">
  <name>CARP3-3</name>
</wpt>
<wpt lat="54.799708754299679" lon="-123.368490373545271">
  <name>CARP3-4</name>
</wpt>
<wpt lat="54.723493219275426" lon="-123.375775276278688">
  <name>CARP3-5</name>
</wpt>
<wpt lat="54.75823538512757" lon="-123.403282739519753">
  <name>CARP3-6</name>
</wpt>
<wpt lat="54.77144122388416" lon="-123.4072109171195">
  <name>CARP3-7</name>
</wpt>
<wpt lat="54.74669004132236" lon="-123.406152341893701">
  <name>CARP3-8</name>
</wpt>
<wpt lat="54.765771103589785" lon="-123.357956302973406">
  <name>CARP3-9</name>
</wpt>
<wpt lat="54.719160522773102" lon="-123.378552357578812">
  <name>CARP3-10</name>
</wpt>
<wpt lat="54.810009953939996" lon="-123.34582512276782">
  <name>CARP3-11</name>
</wpt>
<wpt lat="54.806614410494014" lon="-123.358736854149825">
  <name>CARP3-12</name>
</wpt>
<wpt lat="54.809856513125119" lon="-123.348385599696385">
  <name>CARP3-13</name>
</wpt>
<wpt lat="54.773656725938821" lon="-123.263514438182725">
  <name>CARP3-14</name>
</wpt>
<wpt lat="54.803582968307737" lon="-123.365559241832997">
  <name>CARP3-15</name>
</wpt>
<wpt lat="54.778585019289629" lon="-123.31571295441239">
  <name>CARP3-16</name>
</wpt>
<wpt lat="54.725177098423679" lon="-123.326886299926883">
  <name>CARP3-17</name>
</wpt>
<wpt lat="54.799361915137588" lon="-123.354095807558281">
  <name>CARP3-18</name>
</wpt>
<wpt lat="54.751893454068671" lon="-123.370012740976577">
  <name>CARP3-19</name>
</wpt>
<wpt lat="54.799969047016475" lon="-123.36067788044231">
  <name>CARP3-20</name>
</wpt>
<wpt lat="54.760941656309377" lon="-123.313735499044341">
  <name>CARP3-21</name>
</wpt>
<wpt lat="54.790595937311842" lon="-123.371538550198281">
  <name>CARP3-22</name>
</wpt>
<wpt lat="54.782931361983259" lon="-123.395567722735848">
  <name>CARP3-23</name>
</wpt>
<wpt lat="54.778571139229605" lon="-123.386675657048343">
  <name>CARP3-24</name>
</wpt>
<wpt lat="54.820515451165889" lon="-123.346529601506674">
  <name>CARP3-25</name>
</wpt>
<wpt lat="54.787335570381728" lon="-123.335716876797065">
  <name>CARP3-26</name>
</wpt>
<wpt lat="54.806690016736205" lon="-123.363606858503033">
  <name>CARP3-27</name>
</wpt>
<wpt lat="54.786465016604609" lon="-123.313968288665691">
  <name>CARP3-28</name>
</wpt>
<wpt lat="54.77814085598888" lon="-123.380312612837912">
  <name>CARP3-29</name>
</wpt>
<wpt lat="54.788694342701973" lon="-123.339665540385852">
  <name>CARP3-30</name>
</wpt>
<wpt lat="54.809400114102267" lon="-123.342439051768721">
  <name>CARP3-31</name>
</wpt>
<wpt lat="54.745824700577252" lon="-123.375948270781592">
  <name>CARP3-32</name>
</wpt>
<wpt lat="54.785344129974263" lon="-123.398049392584724">
  <name>CARP3-33</name>
</wpt>
<wpt lat="54.765289708886243" lon="-123.363985741543203">
  <name>CARP3-34</name>
</wpt>
<wpt lat="54.795325797087145" lon="-123.377021610965642">
  <name>CARP3-35</name>
</wpt>
<wpt lat="54.78611230635002" lon="-123.313905636685746">
  <name>CARP3-36</name>
</wpt>
<wpt lat="54.817330935144511" lon="-123.349601830521479">
  <name>CARP3-37</name>
</wpt>
<wpt lat="54.719902419173778" lon="-123.381094639179878">
  <name>CARP3-38</name>
</wpt>
<wpt lat="54.725964972269594" lon="-123.379842070779659">
  <name>CARP3-39</name>
</wpt>
<wpt lat="54.73776209417202" lon="-123.282530144274972">
  <name>CARP3-40</name>
</wpt>
<wpt lat="54.799635805739591" lon="-123.354116688298831">
  <name>CARP3-41</name>
</wpt>
<wpt lat="54.774084457685056" lon="-123.247462765626253">
  <name>CARP3-42</name>
</wpt>
<wpt lat="54.772780917059151" lon="-123.342450389595911">
  <name>CARP3-43</name>
</wpt>
<wpt lat="54.780101017708432" lon="-123.404352882921032">
  <name>CARP3-44</name>
</wpt>
<wpt lat="54.77444181879379" lon="-123.387836485694791">
  <name>CARP3-45</name>
</wpt>
<wpt lat="54.766859622204045" lon="-123.276644818146139">
  <name>CARP3-46</name>
</wpt>
<wpt lat="54.769101579180884" lon="-123.411506839211498">
  <name>CARP3-47</name>
</wpt>
<wpt lat="54.802091397718868" lon="-123.337597490791708">
  <name>CARP3-48</name>
</wpt>
<wpt lat="54.739154872272408" lon="-123.374509336956251">
  <name>CARP3-49</name>
</wpt>
<wpt lat="54.75243889133079" lon="-123.366522491415679">
  <name>CARP3-50</name>
</wpt>
<wpt lat="54.727409921481652" lon="-123.376315501016023">
  <name>CARP3-51</name>
</wpt>
<wpt lat="54.774850428318146" lon="-123.407679740229838">
  <name>CARP3-52</name>
</wpt>
<wpt lat="54.771823536379721" lon="-123.360541445592361">
  <name>CARP3-53</name>
</wpt>
<wpt lat="54.795713837981161" lon="-123.333316407173385">
  <name>CARP3-54</name>
</wpt>
<wpt lat="54.762274857656941" lon="-123.399473052401333">
  <name>CARP3-55</name>
</wpt>
<wpt lat="54.725819335206985" lon="-123.313238234001844">
  <name>CARP3-56</name>
</wpt>
<wpt lat="54.757269666027213" lon="-123.369350354844499">
  <name>CARP3-57</name>
</wpt>
<wpt lat="54.762848117464394" lon="-123.261584322059008">
  <name>CARP3-58</name>
</wpt>
<wpt lat="54.795907083346343" lon="-123.339312605792529">
  <name>CARP3-59</name>
</wpt>
<wpt lat="54.761058312050288" lon="-123.365692244432068">
  <name>CARP3-60</name>
</wpt>
<wpt lat="54.72671547522382" lon="-123.329803153414204">
  <name>CARP3-61</name>
</wpt>
<wpt lat="54.760928031840137" lon="-123.372086477031758">
  <name>CARP3-62</name>
</wpt>
<wpt lat="54.735047214246315" lon="-123.28712877221011">
  <name>CARP3-63</name>
</wpt>
<wpt lat="54.807265802835012" lon="-123.360072600689946">
  <name>CARP3-64</name>
</wpt>
<wpt lat="54.710018475092312" lon="-123.374432896285228">
  <name>CARP3-65</name>
</wpt>
<wpt lat="54.722392405513503" lon="-123.379273832643776">
  <name>CARP3-66</name>
</wpt>
<wpt lat="54.787682669721988" lon="-123.407959953550744">
  <name>CARP3-67</name>
</wpt>
<wpt lat="54.775830534249835" lon="-123.243823992480756">
  <name>CARP3-68</name>
</wpt>
<wpt lat="54.759482884473861" lon="-123.389680828715768">
  <name>CARP3-69</name>
</wpt>
<wpt lat="54.759535434975405" lon="-123.378239237227064">
  <name>CARP3-70</name>
</wpt>
<wpt lat="54.720689088689937" lon="-123.369614908419535">
  <name>CARP3-71</name>
</wpt>
<wpt lat="54.728270683662458" lon="-123.312419802258034">
  <name>CARP3-72</name>
</wpt>
<wpt lat="54.780504190717522" lon="-123.38598817704235">
  <name>CARP3-73</name>
</wpt>
<wpt lat="54.76947560992236" lon="-123.36282644048579">
  <name>CARP3-74</name>
</wpt>
<wpt lat="54.715228214241506" lon="-123.364377952140245">
  <name>CARP3-75</name>
</wpt>
<wpt lat="54.762895755526671" lon="-123.277542904278533">
  <name>CARP3-76</name>
</wpt>
<wpt lat="54.787479659896427" lon="-123.246927092105679">
  <name>CARP3-77</name>
</wpt>
<wpt lat="54.712693754569855" lon="-123.3792300140001">
  <name>CARP3-78</name>
</wpt>
<wpt lat="54.769514603768442" lon="-123.412470095139255">
  <name>CARP3-79</name>
</wpt>
<wpt lat="54.820228557311559" lon="-123.346574821844243">
  <name>CARP3-80</name>
</wpt>
<wpt lat="54.787742602009487" lon="-123.312252675291631">
  <name>CARP3-81</name>
</wpt>
<wpt lat="54.792293740126915" lon="-123.372278736161348">
  <name>CARP3-82</name>
</wpt>
<wpt lat="54.769459207850815" lon="-123.406119632523058">
  <name>CARP3-83</name>
</wpt>
<wpt lat="54.759555475585827" lon="-123.363662959078098">
  <name>CARP3-84</name>
</wpt>
<wpt lat="54.728477922137763" lon="-123.376162367446099">
  <name>CARP3-85</name>
</wpt>
<wpt lat="54.774092642845083" lon="-123.335406928810471">
  <name>CARP3-86</name>
</wpt>
<wpt lat="54.802686039203607" lon="-123.365971814799408">
  <name>CARP3-87</name>
</wpt>
<wpt lat="54.820069923405313" lon="-123.342780908814419">
  <name>CARP3-88</name>
</wpt>
<wpt lat="54.768731131970632" lon="-123.414609920107495">
  <name>CARP3-89</name>
</wpt>
<wpt lat="54.782363960995276" lon="-123.373523180626975">
  <name>CARP3-90</name>
</wpt>
<wpt lat="54.790735991068793" lon="-123.361583365244741">
  <name>CARP3-91</name>
</wpt>
<wpt lat="54.789517579556701" lon="-123.332614789671936">
  <name>CARP3-92</name>
</wpt>
<wpt lat="54.821130086016026" lon="-123.346103157406915">
  <name>CARP3-93</name>
</wpt>
<wpt lat="54.781919745875847" lon="-123.422697532963383">
  <name>CARP3-94</name>
</wpt>
<wpt lat="54.761093552187951" lon="-123.378087866976855">
  <name>CARP3-95</name>
</wpt>
<wpt lat="54.806283322937311" lon="-123.357730024367214">
  <name>CARP3-96</name>
</wpt>
<wpt lat="54.714221090379986" lon="-123.368551139723579">
  <name>CARP3-97</name>
</wpt>
<wpt lat="54.763035850548398" lon="-123.319805689045964">
  <name>CARP3-98</name>
</wpt>
<wpt lat="54.807267128071054" lon="-123.355835517097077">
  <name>CARP3-99</name>
</wpt>
<wpt lat="54.778286816283597" lon="-123.426669755616786">
  <name>CARP3-100</name>
</wpt>
<wpt lat="54.790764970756214" lon="-123.338016583043768">
  <name>CARP3-101</name>
</wpt>
<wpt lat="54.77427088336222" lon="-123.264979470855195">
  <name>CARP3-102</name>
</wpt>
<wpt lat="54.742040833973199" lon="-123.277350210357767">
  <name>CARP3-103</name>
</wpt>
<wpt lat="54.783026077708172" lon="-123.320598610722342">
  <name>CARP3-104</name>
</wpt>
<wpt lat="54.763750899149208" lon="-123.397421925442842">
  <name>CARP3-105</name>
</wpt>
<wpt lat="54.763075816788728" lon="-123.275496196252817">
  <name>CARP3-106</name>
</wpt>
<wpt lat="54.784654568039834" lon="-123.243484147131852">
  <name>CARP3-107</name>
</wpt>
<wpt lat="54.797077356119154" lon="-123.361632220656972">
  <name>CARP3-108</name>
</wpt>
<wpt lat="54.762566021466682" lon="-123.410560200480361">
  <name>CARP3-109</name>
</wpt>
<wpt lat="54.78766186587211" lon="-123.250831550832302">
  <name>CARP3-110</name>
</wpt>
<wpt lat="54.812419424346182" lon="-123.351602385351541">
  <name>CARP3-111</name>
</wpt>
<wpt lat="54.727171542753112" lon="-123.318512663538129">
  <name>CARP3-112</name>
</wpt>
<wpt lat="54.739268838738134" lon="-123.279986904347965">
  <name>CARP3-113</name>
</wpt>
<wpt lat="54.767339408546505" lon="-123.268968887144808">
  <name>CARP3-114</name>
</wpt>
<wpt lat="54.722279661336948" lon="-123.36423831328726">
  <name>CARP3-115</name>
</wpt>
<wpt lat="54.780631739846974" lon="-123.426348384997709">
  <name>CARP3-116</name>
</wpt>
<wpt lat="54.780861108657831" lon="-123.319745646994477">
  <name>CARP3-117</name>
</wpt>
<wpt lat="54.782761554082668" lon="-123.326635945854065">
  <name>CARP3-118</name>
</wpt>
<wpt lat="54.785716808763929" lon="-123.382417026131407">
  <name>CARP3-119</name>
</wpt>
<wpt lat="54.770209383940546" lon="-123.403789525946095">
  <name>CARP3-120</name>
</wpt>
<wpt lat="54.763944278890193" lon="-123.399105515633877">
  <name>CARP3-121</name>
</wpt>
<wpt lat="54.718691009065843" lon="-123.363257847226066">
  <name>CARP3-122</name>
</wpt>
<wpt lat="54.798752965146662" lon="-123.327423519196557">
  <name>CARP3-123</name>
</wpt>
<wpt lat="54.718005066651116" lon="-123.359370610447854">
  <name>CARP3-124</name>
</wpt>
<wpt lat="54.818231887316699" lon="-123.349504271978944">
  <name>CARP3-125</name>
</wpt>
<wpt lat="54.814065849033078" lon="-123.33862563129253">
  <name>CARP3-126</name>
</wpt>
<wpt lat="54.762915078645051" lon="-123.295198924104966">
  <name>CARP3-127</name>
</wpt>
<wpt lat="54.766499989796067" lon="-123.270887069660176">
  <name>CARP3-128</name>
</wpt>
<wpt lat="54.764967971591489" lon="-123.278965855721609">
  <name>CARP3-129</name>
</wpt>
<wpt lat="54.746298000479591" lon="-123.369530676296137">
  <name>CARP3-130</name>
</wpt>
<wpt lat="54.77516256669827" lon="-123.402239203753524">
  <name>CARP3-131</name>
</wpt>
<wpt lat="54.774104346358001" lon="-123.423222806634683">
  <name>CARP3-132</name>
</wpt>
<wpt lat="54.763631761833338" lon="-123.403028583912359">
  <name>CARP3-133</name>
</wpt>
<wpt lat="54.801728042114512" lon="-123.367808836604112">
  <name>CARP3-134</name>
</wpt>
<wpt lat="54.762956090112489" lon="-123.276107062301463">
  <name>CARP3-135</name>
</wpt>
<wpt lat="54.745416206065315" lon="-123.376908023656114">
  <name>CARP3-136</name>
</wpt>
<wpt lat="54.776143241019611" lon="-123.388881978677645">
  <name>CARP3-137</name>
</wpt>
<wpt lat="54.722139147399339" lon="-123.362185690290104">
  <name>CARP3-138</name>
</wpt>
<wpt lat="54.795710582399906" lon="-123.361362635039384">
  <name>CARP3-139</name>
</wpt>
<wpt lat="54.770637833013787" lon="-123.340317287874839">
  <name>CARP3-140</name>
</wpt>
<wpt lat="54.711356745318675" lon="-123.374675890152346">
  <name>CARP3-141</name>
</wpt>
<wpt lat="54.810284710691434" lon="-123.345326588490451">
  <name>CARP3-142</name>
</wpt>
<wpt lat="54.761294066895466" lon="-123.285045249415461">
  <name>CARP3-143</name>
</wpt>
<wpt lat="54.713511358383101" lon="-123.375739114352896">
  <name>CARP3-144</name>
</wpt>
<wpt lat="54.800251762409793" lon="-123.335314629595658">
  <name>CARP3-145</name>
</wpt>
<wpt lat="54.782380976319615" lon="-123.388231922655805">
  <name>CARP3-146</name>
</wpt>
<wpt lat="54.782459308248541" lon="-123.327405375898721">
  <name>CARP3-147</name>
</wpt>
<wpt lat="54.766612664404782" lon="-123.275917732498542">
  <name>CARP3-148</name>
</wpt>
<wpt lat="54.727237118751468" lon="-123.32181922722323">
  <name>CARP3-149</name>
</wpt>
<wpt lat="54.793342540392956" lon="-123.371136280023293">
  <name>CARP3-150</name>
</wpt>
<wpt lat="54.785425343327333" lon="-123.319009726413228">
  <name>CARP3-151</name>
</wpt>
<wpt lat="54.754313781669019" lon="-123.357962498791224">
  <name>CARP3-152</name>
</wpt>
<wpt lat="54.761979667954613" lon="-123.278189650575172">
  <name>CARP3-153</name>
</wpt>
<wpt lat="54.804537592181958" lon="-123.364713759611277">
  <name>CARP3-154</name>
</wpt>
<wpt lat="54.761966941919489" lon="-123.404327033720008">
  <name>CARP3-155</name>
</wpt>
<wpt lat="54.759379404006175" lon="-123.400296611145109">
  <name>CARP3-156</name>
</wpt>
<wpt lat="54.763646191972136" lon="-123.356978864215691">
  <name>CARP3-157</name>
</wpt>
<wpt lat="54.754957677758846" lon="-123.412656307757331">
  <name>CARP3-158</name>
</wpt>
<wpt lat="54.761733015047824" lon="-123.399710072440925">
  <name>CARP3-159</name>
</wpt>
<wpt lat="54.722784997432143" lon="-123.353925489979162">
  <name>CARP3-160</name>
</wpt>
<wpt lat="54.713176943732321" lon="-123.365879128184616">
  <name>CARP3-161</name>
</wpt>
<wpt lat="54.718499261030509" lon="-123.372976273338523">
  <name>CARP3-162</name>
</wpt>
<wpt lat="54.774413490267229" lon="-123.418607224513522">
  <name>CARP3-163</name>
</wpt>
<wpt lat="54.803711318629126" lon="-123.350074768613354">
  <name>CARP3-164</name>
</wpt>
<wpt lat="54.798798704294789" lon="-123.34021440401574">
  <name>CARP3-165</name>
</wpt>
<wpt lat="54.780779329596619" lon="-123.379487417150912">
  <name>CARP3-166</name>
</wpt>
<wpt lat="54.771863590707198" lon="-123.404211495363896">
  <name>CARP3-167</name>
</wpt>
<wpt lat="54.768095204554434" lon="-123.356541249492537">
  <name>CARP3-168</name>
</wpt>
<wpt lat="54.720877761948884" lon="-123.374602439808314">
  <name>CARP3-169</name>
</wpt>
<wpt lat="54.762486446386539" lon="-123.36604453300869">
  <name>CARP3-170</name>
</wpt>
<wpt lat="54.771801958027396" lon="-123.345972892600628">
  <name>CARP3-171</name>
</wpt>
<wpt lat="54.718146336083251" lon="-123.356579526299257">
  <name>CARP3-172</name>
</wpt>
<wpt lat="54.803306004601737" lon="-123.324503448534699">
  <name>CARP3-173</name>
</wpt>
<wpt lat="54.781925794163577" lon="-123.311917838311572">
  <name>CARP3-174</name>
</wpt>
<wpt lat="54.802783898864092" lon="-123.351210124475202">
  <name>CARP3-175</name>
</wpt>
<wpt lat="54.803335934625906" lon="-123.35638478549933">
  <name>CARP3-176</name>
</wpt>
<wpt lat="54.759165859760152" lon="-123.389328265637843">
  <name>CARP3-177</name>
</wpt>
<wpt lat="54.720333672625856" lon="-123.37390278074875">
  <name>CARP3-178</name>
</wpt>
<wpt lat="54.813177537158055" lon="-123.350844400650374">
  <name>CARP3-179</name>
</wpt>
<wpt lat="54.718528214307796" lon="-123.380412728754152">
  <name>CARP3-180</name>
</wpt>
<wpt lat="54.77296157256508" lon="-123.419214644570886">
  <name>CARP3-181</name>
</wpt>
<wpt lat="54.755876400236723" lon="-123.35388625257103">
  <name>CARP3-182</name>
</wpt>
<wpt lat="54.797467851815213" lon="-123.368430617635042">
  <name>CARP3-183</name>
</wpt>
<wpt lat="54.725833818275277" lon="-123.330742776368098">
  <name>CARP3-184</name>
</wpt>
<wpt lat="54.812850152150261" lon="-123.334192322457227">
  <name>CARP3-185</name>
</wpt>
<wpt lat="54.799636860726828" lon="-123.359483575545667">
  <name>CARP3-186</name>
</wpt>
<wpt lat="54.722312235945537" lon="-123.343809519463804">
  <name>CARP3-187</name>
</wpt>
<wpt lat="54.78697890753638" lon="-123.407814018408857">
  <name>CARP3-188</name>
</wpt>
<wpt lat="54.774617164923697" lon="-123.402039963372673">
  <name>CARP3-189</name>
</wpt>
<wpt lat="54.784608467353564" lon="-123.247358198439215">
  <name>CARP3-190</name>
</wpt>
<wpt lat="54.777296948953001" lon="-123.429655301031687">
  <name>CARP3-191</name>
</wpt>
<wpt lat="54.754278840799145" lon="-123.406842848765592">
  <name>CARP3-192</name>
</wpt>
<wpt lat="54.789286613030782" lon="-123.338647677296152">
  <name>CARP3-193</name>
</wpt>
<wpt lat="54.768411388108035" lon="-123.32822002098608">
  <name>CARP3-194</name>
</wpt>
<wpt lat="54.760110567669834" lon="-123.382068893188588">
  <name>CARP3-195</name>
</wpt>
<wpt lat="54.801610430919659" lon="-123.337348866912905">
  <name>CARP3-196</name>
</wpt>
<wpt lat="54.795186872557224" lon="-123.377955364851474">
  <name>CARP3-197</name>
</wpt>
<wpt lat="54.799527894265381" lon="-123.369001126303232">
  <name>CARP3-198</name>
</wpt>
<wpt lat="54.716092692362366" lon="-123.383194381444">
  <name>CARP3-199</name>
</wpt>
<wpt lat="54.788064920226212" lon="-123.409319740112579">
  <name>CARP3-200</name>
</wpt>
<wpt lat="54.784533098506543" lon="-123.253637559791414">
  <name>CARP3-201</name>
</wpt>
<wpt lat="54.753006325264096" lon="-123.36965123509863">
  <name>CARP3-202</name>
</wpt>
<wpt lat="54.783459993498482" lon="-123.312673792061915">
  <name>CARP3-203</name>
</wpt>
<wpt lat="54.720970250612154" lon="-123.347380265733662">
  <name>CARP3-204</name>
</wpt>
<wpt lat="54.726644919153834" lon="-123.377631400713625">
  <name>CARP3-205</name>
</wpt>
<wpt lat="54.795128747235644" lon="-123.322858930079562">
  <name>CARP3-206</name>
</wpt>
<wpt lat="54.782289192853582" lon="-123.383374495214596">
  <name>CARP3-207</name>
</wpt>
<wpt lat="54.784843845602701" lon="-123.247288377131085">
  <name>CARP3-208</name>
</wpt>
<wpt lat="54.820701570443646" lon="-123.344849682797943">
  <name>CARP3-209</name>
</wpt>
<wpt lat="54.781796804135361" lon="-123.313007651462001">
  <name>CARP3-210</name>
</wpt>
<wpt lat="54.755041414467065" lon="-123.356410114622577">
  <name>CARP3-211</name>
</wpt>
<wpt lat="54.789351530102245" lon="-123.31607095649322">
  <name>CARP3-212</name>
</wpt>
<wpt lat="54.802274735667666" lon="-123.324399393242501">
  <name>CARP3-213</name>
</wpt>
<wpt lat="54.744656869174115" lon="-123.378267552870241">
  <name>CARP3-214</name>
</wpt>
<wpt lat="54.781866848934492" lon="-123.326887213749743">
  <name>CARP3-215</name>
</wpt>
<wpt lat="54.798787638887774" lon="-123.365068599960438">
  <name>CARP3-216</name>
</wpt>
<wpt lat="54.791893697505522" lon="-123.33333636179475">
  <name>CARP3-217</name>
</wpt>
<wpt lat="54.79027986654404" lon="-123.331211288744541">
  <name>CARP3-218</name>
</wpt>
<wpt lat="54.797639676403428" lon="-123.360488930862886">
  <name>CARP3-219</name>
</wpt>
<wpt lat="54.736715025727605" lon="-123.373112964836054">
  <name>CARP3-220</name>
</wpt>
<wpt lat="54.763446251514978" lon="-123.293172886950799">
  <name>CARP3-221</name>
</wpt>
<wpt lat="54.771010299842771" lon="-123.361337325520253">
  <name>CARP3-222</name>
</wpt>
<wpt lat="54.763337906313474" lon="-123.366642489400576">
  <name>CARP3-223</name>
</wpt>
<wpt lat="54.718797623463807" lon="-123.369912848407168">
  <name>CARP3-224</name>
</wpt>
<wpt lat="54.759108078159173" lon="-123.398101313020859">
  <name>CARP3-225</name>
</wpt>
<wpt lat="54.734860350173015" lon="-123.373317807003929">
  <name>CARP3-226</name>
</wpt>
<wpt lat="54.797644200094879" lon="-123.357886219197724">
  <name>CARP3-227</name>
</wpt>
<wpt lat="54.761390361396899" lon="-123.307921894903401">
  <name>CARP3-228</name>
</wpt>
<wpt lat="54.725907544521995" lon="-123.317833550855255">
  <name>CARP3-229</name>
</wpt>
<wpt lat="54.742083970297756" lon="-123.37395292119291">
  <name>CARP3-230</name>
</wpt>
<wpt lat="54.725321338435307" lon="-123.320067223325438">
  <name>CARP3-231</name>
</wpt>
<wpt lat="54.759526296369714" lon="-123.366366456131104">
  <name>CARP3-232</name>
</wpt>
<wpt lat="54.785240249806598" lon="-123.251040214620204">
  <name>CARP3-233</name>
</wpt>
<wpt lat="54.809305855820348" lon="-123.342995167169079">
  <name>CARP3-234</name>
</wpt>
<wpt lat="54.805068484018818" lon="-123.363451795372299">
  <name>CARP3-235</name>
</wpt>
<wpt lat="54.786117870151635" lon="-123.415874469594783">
  <name>CARP3-236</name>
</wpt>
<wpt lat="54.758292527152243" lon="-123.385973155611566">
  <name>CARP3-237</name>
</wpt>
<wpt lat="54.792509878260311" lon="-123.35920795435635">
  <name>CARP3-238</name>
</wpt>
<wpt lat="54.806058988919339" lon="-123.342538481453573">
  <name>CARP3-239</name>
</wpt>
<wpt lat="54.733754981186024" lon="-123.287624585323172">
  <name>CARP3-240</name>
</wpt>
<wpt lat="54.795952282562233" lon="-123.327258801347782">
  <name>CARP3-241</name>
</wpt>
<wpt lat="54.792166575563499" lon="-123.371391923530155">
  <name>CARP3-242</name>
</wpt>
<wpt lat="54.766589069971602" lon="-123.269301686260093">
  <name>CARP3-243</name>
</wpt>
<wpt lat="54.801950641975679" lon="-123.336457484292268">
  <name>CARP3-244</name>
</wpt>
<wpt lat="54.774428359561767" lon="-123.418263074793359">
  <name>CARP3-245</name>
</wpt>
<wpt lat="54.808445315182873" lon="-123.346959254904334">
  <name>CARP3-246</name>
</wpt>
<wpt lat="54.78362259671178" lon="-123.379330548954201">
  <name>CARP3-247</name>
</wpt>
<wpt lat="54.779583097489301" lon="-123.322030580012438">
  <name>CARP3-248</name>
</wpt>
<wpt lat="54.755456665147214" lon="-123.407786155979466">
  <name>CARP3-249</name>
</wpt>
<wpt lat="54.780121326399254" lon="-123.404254793535955">
  <name>CARP3-250</name>
</wpt>
<wpt lat="54.761827024095666" lon="-123.298526652440145">
  <name>CARP3-251</name>
</wpt>
<wpt lat="54.785831358317182" lon="-123.243790982265779">
  <name>CARP3-252</name>
</wpt>
<wpt lat="54.822039355040864" lon="-123.351313624113402">
  <name>CARP3-253</name>
</wpt>
<wpt lat="54.726421024972659" lon="-123.320710595308327">
  <name>CARP3-254</name>
</wpt>
<wpt lat="54.774763853308407" lon="-123.427955730252521">
  <name>CARP3-255</name>
</wpt>
<wpt lat="54.723922344221542" lon="-123.344358552704264">
  <name>CARP3-256</name>
</wpt>
<wpt lat="54.787667043658544" lon="-123.386778432253408">
  <name>CARP3-257</name>
</wpt>
<wpt lat="54.786589217124757" lon="-123.250332105795238">
  <name>CARP3-258</name>
</wpt>
<wpt lat="54.805768087224294" lon="-123.348793183723018">
  <name>CARP3-259</name>
</wpt>
<wpt lat="54.776382510446226" lon="-123.421604804445437">
  <name>CARP3-260</name>
</wpt>
<wpt lat="54.801738620244222" lon="-123.352875218538159">
  <name>CARP3-261</name>
</wpt>
<wpt lat="54.71842911983029" lon="-123.359873822493498">
  <name>CARP3-262</name>
</wpt>
<wpt lat="54.782945122671912" lon="-123.376629450779163">
  <name>CARP3-263</name>
</wpt>
<wpt lat="54.796723708219552" lon="-123.371406434904003">
  <name>CARP3-264</name>
</wpt>
<wpt lat="54.78852222692479" lon="-123.388602463096788">
  <name>CARP3-265</name>
</wpt>
<wpt lat="54.769556910566877" lon="-123.26753841879443">
  <name>CARP3-266</name>
</wpt>
<wpt lat="54.77182732044372" lon="-123.362713046898122">
  <name>CARP3-267</name>
</wpt>
<wpt lat="54.781437505077577" lon="-123.336522094188993">
  <name>CARP3-268</name>
</wpt>
<wpt lat="54.757442413594802" lon="-123.396202422087853">
  <name>CARP3-269</name>
</wpt>
<wpt lat="54.781491573118707" lon="-123.312185718809147">
  <name>CARP3-270</name>
</wpt>
<wpt lat="54.755151506302695" lon="-123.356655689012001">
  <name>CARP3-271</name>
</wpt>
<wpt lat="54.819001137379104" lon="-123.348881616027072">
  <name>CARP3-272</name>
</wpt>
<wpt lat="54.753007322079647" lon="-123.364597431620865">
  <name>CARP3-273</name>
</wpt>
<wpt lat="54.786883053515261" lon="-123.374888842820752">
  <name>CARP3-274</name>
</wpt>
<wpt lat="54.775117773427056" lon="-123.406661530348671">
  <name>CARP3-275</name>
</wpt>
<wpt lat="54.715883993598112" lon="-123.382145449121282">
  <name>CARP3-276</name>
</wpt>
<wpt lat="54.766695962314891" lon="-123.279055295799452">
  <name>CARP3-277</name>
</wpt>
<wpt lat="54.770599763412925" lon="-123.421506824939641">
  <name>CARP3-278</name>
</wpt>
<wpt lat="54.76814763868154" lon="-123.406062609854644">
  <name>CARP3-279</name>
</wpt>
<wpt lat="54.815460483521811" lon="-123.347968397228058">
  <name>CARP3-280</name>
</wpt>
<wpt lat="54.778532648006497" lon="-123.387057149754426">
  <name>CARP3-281</name>
</wpt>
<wpt lat="54.759295035127693" lon="-123.376582903838454">
  <name>CARP3-282</name>
</wpt>
<wpt lat="54.785973472589177" lon="-123.36604177552428">
  <name>CARP3-283</name>
</wpt>
<wpt lat="54.729766132660536" lon="-123.305020646769307">
  <name>CARP3-284</name>
</wpt>
<wpt lat="54.77272380490227" lon="-123.402747422636452">
  <name>CARP3-285</name>
</wpt>
<wpt lat="54.787837197907464" lon="-123.316000881950728">
  <name>CARP3-286</name>
</wpt>
<wpt lat="54.796954205090174" lon="-123.37673892984607">
  <name>CARP3-287</name>
</wpt>
<wpt lat="54.718391550609979" lon="-123.37192406152819">
  <name>CARP3-288</name>
</wpt>
<wpt lat="54.809872926241852" lon="-123.345095369167097">
  <name>CARP3-289</name>
</wpt>
<wpt lat="54.776075761484698" lon="-123.420885707254044">
  <name>CARP3-290</name>
</wpt>
<wpt lat="54.786847109853319" lon="-123.312723691261738">
  <name>CARP3-291</name>
</wpt>
<wpt lat="54.729537024712265" lon="-123.373149109870809">
  <name>CARP3-292</name>
</wpt>
<wpt lat="54.815535838355878" lon="-123.350325068818648">
  <name>CARP3-293</name>
</wpt>
<wpt lat="54.788773462173225" lon="-123.338843230878993">
  <name>CARP3-294</name>
</wpt>
<wpt lat="54.807458549645474" lon="-123.351685092117606">
  <name>CARP3-295</name>
</wpt>
<wpt lat="54.772459895542575" lon="-123.338798239664456">
  <name>CARP3-296</name>
</wpt>
<wpt lat="54.788746944904773" lon="-123.370119351629569">
  <name>CARP3-297</name>
</wpt>
<wpt lat="54.757479282541787" lon="-123.390779190483585">
  <name>CARP3-298</name>
</wpt>
<wpt lat="54.777712594708106" lon="-123.404130867858782">
  <name>CARP3-299</name>
</wpt>
<wpt lat="54.793873875747984" lon="-123.33532717635758">
  <name>CARP3-300</name>
</wpt>
<wpt lat="54.797572575685884" lon="-123.370119944128803">
  <name>CARP3-301</name>
</wpt>
<wpt lat="54.786536943547283" lon="-123.388056036152804">
  <name>CARP3-302</name>
</wpt>
<wpt lat="54.786601018957164" lon="-123.404667791360183">
  <name>CARP3-303</name>
</wpt>
<wpt lat="54.80936204961354" lon="-123.324385256490956">
  <name>CARP3-304</name>
</wpt>
<wpt lat="54.787223987752753" lon="-123.403448724152895">
  <name>CARP3-305</name>
</wpt>
<wpt lat="54.778196294643458" lon="-123.243112771634529">
  <name>CARP3-306</name>
</wpt>
<wpt lat="54.800745581587904" lon="-123.361357012422985">
  <name>CARP3-307</name>
</wpt>
<wpt lat="54.789415352208209" lon="-123.399824304148055">
  <name>CARP3-308</name>
</wpt>
<wpt lat="54.723648211812083" lon="-123.375763182117922">
  <name>CARP3-309</name>
</wpt>
<wpt lat="54.784749340336724" lon="-123.418097313900887">
  <name>CARP3-310</name>
</wpt>
<wpt lat="54.809123029168958" lon="-123.352917787988673">
  <name>CARP3-311</name>
</wpt>
<wpt lat="54.78263250479192" lon="-123.427674451920808">
  <name>CARP3-312</name>
</wpt>
<wpt lat="54.75949247903371" lon="-123.357601670480335">
  <name>CARP3-313</name>
</wpt>
<wpt lat="54.711850908762877" lon="-123.371283193751609">
  <name>CARP3-314</name>
</wpt>
<wpt lat="54.792343399651486" lon="-123.32222021608581">
  <name>CARP3-315</name>
</wpt>
<wpt lat="54.790348791689681" lon="-123.338742332679985">
  <name>CARP3-316</name>
</wpt>
<wpt lat="54.72331125518042" lon="-123.341077927576421">
  <name>CARP3-317</name>
</wpt>
<wpt lat="54.725724452986263" lon="-123.328541689517621">
  <name>CARP3-318</name>
</wpt>
<wpt lat="54.778296835658573" lon="-123.247358759956953">
  <name>CARP3-319</name>
</wpt>
<wpt lat="54.761491310582628" lon="-123.283532360265198">
  <name>CARP3-320</name>
</wpt>
<wpt lat="54.793265741357338" lon="-123.337488389629044">
  <name>CARP3-321</name>
</wpt>
<wpt lat="54.728956998576898" lon="-123.317121485194406">
  <name>CARP3-322</name>
</wpt>
<wpt lat="54.807503876731033" lon="-123.346815517041904">
  <name>CARP3-323</name>
</wpt>
<wpt lat="54.794520603675309" lon="-123.372388952570361">
  <name>CARP3-324</name>
</wpt>
<wpt lat="54.777262895536879" lon="-123.393949250791863">
  <name>CARP3-325</name>
</wpt>
<wpt lat="54.76718016050588" lon="-123.2532085356507">
  <name>CARP3-326</name>
</wpt>
<wpt lat="54.772360398612228" lon="-123.401858260356363">
  <name>CARP3-327</name>
</wpt>
<wpt lat="54.805753157581492" lon="-123.323869054928053">
  <name>CARP3-328</name>
</wpt>
<wpt lat="54.787138152844591" lon="-123.413111767953382">
  <name>CARP3-329</name>
</wpt>
<wpt lat="54.804440525928662" lon="-123.327048819139691">
  <name>CARP3-330</name>
</wpt>
<wpt lat="54.755649979084993" lon="-123.356166827568984">
  <name>CARP3-331</name>
</wpt>
<wpt lat="54.782985722548176" lon="-123.324920970532531">
  <name>CARP3-332</name>
</wpt>
<wpt lat="54.779554890817693" lon="-123.321700718581852">
  <name>CARP3-333</name>
</wpt>
<wpt lat="54.713847675472934" lon="-123.382362904389979">
  <name>CARP3-334</name>
</wpt>
<wpt lat="54.803896792098882" lon="-123.352447279756262">
  <name>CARP3-335</name>
</wpt>
<wpt lat="54.752536788460937" lon="-123.363054227558251">
  <name>CARP3-336</name>
</wpt>
<wpt lat="54.755449166470875" lon="-123.409949139484596">
  <name>CARP3-337</name>
</wpt>
<wpt lat="54.759325376993914" lon="-123.401727796052">
  <name>CARP3-338</name>
</wpt>
<wpt lat="54.726197274938983" lon="-123.313896201244916">
  <name>CARP3-339</name>
</wpt>
<wpt lat="54.716255363291268" lon="-123.347948899758791">
  <name>CARP3-340</name>
</wpt>
<wpt lat="54.793863474595419" lon="-123.360622224941807">
  <name>CARP3-341</name>
</wpt>
<wpt lat="54.779699889778286" lon="-123.4046305766324">
  <name>CARP3-342</name>
</wpt>
<wpt lat="54.780794648292606" lon="-123.339247834074385">
  <name>CARP3-343</name>
</wpt>
<wpt lat="54.781945023500029" lon="-123.315077971894766">
  <name>CARP3-344</name>
</wpt>
<wpt lat="54.726215773283187" lon="-123.31241941214499">
  <name>CARP3-345</name>
</wpt>
<wpt lat="54.768037642336161" lon="-123.406354944598291">
  <name>CARP3-346</name>
</wpt>
<wpt lat="54.763036285041395" lon="-123.403312506961072">
  <name>CARP3-347</name>
</wpt>
<wpt lat="54.818927632106544" lon="-123.3455119551124">
  <name>CARP3-348</name>
</wpt>
<wpt lat="54.787028860100023" lon="-123.374442189946336">
  <name>CARP3-349</name>
</wpt>
<wpt lat="54.796592119646768" lon="-123.364432287995314">
  <name>CARP3-350</name>
</wpt>
<wpt lat="54.790689448551596" lon="-123.399695861430061">
  <name>CARP3-351</name>
</wpt>
<wpt lat="54.75456720571885" lon="-123.368459454056151">
  <name>CARP3-352</name>
</wpt>
<wpt lat="54.760270441541181" lon="-123.407281212689583">
  <name>CARP3-353</name>
</wpt>
<wpt lat="54.759631606124898" lon="-123.407734012634108">
  <name>CARP3-354</name>
</wpt>
<wpt lat="54.806370972718106" lon="-123.322021579756608">
  <name>CARP3-355</name>
</wpt>
<wpt lat="54.78195538616464" lon="-123.421329764640518">
  <name>CARP3-356</name>
</wpt>
<wpt lat="54.795444377188069" lon="-123.340240780383553">
  <name>CARP3-357</name>
</wpt>
<wpt lat="54.784454814749033" lon="-123.243215768917409">
  <name>CARP3-358</name>
</wpt>
<wpt lat="54.757874076602377" lon="-123.406282452098822">
  <name>CARP3-359</name>
</wpt>
<wpt lat="54.782644720149172" lon="-123.418913545083299">
  <name>CARP3-360</name>
</wpt>
<wpt lat="54.77452512271956" lon="-123.421626169556305">
  <name>CARP3-361</name>
</wpt>
<wpt lat="54.775207110070333" lon="-123.41157189934637">
  <name>CARP3-362</name>
</wpt>
<wpt lat="54.752282247230433" lon="-123.407460689370339">
  <name>CARP3-363</name>
</wpt>
<wpt lat="54.793769522929004" lon="-123.366049622594574">
  <name>CARP3-364</name>
</wpt>
<wpt lat="54.790286731666633" lon="-123.369175131643061">
  <name>CARP3-365</name>
</wpt>
<wpt lat="54.796954685011315" lon="-123.338597326107788">
  <name>CARP3-366</name>
</wpt>
<wpt lat="54.820217363582906" lon="-123.341717889100494">
  <name>CARP3-367</name>
</wpt>
<wpt lat="54.774118630576815" lon="-123.263002876405139">
  <name>CARP3-368</name>
</wpt>
<wpt lat="54.777079064201203" lon="-123.401105598958821">
  <name>CARP3-369</name>
</wpt>
<wpt lat="54.791668313685356" lon="-123.370161057799081">
  <name>CARP3-370</name>
</wpt>
<wpt lat="54.727349086403429" lon="-123.373596188259441">
  <name>CARP3-371</name>
</wpt>
<wpt lat="54.804451862352572" lon="-123.354013721472342">
  <name>CARP3-372</name>
</wpt>
<wpt lat="54.776492640011625" lon="-123.409232272392018">
  <name>CARP3-373</name>
</wpt>
<wpt lat="54.786571709189381" lon="-123.414302851824687">
  <name>CARP3-374</name>
</wpt>
<wpt lat="54.785867219556174" lon="-123.367307238221798">
  <name>CARP3-375</name>
</wpt>
<wpt lat="54.773299511153219" lon="-123.40014339263864">
  <name>CARP3-376</name>
</wpt>
<wpt lat="54.786329919007471" lon="-123.314582305068612">
  <name>CARP3-377</name>
</wpt>
<wpt lat="54.789045371364004" lon="-123.365847500847082">
  <name>CARP3-378</name>
</wpt>
<wpt lat="54.788753187480133" lon="-123.365935136646627">
  <name>CARP3-379</name>
</wpt>
<wpt lat="54.788430369999659" lon="-123.401645084647441">
  <name>CARP3-380</name>
</wpt>
<wpt lat="54.801317949691345" lon="-123.356298755967828">
  <name>CARP3-381</name>
</wpt>
<wpt lat="54.7725398159699" lon="-123.405895857160459">
  <name>CARP3-382</name>
</wpt>
<wpt lat="54.82142260829886" lon="-123.344268216175962">
  <name>CARP3-383</name>
</wpt>
<wpt lat="54.795058922871959" lon="-123.364165167857152">
  <name>CARP3-384</name>
</wpt>
<wpt lat="54.761623094547012" lon="-123.307460021931547">
  <name>CARP3-385</name>
</wpt>
<wpt lat="54.75393714390141" lon="-123.366270293943842">
  <name>CARP3-386</name>
</wpt>
<wpt lat="54.776100938907568" lon="-123.402176284317491">
  <name>CARP3-387</name>
</wpt>
<wpt lat="54.741531994377084" lon="-123.372695334096676">
  <name>CARP3-388</name>
</wpt>
<wpt lat="54.721637603831574" lon="-123.378052426421064">
  <name>CARP3-389</name>
</wpt>
<wpt lat="54.773803047250688" lon="-123.422405266615343">
  <name>CARP3-390</name>
</wpt>
<wpt lat="54.722207053174685" lon="-123.359995315554372">
  <name>CARP3-391</name>
</wpt>
<wpt lat="54.773600154520679" lon="-123.412380531004146">
  <name>CARP3-392</name>
</wpt>
<wpt lat="54.776577203720272" lon="-123.385468927696664">
  <name>CARP3-393</name>
</wpt>
<wpt lat="54.757750187589295" lon="-123.388995184057094">
  <name>CARP3-394</name>
</wpt>
<wpt lat="54.723170554243246" lon="-123.359565572406652">
  <name>CARP3-395</name>
</wpt>
<wpt lat="54.794242558108223" lon="-123.33208735184688">
  <name>CARP3-396</name>
</wpt>
<wpt lat="54.760902464576517" lon="-123.36531750486067">
  <name>CARP3-397</name>
</wpt>
<wpt lat="54.771195023787421" lon="-123.409560838157191">
  <name>CARP3-398</name>
</wpt>
<wpt lat="54.76971981475068" lon="-123.405157989733524">
  <name>CARP3-399</name>
</wpt>
<wpt lat="54.785074399480784" lon="-123.311805117214902">
  <name>CARP3-400</name>
</wpt>
<wpt lat="54.81942233412385" lon="-123.340993244383455">
  <name>CARP3-401</name>
</wpt>
<wpt lat="54.814091026235424" lon="-123.34833021685931">
  <name>CARP3-402</name>
</wpt>
<wpt lat="54.764199005803434" lon="-123.400869908498009">
  <name>CARP3-403</name>
</wpt>
<wpt lat="54.793935462087575" lon="-123.33863934830606">
  <name>CARP3-404</name>
</wpt>
<wpt lat="54.763654677273479" lon="-123.399606943661723">
  <name>CARP3-405</name>
</wpt>
<wpt lat="54.788862017386855" lon="-123.379963410683416">
  <name>CARP3-406</name>
</wpt>
<wpt lat="54.716369252192266" lon="-123.373736050853097">
  <name>CARP3-407</name>
</wpt>
<wpt lat="54.716694953220731" lon="-123.365579793767111">
  <name>CARP3-408</name>
</wpt>
<wpt lat="54.767243158442348" lon="-123.359665727749899">
  <name>CARP3-409</name>
</wpt>
<wpt lat="54.727789706111501" lon="-123.314920340625562">
  <name>CARP3-410</name>
</wpt>
<wpt lat="54.749101569752398" lon="-123.366935396557992">
  <name>CARP3-411</name>
</wpt>
<wpt lat="54.788650374324995" lon="-123.369154817233763">
  <name>CARP3-412</name>
</wpt>
<wpt lat="54.714890517258553" lon="-123.361217496752076">
  <name>CARP3-413</name>
</wpt>
<wpt lat="54.803419744637331" lon="-123.358393870042804">
  <name>CARP3-414</name>
</wpt>
<wpt lat="54.76509480939594" lon="-123.256237186215941">
  <name>CARP3-415</name>
</wpt>
<wpt lat="54.787923176866698" lon="-123.383392628666613">
  <name>CARP3-416</name>
</wpt>
<wpt lat="54.798949896452385" lon="-123.328242478063402">
  <name>CARP3-417</name>
</wpt>
<wpt lat="54.717146506672279" lon="-123.379030132853643">
  <name>CARP3-418</name>
</wpt>
<wpt lat="54.751494898278949" lon="-123.408697479874917">
  <name>CARP3-419</name>
</wpt>
<wpt lat="54.764274863316167" lon="-123.371110166910682">
  <name>CARP3-420</name>
</wpt>
<wpt lat="54.767076829734322" lon="-123.356476579208163">
  <name>CARP3-421</name>
</wpt>
<wpt lat="54.71625126762337" lon="-123.38177585059654">
  <name>CARP3-422</name>
</wpt>
<wpt lat="54.788697199955735" lon="-123.371896345823316">
  <name>CARP3-423</name>
</wpt>
<wpt lat="54.778906643090224" lon="-123.425298312310886">
  <name>CARP3-424</name>
</wpt>
<wpt lat="54.759988129952248" lon="-123.357191130871499">
  <name>CARP3-425</name>
</wpt>
<wpt lat="54.769856114213205" lon="-123.337288868401799">
  <name>CARP3-426</name>
</wpt>
<wpt lat="54.763093702717036" lon="-123.319918152619877">
  <name>CARP3-427</name>
</wpt>
<wpt lat="54.715480450801266" lon="-123.377201162693396">
  <name>CARP3-428</name>
</wpt>
<wpt lat="54.790076107059811" lon="-123.334523612143528">
  <name>CARP3-429</name>
</wpt>
<wpt lat="54.785730431477127" lon="-123.374634510645095">
  <name>CARP3-430</name>
</wpt>
<wpt lat="54.763474130491645" lon="-123.365477335684787">
  <name>CARP3-431</name>
</wpt>
<wpt lat="54.77927490351383" lon="-123.246542376886438">
  <name>CARP3-432</name>
</wpt>
<wpt lat="54.782882510148745" lon="-123.371648498407296">
  <name>CARP3-433</name>
</wpt>
</gpx>
