<?xml version="1.0" encoding="utf-8" ?>
<kml xmlns="http://www.opengis.net/kml/2.2">
<Document id="root_doc">
<Folder><name>carp_occ7_trapping_points</name>
  <Placemark>
	<name>CARP7-1</name>
      <Point><coordinates>-123.264163157143,54.7732887832444</coordinates></Point>
  </Placemark>
  <Placemark>
	<name>CARP7-2</name>
      <Point><coordinates>-123.330866802254,54.7881571949876</coordinates></Point>
  </Placemark>
  <Placemark>
	<name>CARP7-3</name>
      <Point><coordinates>-123.368490373545,54.8021127079689</coordinates></Point>
  </Placemark>
  <Placemark>
	<name>CARP7-4</name>
      <Point><coordinates>-123.318455617327,54.7832038340182</coordinates></Point>
  </Placemark>
  <Placemark>
	<name>CARP7-5</name>
      <Point><coordinates>-123.340322185445,54.7954131672311</coordinates></Point>
  </Placemark>
  <Placemark>
	<name>CARP7-6</name>
      <Point><coordinates>-123.370320896106,54.7442693843831</coordinates></Point>
  </Placemark>
  <Placemark>
	<name>CARP7-7</name>
      <Point><coordinates>-123.342546227353,54.7781493753391</coordinates></Point>
  </Placemark>
  <Placemark>
	<name>CARP7-8</name>
      <Point><coordinates>-123.380133157249,54.71246711277</coordinates></Point>
  </Placemark>
  <Placemark>
	<name>CARP7-9</name>
      <Point><coordinates>-123.345825122768,54.7767848943264</coordinates></Point>
  </Placemark>
  <Placemark>
	<name>CARP7-10</name>
      <Point><coordinates>-123.311862700963,54.7799987681803</coordinates></Point>
  </Placemark>
  <Placemark>
	<name>CARP7-11</name>
      <Point><coordinates>-123.314954407581,54.779862751538</coordinates></Point>
  </Placemark>
  <Placemark>
	<name>CARP7-12</name>
      <Point><coordinates>-123.364002793575,54.7627815866361</coordinates></Point>
  </Placemark>
  <Placemark>
	<name>CARP7-13</name>
      <Point><coordinates>-123.351626878631,54.8109802608844</coordinates></Point>
  </Placemark>
  <Placemark>
	<name>CARP7-14</name>
      <Point><coordinates>-123.348385599696,54.8093993323483</coordinates></Point>
  </Placemark>
  <Placemark>
	<name>CARP7-15</name>
      <Point><coordinates>-123.365559241833,54.7625073228555</coordinates></Point>
  </Placemark>
  <Placemark>
	<name>CARP7-16</name>
      <Point><coordinates>-123.369908878225,54.7856719441269</coordinates></Point>
  </Placemark>
  <Placemark>
	<name>CARP7-17</name>
      <Point><coordinates>-123.394845717091,54.7630604614574</coordinates></Point>
  </Placemark>
  <Placemark>
	<name>CARP7-18</name>
      <Point><coordinates>-123.339362462152,54.7723920956714</coordinates></Point>
  </Placemark>
  <Placemark>
	<name>CARP7-19</name>
      <Point><coordinates>-123.373506946848,54.728066957423</coordinates></Point>
  </Placemark>
  <Placemark>
	<name>CARP7-20</name>
      <Point><coordinates>-123.326886299927,54.7982856770256</coordinates></Point>
  </Placemark>
  <Placemark>
	<name>CARP7-21</name>
      <Point><coordinates>-123.37228698004,54.7626811740035</coordinates></Point>
  </Placemark>
  <Placemark>
	<name>CARP7-22</name>
      <Point><coordinates>-123.360677880442,54.7629968452816</coordinates></Point>
  </Placemark>
  <Placemark>
	<name>CARP7-23</name>
      <Point><coordinates>-123.371538550198,54.7144236452999</coordinates></Point>
  </Placemark>
  <Placemark>
	<name>CARP7-24</name>
      <Point><coordinates>-123.383938832789,54.778304403207</coordinates></Point>
  </Placemark>
  <Placemark>
	<name>CARP7-25</name>
      <Point><coordinates>-123.322629239571,54.8057790997055</coordinates></Point>
  </Placemark>
  <Placemark>
	<name>CARP7-26</name>
      <Point><coordinates>-123.346529601507,54.8196747791961</coordinates></Point>
  </Placemark>
  <Placemark>
	<name>CARP7-27</name>
      <Point><coordinates>-123.329817611621,54.7253908351162</coordinates></Point>
  </Placemark>
  <Placemark>
	<name>CARP7-28</name>
      <Point><coordinates>-123.380186900561,54.7171299465461</coordinates></Point>
  </Placemark>
  <Placemark>
	<name>CARP7-29</name>
      <Point><coordinates>-123.360161185232,54.8066881855077</coordinates></Point>
  </Placemark>
  <Placemark>
	<name>CARP7-30</name>
      <Point><coordinates>-123.380312612838,54.7151512937767</coordinates></Point>
  </Placemark>
  <Placemark>
	<name>CARP7-31</name>
      <Point><coordinates>-123.324009667204,54.8049416617466</coordinates></Point>
  </Placemark>
  <Placemark>
	<name>CARP7-32</name>
      <Point><coordinates>-123.369700351491,54.7974695760498</coordinates></Point>
  </Placemark>
  <Placemark>
	<name>CARP7-33</name>
      <Point><coordinates>-123.264683924801,54.7593453011652</coordinates></Point>
  </Placemark>
  <Placemark>
	<name>CARP7-34</name>
      <Point><coordinates>-123.361692215624,54.7584896532136</coordinates></Point>
  </Placemark>
  <Placemark>
	<name>CARP7-35</name>
      <Point><coordinates>-123.398049392585,54.7614631371753</coordinates></Point>
  </Placemark>
  <Placemark>
	<name>CARP7-36</name>
      <Point><coordinates>-123.339524055027,54.8065152222307</coordinates></Point>
  </Placemark>
  <Placemark>
	<name>CARP7-37</name>
      <Point><coordinates>-123.389477340194,54.7578005668636</coordinates></Point>
  </Placemark>
  <Placemark>
	<name>CARP7-38</name>
      <Point><coordinates>-123.363985741543,54.758050529504</coordinates></Point>
  </Placemark>
  <Placemark>
	<name>CARP7-39</name>
      <Point><coordinates>-123.377021610966,54.7935084338356</coordinates></Point>
  </Placemark>
  <Placemark>
	<name>CARP7-40</name>
      <Point><coordinates>-123.35584183706,54.7575990831125</coordinates></Point>
  </Placemark>
  <Placemark>
	<name>CARP7-41</name>
      <Point><coordinates>-123.273765197765,54.7642473094269</coordinates></Point>
  </Placemark>
  <Placemark>
	<name>CARP7-42</name>
      <Point><coordinates>-123.37150706114,54.7156718620596</coordinates></Point>
  </Placemark>
  <Placemark>
	<name>CARP7-43</name>
      <Point><coordinates>-123.366909671152,54.7203559954667</coordinates></Point>
  </Placemark>
  <Placemark>
	<name>CARP7-44</name>
      <Point><coordinates>-123.416141039374,54.7845682178251</coordinates></Point>
  </Placemark>
  <Placemark>
	<name>CARP7-45</name>
      <Point><coordinates>-123.355585394685,54.802834559265</coordinates></Point>
  </Placemark>
  <Placemark>
	<name>CARP7-46</name>
      <Point><coordinates>-123.387836485695,54.7815996655475</coordinates></Point>
  </Placemark>
  <Placemark>
	<name>CARP7-47</name>
      <Point><coordinates>-123.355715434482,54.754440686438</coordinates></Point>
  </Placemark>
  <Placemark>
	<name>CARP7-48</name>
      <Point><coordinates>-123.374162330418,54.7843123621271</coordinates></Point>
  </Placemark>
  <Placemark>
	<name>CARP7-49</name>
      <Point><coordinates>-123.282664788412,54.7388816318443</coordinates></Point>
  </Placemark>
  <Placemark>
	<name>CARP7-50</name>
      <Point><coordinates>-123.339736765707,54.7242879307995</coordinates></Point>
  </Placemark>
  <Placemark>
	<name>CARP7-51</name>
      <Point><coordinates>-123.400682187414,54.7794558949111</coordinates></Point>
  </Placemark>
  <Placemark>
	<name>CARP7-52</name>
      <Point><coordinates>-123.337597490792,54.7934153646401</coordinates></Point>
  </Placemark>
  <Placemark>
	<name>CARP7-53</name>
      <Point><coordinates>-123.356900531223,54.7635028989257</coordinates></Point>
  </Placemark>
  <Placemark>
	<name>CARP7-54</name>
      <Point><coordinates>-123.374509336956,54.7973416129076</coordinates></Point>
  </Placemark>
  <Placemark>
	<name>CARP7-55</name>
      <Point><coordinates>-123.402484295654,54.7634093981092</coordinates></Point>
  </Placemark>
  <Placemark>
	<name>CARP7-56</name>
      <Point><coordinates>-123.366522491416,54.8007584980425</coordinates></Point>
  </Placemark>
  <Placemark>
	<name>CARP7-57</name>
      <Point><coordinates>-123.376315501016,54.7846860395654</coordinates></Point>
  </Placemark>
  <Placemark>
	<name>CARP7-58</name>
      <Point><coordinates>-123.338702896912,54.7997087542997</coordinates></Point>
  </Placemark>
  <Placemark>
	<name>CARP7-59</name>
      <Point><coordinates>-123.357138843821,54.7210420840911</coordinates></Point>
  </Placemark>
  <Placemark>
	<name>CARP7-60</name>
      <Point><coordinates>-123.39377677291,54.7582353851276</coordinates></Point>
  </Placemark>
  <Placemark>
	<name>CARP7-61</name>
      <Point><coordinates>-123.365692244432,54.7951254890807</coordinates></Point>
  </Placemark>
  <Placemark>
	<name>CARP7-62</name>
      <Point><coordinates>-123.329803153414,54.7695351808988</coordinates></Point>
  </Placemark>
  <Placemark>
	<name>CARP7-63</name>
      <Point><coordinates>-123.329067857451,54.7699021766825</coordinates></Point>
  </Placemark>
  <Placemark>
	<name>CARP7-64</name>
      <Point><coordinates>-123.258341012349,54.7780753277303</coordinates></Point>
  </Placemark>
  <Placemark>
	<name>CARP7-65</name>
      <Point><coordinates>-123.385090752155,54.78449086927</coordinates></Point>
  </Placemark>
  <Placemark>
	<name>CARP7-66</name>
      <Point><coordinates>-123.370552398201,54.7179012836178</coordinates></Point>
  </Placemark>
  <Placemark>
	<name>CARP7-67</name>
      <Point><coordinates>-123.36961490842,54.7991062068325</coordinates></Point>
  </Placemark>
  <Placemark>
	<name>CARP7-68</name>
      <Point><coordinates>-123.312419802258,54.7848243154984</coordinates></Point>
  </Placemark>
  <Placemark>
	<name>CARP7-69</name>
      <Point><coordinates>-123.373191949447,54.7595192522625</coordinates></Point>
  </Placemark>
  <Placemark>
	<name>CARP7-70</name>
      <Point><coordinates>-123.33167174602,54.7999690470165</coordinates></Point>
  </Placemark>
  <Placemark>
	<name>CARP7-71</name>
      <Point><coordinates>-123.401006414807,54.7880106025928</coordinates></Point>
  </Placemark>
  <Placemark>
	<name>CARP7-72</name>
      <Point><coordinates>-123.386875791648,54.7905959373118</coordinates></Point>
  </Placemark>
  <Placemark>
	<name>CARP7-73</name>
      <Point><coordinates>-123.37696070397,54.7872022218276</coordinates></Point>
  </Placemark>
  <Placemark>
	<name>CARP7-74</name>
      <Point><coordinates>-123.288056533627,54.7621250761054</coordinates></Point>
  </Placemark>
  <Placemark>
	<name>CARP7-75</name>
      <Point><coordinates>-123.312252675292,54.7846063982403</coordinates></Point>
  </Placemark>
  <Placemark>
	<name>CARP7-76</name>
      <Point><coordinates>-123.408361059688,54.7518453100553</coordinates></Point>
  </Placemark>
  <Placemark>
	<name>CARP7-77</name>
      <Point><coordinates>-123.406119632523,54.7873355703817</coordinates></Point>
  </Placemark>
  <Placemark>
	<name>CARP7-78</name>
      <Point><coordinates>-123.247545004169,54.7778954562206</coordinates></Point>
  </Placemark>
  <Placemark>
	<name>CARP7-79</name>
      <Point><coordinates>-123.413781276591,54.7835785265072</coordinates></Point>
  </Placemark>
  <Placemark>
	<name>CARP7-80</name>
      <Point><coordinates>-123.382552684737,54.7780060638541</coordinates></Point>
  </Placemark>
  <Placemark>
	<name>CARP7-81</name>
      <Point><coordinates>-123.33540692881,54.7690820716149</coordinates></Point>
  </Placemark>
  <Placemark>
	<name>CARP7-82</name>
      <Point><coordinates>-123.355759046626,54.763051937</coordinates></Point>
  </Placemark>
  <Placemark>
	<name>CARP7-83</name>
      <Point><coordinates>-123.39784299771,54.761140070046</coordinates></Point>
  </Placemark>
  <Placemark>
	<name>CARP7-84</name>
      <Point><coordinates>-123.276931318917,54.7562275876493</coordinates></Point>
  </Placemark>
  <Placemark>
	<name>CARP7-85</name>
      <Point><coordinates>-123.373523180627,54.7231347738033</coordinates></Point>
  </Placemark>
  <Placemark>
	<name>CARP7-86</name>
      <Point><coordinates>-123.276668827799,54.7458247005773</coordinates></Point>
  </Placemark>
  <Placemark>
	<name>CARP7-87</name>
      <Point><coordinates>-123.273731328077,54.7652897088862</coordinates></Point>
  </Placemark>
  <Placemark>
	<name>CARP7-88</name>
      <Point><coordinates>-123.368551139724,54.7625968126987</coordinates></Point>
  </Placemark>
  <Placemark>
	<name>CARP7-89</name>
      <Point><coordinates>-123.355835517097,54.7664565751229</coordinates></Point>
  </Placemark>
  <Placemark>
	<name>CARP7-90</name>
      <Point><coordinates>-123.35053363126,54.8170092594419</coordinates></Point>
  </Placemark>
  <Placemark>
	<name>CARP7-91</name>
      <Point><coordinates>-123.323606780943,54.8074918747158</coordinates></Point>
  </Placemark>
  <Placemark>
	<name>CARP7-92</name>
      <Point><coordinates>-123.360977260194,54.7996358057396</coordinates></Point>
  </Placemark>
  <Placemark>
	<name>CARP7-93</name>
      <Point><coordinates>-123.407523305118,54.7736254206119</coordinates></Point>
  </Placemark>
  <Placemark>
	<name>CARP7-94</name>
      <Point><coordinates>-123.262036150725,54.7605158872003</coordinates></Point>
  </Placemark>
  <Placemark>
	<name>CARP7-95</name>
      <Point><coordinates>-123.387679910466,54.7740844576851</coordinates></Point>
  </Placemark>
  <Placemark>
	<name>CARP7-96</name>
      <Point><coordinates>-123.397421925443,54.7775653830067</coordinates></Point>
  </Placemark>
  <Placemark>
	<name>CARP7-97</name>
      <Point><coordinates>-123.367912048613,54.7156215574068</coordinates></Point>
  </Placemark>
  <Placemark>
	<name>CARP7-98</name>
      <Point><coordinates>-123.425987587318,54.7809553185235</coordinates></Point>
  </Placemark>
  <Placemark>
	<name>CARP7-99</name>
      <Point><coordinates>-123.267455299073,54.766859622204</coordinates></Point>
  </Placemark>
  <Placemark>
	<name>CARP7-100</name>
      <Point><coordinates>-123.359300709542,54.7529911713358</coordinates></Point>
  </Placemark>
  <Placemark>
	<name>CARP7-101</name>
      <Point><coordinates>-123.361632220657,54.7181283317262</coordinates></Point>
  </Placemark>
  <Placemark>
	<name>CARP7-102</name>
      <Point><coordinates>-123.362009869995,54.7701545140339</coordinates></Point>
  </Placemark>
  <Placemark>
	<name>CARP7-103</name>
      <Point><coordinates>-123.372896336616,54.7597501924959</coordinates></Point>
  </Placemark>
  <Placemark>
	<name>CARP7-104</name>
      <Point><coordinates>-123.41056020048,54.7634155253992</coordinates></Point>
  </Placemark>
  <Placemark>
	<name>CARP7-105</name>
      <Point><coordinates>-123.276203244005,54.769467588029</coordinates></Point>
  </Placemark>
  <Placemark>
	<name>CARP7-106</name>
      <Point><coordinates>-123.35772664349,54.8055910520039</coordinates></Point>
  </Placemark>
  <Placemark>
	<name>CARP7-107</name>
      <Point><coordinates>-123.312516275967,54.7848579195127</coordinates></Point>
  </Placemark>
  <Placemark>
	<name>CARP7-108</name>
      <Point><coordinates>-123.373640629465,54.7252036270504</coordinates></Point>
  </Placemark>
  <Placemark>
	<name>CARP7-109</name>
      <Point><coordinates>-123.288611946736,54.7339189228642</coordinates></Point>
  </Placemark>
  <Placemark>
	<name>CARP7-110</name>
      <Point><coordinates>-123.340706618856,54.7706160876646</coordinates></Point>
  </Placemark>
  <Placemark>
	<name>CARP7-111</name>
      <Point><coordinates>-123.408069452484,54.7531916485059</coordinates></Point>
  </Placemark>
  <Placemark>
	<name>CARP7-112</name>
      <Point><coordinates>-123.400582393959,54.7748504283181</coordinates></Point>
  </Placemark>
  <Placemark>
	<name>CARP7-113</name>
      <Point><coordinates>-123.376932522405,54.7839383880635</coordinates></Point>
  </Placemark>
  <Placemark>
	<name>CARP7-114</name>
      <Point><coordinates>-123.331951188173,54.7810765591128</coordinates></Point>
  </Placemark>
  <Placemark>
	<name>CARP7-115</name>
      <Point><coordinates>-123.310814089045,54.7275607410923</coordinates></Point>
  </Placemark>
  <Placemark>
	<name>CARP7-116</name>
      <Point><coordinates>-123.376799188987,54.7440841481493</coordinates></Point>
  </Placemark>
  <Placemark>
	<name>CARP7-117</name>
      <Point><coordinates>-123.367237303927,54.7609280318401</coordinates></Point>
  </Placemark>
  <Placemark>
	<name>CARP7-118</name>
      <Point><coordinates>-123.293042003871,54.7315328081368</coordinates></Point>
  </Placemark>
  <Placemark>
	<name>CARP7-119</name>
      <Point><coordinates>-123.338625631293,54.7960568532783</coordinates></Point>
  </Placemark>
  <Placemark>
	<name>CARP7-120</name>
      <Point><coordinates>-123.409844462987,54.7598534817717</coordinates></Point>
  </Placemark>
  <Placemark>
	<name>CARP7-121</name>
      <Point><coordinates>-123.295198924105,54.7321668976986</coordinates></Point>
  </Placemark>
  <Placemark>
	<name>CARP7-122</name>
      <Point><coordinates>-123.315875906053,54.787682669722</coordinates></Point>
  </Placemark>
  <Placemark>
	<name>CARP7-123</name>
      <Point><coordinates>-123.425825773328,54.775874257878</coordinates></Point>
  </Placemark>
  <Placemark>
	<name>CARP7-124</name>
      <Point><coordinates>-123.397752466847,54.7798660563951</coordinates></Point>
  </Placemark>
  <Placemark>
	<name>CARP7-125</name>
      <Point><coordinates>-123.369530676296,54.7594828844739</coordinates></Point>
  </Placemark>
  <Placemark>
	<name>CARP7-126</name>
      <Point><coordinates>-123.338059133897,54.7995776833277</coordinates></Point>
  </Placemark>
  <Placemark>
	<name>CARP7-127</name>
      <Point><coordinates>-123.337221784055,54.7973459222907</coordinates></Point>
  </Placemark>
  <Placemark>
	<name>CARP7-128</name>
      <Point><coordinates>-123.333558980909,54.7805041907175</coordinates></Point>
  </Placemark>
  <Placemark>
	<name>CARP7-129</name>
      <Point><coordinates>-123.257966837315,54.7790428554047</coordinates></Point>
  </Placemark>
  <Placemark>
	<name>CARP7-130</name>
      <Point><coordinates>-123.277301261301,54.7555187566986</coordinates></Point>
  </Placemark>
  <Placemark>
	<name>CARP7-131</name>
      <Point><coordinates>-123.406052210968,54.7694756099224</coordinates></Point>
  </Placemark>
  <Placemark>
	<name>CARP7-132</name>
      <Point><coordinates>-123.310707512043,54.7271888032112</coordinates></Point>
  </Placemark>
  <Placemark>
	<name>CARP7-133</name>
      <Point><coordinates>-123.381480987798,54.7931159500769</coordinates></Point>
  </Placemark>
  <Placemark>
	<name>CARP7-134</name>
      <Point><coordinates>-123.27756317064,54.7551545250402</coordinates></Point>
  </Placemark>
  <Placemark>
	<name>CARP7-135</name>
      <Point><coordinates>-123.391890109516,54.7874796598964</coordinates></Point>
  </Placemark>
  <Placemark>
	<name>CARP7-136</name>
      <Point><coordinates>-123.376908023656,54.727241663308</coordinates></Point>
  </Placemark>
  <Placemark>
	<name>CARP7-137</name>
      <Point><coordinates>-123.338136049617,54.7947989360702</coordinates></Point>
  </Placemark>
  <Placemark>
	<name>CARP7-138</name>
      <Point><coordinates>-123.353509350903,54.7572993824346</coordinates></Point>
  </Placemark>
  <Placemark>
	<name>CARP7-139</name>
      <Point><coordinates>-123.410629189008,54.7695146037684</coordinates></Point>
  </Placemark>
  <Placemark>
	<name>CARP7-140</name>
      <Point><coordinates>-123.377390574676,54.7173528989864</coordinates></Point>
  </Placemark>
  <Placemark>
	<name>CARP7-141</name>
      <Point><coordinates>-123.40732879681,54.7877426020095</coordinates></Point>
  </Placemark>
  <Placemark>
	<name>CARP7-142</name>
      <Point><coordinates>-123.380730131291,54.7291750521563</coordinates></Point>
  </Placemark>
  <Placemark>
	<name>CARP7-143</name>
      <Point><coordinates>-123.338311274088,54.8102056419862</coordinates></Point>
  </Placemark>
  <Placemark>
	<name>CARP7-144</name>
      <Point><coordinates>-123.340317287875,54.8057215776579</coordinates></Point>
  </Placemark>
  <Placemark>
	<name>CARP7-145</name>
      <Point><coordinates>-123.361848265349,54.7694592078508</coordinates></Point>
  </Placemark>
  <Placemark>
	<name>CARP7-146</name>
      <Point><coordinates>-123.374675890152,54.7912438861208</coordinates></Point>
  </Placemark>
  <Placemark>
	<name>CARP7-147</name>
      <Point><coordinates>-123.415864269506,54.7697094741686</coordinates></Point>
  </Placemark>
  <Placemark>
	<name>CARP7-148</name>
      <Point><coordinates>-123.375739114353,54.7903523076843</coordinates></Point>
  </Placemark>
  <Placemark>
	<name>CARP7-149</name>
      <Point><coordinates>-123.314963341454,54.727102279295</coordinates></Point>
  </Placemark>
  <Placemark>
	<name>CARP7-150</name>
      <Point><coordinates>-123.368807543065,54.7895175795567</coordinates></Point>
  </Placemark>
  <Placemark>
	<name>CARP7-151</name>
      <Point><coordinates>-123.34816853721,54.8040856090739</coordinates></Point>
  </Placemark>
  <Placemark>
	<name>CARP7-152</name>
      <Point><coordinates>-123.40753376251,54.7557525038183</coordinates></Point>
  </Placemark>
  <Placemark>
	<name>CARP7-153</name>
      <Point><coordinates>-123.408647748798,54.759703158066</coordinates></Point>
  </Placemark>
  <Placemark>
	<name>CARP7-154</name>
      <Point><coordinates>-123.398214066499,54.758532517809</coordinates></Point>
  </Placemark>
  <Placemark>
	<name>CARP7-155</name>
      <Point><coordinates>-123.311368587369,54.7854369413562</coordinates></Point>
  </Placemark>
  <Placemark>
	<name>CARP7-156</name>
      <Point><coordinates>-123.374165845812,54.7951980492183</coordinates></Point>
  </Placemark>
  <Placemark>
	<name>CARP7-157</name>
      <Point><coordinates>-123.381363434551,54.786661295808</coordinates></Point>
  </Placemark>
  <Placemark>
	<name>CARP7-158</name>
      <Point><coordinates>-123.327405375899,54.7992366649266</coordinates></Point>
  </Placemark>
  <Placemark>
	<name>CARP7-159</name>
      <Point><coordinates>-123.334022553356,54.7907649707562</coordinates></Point>
  </Placemark>
  <Placemark>
	<name>CARP7-160</name>
      <Point><coordinates>-123.267256197409,54.7708012481544</coordinates></Point>
  </Placemark>
  <Placemark>
	<name>CARP7-161</name>
      <Point><coordinates>-123.371136280023,54.7203219688664</coordinates></Point>
  </Placemark>
  <Placemark>
	<name>CARP7-162</name>
      <Point><coordinates>-123.298946150077,54.730231098425</coordinates></Point>
  </Placemark>
  <Placemark>
	<name>CARP7-163</name>
      <Point><coordinates>-123.35164413563,54.809240798774</coordinates></Point>
  </Placemark>
  <Placemark>
	<name>CARP7-164</name>
      <Point><coordinates>-123.350074768613,54.808554818067</coordinates></Point>
  </Placemark>
  <Placemark>
	<name>CARP7-165</name>
      <Point><coordinates>-123.345621472162,54.7240606905485</coordinates></Point>
  </Placemark>
  <Placemark>
	<name>CARP7-166</name>
      <Point><coordinates>-123.312982801195,54.7876618658721</coordinates></Point>
  </Placemark>
  <Placemark>
	<name>CARP7-167</name>
      <Point><coordinates>-123.327075011369,54.7271715427531</coordinates></Point>
  </Placemark>
  <Placemark>
	<name>CARP7-168</name>
      <Point><coordinates>-123.364036668121,54.7508759108774</coordinates></Point>
  </Placemark>
  <Placemark>
	<name>CARP7-169</name>
      <Point><coordinates>-123.351363954954,54.8125145951511</coordinates></Point>
  </Placemark>
  <Placemark>
	<name>CARP7-170</name>
      <Point><coordinates>-123.312259344277,54.7291338044737</coordinates></Point>
  </Placemark>
  <Placemark>
	<name>CARP7-171</name>
      <Point><coordinates>-123.404211495364,54.7800613909692</coordinates></Point>
  </Placemark>
  <Placemark>
	<name>CARP7-172</name>
      <Point><coordinates>-123.401317809778,54.772125054906</coordinates></Point>
  </Placemark>
  <Placemark>
	<name>CARP7-173</name>
      <Point><coordinates>-123.348706533424,54.8130735832644</coordinates></Point>
  </Placemark>
  <Placemark>
	<name>CARP7-174</name>
      <Point><coordinates>-123.388063020161,54.757988985721</coordinates></Point>
  </Placemark>
  <Placemark>
	<name>CARP7-175</name>
      <Point><coordinates>-123.309439594719,54.780631739847</coordinates></Point>
  </Placemark>
  <Placemark>
	<name>CARP7-176</name>
      <Point><coordinates>-123.378695366282,54.7289961167167</coordinates></Point>
  </Placemark>
  <Placemark>
	<name>CARP7-177</name>
      <Point><coordinates>-123.318507318486,54.7808611086578</coordinates></Point>
  </Placemark>
  <Placemark>
	<name>CARP7-178</name>
      <Point><coordinates>-123.417786754467,54.7723288888323</coordinates></Point>
  </Placemark>
  <Placemark>
	<name>CARP7-179</name>
      <Point><coordinates>-123.342082067439,54.7893585826411</coordinates></Point>
  </Placemark>
  <Placemark>
	<name>CARP7-180</name>
      <Point><coordinates>-123.320067510473,54.7639442788902</coordinates></Point>
  </Placemark>
  <Placemark>
	<name>CARP7-181</name>
      <Point><coordinates>-123.370249085199,54.7186910090658</coordinates></Point>
  </Placemark>
  <Placemark>
	<name>CARP7-182</name>
      <Point><coordinates>-123.37960112296,54.7121073659999</coordinates></Point>
  </Placemark>
  <Placemark>
	<name>CARP7-183</name>
      <Point><coordinates>-123.386662669675,54.7826205463572</coordinates></Point>
  </Placemark>
  <Placemark>
	<name>CARP7-184</name>
      <Point><coordinates>-123.356579526299,54.7623905586188</coordinates></Point>
  </Placemark>
  <Placemark>
	<name>CARP7-185</name>
      <Point><coordinates>-123.384368931042,54.7580548726433</coordinates></Point>
  </Placemark>
  <Placemark>
	<name>CARP7-186</name>
      <Point><coordinates>-123.372551746853,54.7649679715915</coordinates></Point>
  </Placemark>
  <Placemark>
	<name>CARP7-187</name>
      <Point><coordinates>-123.326578433564,54.7931464423909</coordinates></Point>
  </Placemark>
  <Placemark>
	<name>CARP7-188</name>
      <Point><coordinates>-123.404586062437,54.7751625666983</coordinates></Point>
  </Placemark>
  <Placemark>
	<name>CARP7-189</name>
      <Point><coordinates>-123.291277656648,54.7336879539204</coordinates></Point>
  </Placemark>
  <Placemark>
	<name>CARP7-190</name>
      <Point><coordinates>-123.243594934948,54.7836539150437</coordinates></Point>
  </Placemark>
  <Placemark>
	<name>CARP7-191</name>
      <Point><coordinates>-123.375863540285,54.7936369154286</coordinates></Point>
  </Placemark>
  <Placemark>
	<name>CARP7-192</name>
      <Point><coordinates>-123.392548915534,54.7795568516197</coordinates></Point>
  </Placemark>
  <Placemark>
	<name>CARP7-193</name>
      <Point><coordinates>-123.339993638847,54.8090012903684</coordinates></Point>
  </Placemark>
  <Placemark>
	<name>CARP7-194</name>
      <Point><coordinates>-123.356591988475,54.7211582960028</coordinates></Point>
  </Placemark>
  <Placemark>
	<name>CARP7-195</name>
      <Point><coordinates>-123.373902780749,54.7454162060653</coordinates></Point>
  </Placemark>
  <Placemark>
	<name>CARP7-196</name>
      <Point><coordinates>-123.384204854397,54.7594444298403</coordinates></Point>
  </Placemark>
  <Placemark>
	<name>CARP7-197</name>
      <Point><coordinates>-123.323261965077,54.8048199664383</coordinates></Point>
  </Placemark>
  <Placemark>
	<name>CARP7-198</name>
      <Point><coordinates>-123.393884474917,54.7534228222022</coordinates></Point>
  </Placemark>
  <Placemark>
	<name>CARP7-199</name>
      <Point><coordinates>-123.323305331689,54.7957105823999</coordinates></Point>
  </Placemark>
  <Placemark>
	<name>CARP7-200</name>
      <Point><coordinates>-123.368430617635,54.8018954488057</coordinates></Point>
  </Placemark>
  <Placemark>
	<name>CARP7-201</name>
      <Point><coordinates>-123.417752885172,54.7832018084211</coordinates></Point>
  </Placemark>
  <Placemark>
	<name>CARP7-202</name>
      <Point><coordinates>-123.376189151649,54.7150393911729</coordinates></Point>
  </Placemark>
  <Placemark>
	<name>CARP7-203</name>
      <Point><coordinates>-123.406842848766,54.7752984769503</coordinates></Point>
  </Placemark>
  <Placemark>
	<name>CARP7-204</name>
      <Point><coordinates>-123.295159970344,54.7628175029104</coordinates></Point>
  </Placemark>
  <Placemark>
	<name>CARP7-205</name>
      <Point><coordinates>-123.400489370442,54.7701083011827</coordinates></Point>
  </Placemark>
  <Placemark>
	<name>CARP7-206</name>
      <Point><coordinates>-123.382068893189,54.7925727816608</coordinates></Point>
  </Placemark>
  <Placemark>
	<name>CARP7-207</name>
      <Point><coordinates>-123.33466887952,54.7815563769718</coordinates></Point>
  </Placemark>
  <Placemark>
	<name>CARP7-208</name>
      <Point><coordinates>-123.35829281291,54.7703481328978</coordinates></Point>
  </Placemark>
  <Placemark>
	<name>CARP7-209</name>
      <Point><coordinates>-123.365154033711,54.7984659386985</coordinates></Point>
  </Placemark>
  <Placemark>
	<name>CARP7-210</name>
      <Point><coordinates>-123.409130063256,54.7550732087578</coordinates></Point>
  </Placemark>
  <Placemark>
	<name>CARP7-211</name>
      <Point><coordinates>-123.337348866913,54.7703295634156</coordinates></Point>
  </Placemark>
  <Placemark>
	<name>CARP7-212</name>
      <Point><coordinates>-123.369651235099,54.7967589363856</coordinates></Point>
  </Placemark>
  <Placemark>
	<name>CARP7-213</name>
      <Point><coordinates>-123.312673792062,54.7854253433273</coordinates></Point>
  </Placemark>
  <Placemark>
	<name>CARP7-214</name>
      <Point><coordinates>-123.347380265734,54.8138235456435</coordinates></Point>
  </Placemark>
  <Placemark>
	<name>CARP7-215</name>
      <Point><coordinates>-123.394276934678,54.7773764008784</coordinates></Point>
  </Placemark>
  <Placemark>
	<name>CARP7-216</name>
      <Point><coordinates>-123.274749557999,54.7692001664812</coordinates></Point>
  </Placemark>
  <Placemark>
	<name>CARP7-217</name>
      <Point><coordinates>-123.323420324674,54.804537592182</coordinates></Point>
  </Placemark>
  <Placemark>
	<name>CARP7-218</name>
      <Point><coordinates>-123.403098914884,54.7619669419195</coordinates></Point>
  </Placemark>
  <Placemark>
	<name>CARP7-219</name>
      <Point><coordinates>-123.344849682798,54.7227849974321</coordinates></Point>
  </Placemark>
  <Placemark>
	<name>CARP7-220</name>
      <Point><coordinates>-123.371665186319,54.7948957358402</coordinates></Point>
  </Placemark>
  <Placemark>
	<name>CARP7-221</name>
      <Point><coordinates>-123.356410114623,54.7208119882675</coordinates></Point>
  </Placemark>
  <Placemark>
	<name>CARP7-222</name>
      <Point><coordinates>-123.333336361795,54.8010349776142</coordinates></Point>
  </Placemark>
  <Placemark>
	<name>CARP7-223</name>
      <Point><coordinates>-123.360488930863,54.7645952825661</coordinates></Point>
  </Placemark>
  <Placemark>
	<name>CARP7-224</name>
      <Point><coordinates>-123.373112964836,54.7987987042948</coordinates></Point>
  </Placemark>
  <Placemark>
	<name>CARP7-225</name>
      <Point><coordinates>-123.323171735234,54.7807793295966</coordinates></Point>
  </Placemark>
  <Placemark>
	<name>CARP7-226</name>
      <Point><coordinates>-123.338756373774,54.8112883470322</coordinates></Point>
  </Placemark>
  <Placemark>
	<name>CARP7-227</name>
      <Point><coordinates>-123.328124084771,54.8090851270318</coordinates></Point>
  </Placemark>
  <Placemark>
	<name>CARP7-228</name>
      <Point><coordinates>-123.334294121833,54.794033955478</coordinates></Point>
  </Placemark>
  <Placemark>
	<name>CARP7-229</name>
      <Point><coordinates>-123.370705027228,54.793412389443</coordinates></Point>
  </Placemark>
  <Placemark>
	<name>CARP7-230</name>
      <Point><coordinates>-123.30970343445,54.7268239107431</coordinates></Point>
  </Placemark>
  <Placemark>
	<name>CARP7-231</name>
      <Point><coordinates>-123.381115952874,54.7873325883059</coordinates></Point>
  </Placemark>
  <Placemark>
	<name>CARP7-232</name>
      <Point><coordinates>-123.427992333577,54.7747638533084</coordinates></Point>
  </Placemark>
  <Placemark>
	<name>CARP7-233</name>
      <Point><coordinates>-123.361949943511,54.8059788643956</coordinates></Point>
  </Placemark>
  <Placemark>
	<name>CARP7-234</name>
      <Point><coordinates>-123.38676443063,54.7903924386846</coordinates></Point>
  </Placemark>
  <Placemark>
	<name>CARP7-235</name>
      <Point><coordinates>-123.352088419295,54.803689993092</coordinates></Point>
  </Placemark>
  <Placemark>
	<name>CARP7-236</name>
      <Point><coordinates>-123.344570869683,54.7777630733148</coordinates></Point>
  </Placemark>
  <Placemark>
	<name>CARP7-237</name>
      <Point><coordinates>-123.403360169717,54.7865892171248</coordinates></Point>
  </Placemark>
  <Placemark>
	<name>CARP7-238</name>
      <Point><coordinates>-123.346591902451,54.7237139590488</coordinates></Point>
  </Placemark>
  <Placemark>
	<name>CARP7-239</name>
      <Point><coordinates>-123.389377709086,54.7757179537187</coordinates></Point>
  </Placemark>
  <Placemark>
	<name>CARP7-240</name>
      <Point><coordinates>-123.370254847714,54.7203526402076</coordinates></Point>
  </Placemark>
  <Placemark>
	<name>CARP7-241</name>
      <Point><coordinates>-123.276616371225,54.7440552104194</coordinates></Point>
  </Placemark>
  <Placemark>
	<name>CARP7-242</name>
      <Point><coordinates>-123.33641751383,54.7954403717012</coordinates></Point>
  </Placemark>
  <Placemark>
	<name>CARP7-243</name>
      <Point><coordinates>-123.365567552751,54.8055475993016</coordinates></Point>
  </Placemark>
  <Placemark>
	<name>CARP7-244</name>
      <Point><coordinates>-123.32362823913,54.7829451226719</coordinates></Point>
  </Placemark>
  <Placemark>
	<name>CARP7-245</name>
      <Point><coordinates>-123.266057635007,54.7728972495796</coordinates></Point>
  </Placemark>
  <Placemark>
	<name>CARP7-246</name>
      <Point><coordinates>-123.277978241337,54.7539119420601</coordinates></Point>
  </Placemark>
  <Placemark>
	<name>CARP7-247</name>
      <Point><coordinates>-123.342092783054,54.7718273204437</coordinates></Point>
  </Placemark>
  <Placemark>
	<name>CARP7-248</name>
      <Point><coordinates>-123.27082348526,54.758210567092</coordinates></Point>
  </Placemark>
  <Placemark>
	<name>CARP7-249</name>
      <Point><coordinates>-123.371563413811,54.7412944808671</coordinates></Point>
  </Placemark>
  <Placemark>
	<name>CARP7-250</name>
      <Point><coordinates>-123.427340620658,54.7791922098877</coordinates></Point>
  </Placemark>
  <Placemark>
	<name>CARP7-251</name>
      <Point><coordinates>-123.407902663689,54.7530073220796</coordinates></Point>
  </Placemark>
  <Placemark>
	<name>CARP7-252</name>
      <Point><coordinates>-123.347342925898,54.7180893768317</coordinates></Point>
  </Placemark>
  <Placemark>
	<name>CARP7-253</name>
      <Point><coordinates>-123.34337919375,54.7915507367563</coordinates></Point>
  </Placemark>
  <Placemark>
	<name>CARP7-254</name>
      <Point><coordinates>-123.375900320484,54.7868830535153</coordinates></Point>
  </Placemark>
  <Placemark>
	<name>CARP7-255</name>
      <Point><coordinates>-123.322068011829,54.7681476386815</coordinates></Point>
  </Placemark>
  <Placemark>
	<name>CARP7-256</name>
      <Point><coordinates>-123.40930117642,54.7529295474583</coordinates></Point>
  </Placemark>
  <Placemark>
	<name>CARP7-257</name>
      <Point><coordinates>-123.342572811489,54.8128837953384</coordinates></Point>
  </Placemark>
  <Placemark>
	<name>CARP7-258</name>
      <Point><coordinates>-123.376433082532,54.7208675695143</coordinates></Point>
  </Placemark>
  <Placemark>
	<name>CARP7-259</name>
      <Point><coordinates>-123.382584741965,54.7594664846347</coordinates></Point>
  </Placemark>
  <Placemark>
	<name>CARP7-260</name>
      <Point><coordinates>-123.274626077791,54.7632986743955</coordinates></Point>
  </Placemark>
  <Placemark>
	<name>CARP7-261</name>
      <Point><coordinates>-123.244388330361,54.7792689301254</coordinates></Point>
  </Placemark>
  <Placemark>
	<name>CARP7-262</name>
      <Point><coordinates>-123.357405318643,54.7210354267406</coordinates></Point>
  </Placemark>
  <Placemark>
	<name>CARP7-263</name>
      <Point><coordinates>-123.270492916768,54.7689047479213</coordinates></Point>
  </Placemark>
  <Placemark>
	<name>CARP7-264</name>
      <Point><coordinates>-123.289506390968,54.7330301896209</coordinates></Point>
  </Placemark>
  <Placemark>
	<name>CARP7-265</name>
      <Point><coordinates>-123.379160914106,54.7172936110615</coordinates></Point>
  </Placemark>
  <Placemark>
	<name>CARP7-266</name>
      <Point><coordinates>-123.35396156198,54.7614991244519</coordinates></Point>
  </Placemark>
  <Placemark>
	<name>CARP7-267</name>
      <Point><coordinates>-123.402199232023,54.7762174428807</coordinates></Point>
  </Placemark>
  <Placemark>
	<name>CARP7-268</name>
      <Point><coordinates>-123.25119115288,54.7844512737612</coordinates></Point>
  </Placemark>
  <Placemark>
	<name>CARP7-269</name>
      <Point><coordinates>-123.356839863765,54.7573300577396</coordinates></Point>
  </Placemark>
  <Placemark>
	<name>CARP7-270</name>
      <Point><coordinates>-123.376853132891,54.7871980198073</coordinates></Point>
  </Placemark>
  <Placemark>
	<name>CARP7-271</name>
      <Point><coordinates>-123.311863034233,54.7844923078144</coordinates></Point>
  </Placemark>
  <Placemark>
	<name>CARP7-272</name>
      <Point><coordinates>-123.37218090373,54.7104037856725</coordinates></Point>
  </Placemark>
  <Placemark>
	<name>CARP7-273</name>
      <Point><coordinates>-123.348309026698,54.805672433854</coordinates></Point>
  </Placemark>
  <Placemark>
	<name>CARP7-274</name>
      <Point><coordinates>-123.297979097691,54.7297227376738</coordinates></Point>
  </Placemark>
  <Placemark>
	<name>CARP7-275</name>
      <Point><coordinates>-123.385695687698,54.7890405455774</coordinates></Point>
  </Placemark>
  <Placemark>
	<name>CARP7-276</name>
      <Point><coordinates>-123.404191092736,54.7792923950849</coordinates></Point>
  </Placemark>
  <Placemark>
	<name>CARP7-277</name>
      <Point><coordinates>-123.268059625225,54.7592043349433</coordinates></Point>
  </Placemark>
  <Placemark>
	<name>CARP7-278</name>
      <Point><coordinates>-123.377102403837,54.7258826079156</coordinates></Point>
  </Placemark>
  <Placemark>
	<name>CARP7-279</name>
      <Point><coordinates>-123.344593495583,54.7243454304139</coordinates></Point>
  </Placemark>
  <Placemark>
	<name>CARP7-280</name>
      <Point><coordinates>-123.244695103182,54.776492799352</coordinates></Point>
  </Placemark>
  <Placemark>
	<name>CARP7-281</name>
      <Point><coordinates>-123.403407850589,54.7700010770262</coordinates></Point>
  </Placemark>
  <Placemark>
	<name>CARP7-282</name>
      <Point><coordinates>-123.404962942838,54.7784587501425</coordinates></Point>
  </Placemark>
  <Placemark>
	<name>CARP7-283</name>
      <Point><coordinates>-123.320190087624,54.7257047189035</coordinates></Point>
  </Placemark>
  <Placemark>
	<name>CARP7-284</name>
      <Point><coordinates>-123.376898389199,54.728379613772</coordinates></Point>
  </Placemark>
  <Placemark>
	<name>CARP7-285</name>
      <Point><coordinates>-123.312422960883,54.7286181208464</coordinates></Point>
  </Placemark>
  <Placemark>
	<name>CARP7-286</name>
      <Point><coordinates>-123.395632962327,54.7645458450889</coordinates></Point>
  </Placemark>
  <Placemark>
	<name>CARP7-287</name>
      <Point><coordinates>-123.336961092052,54.7979459775259</coordinates></Point>
  </Placemark>
  <Placemark>
	<name>CARP7-288</name>
      <Point><coordinates>-123.309299327703,54.7808363933252</coordinates></Point>
  </Placemark>
  <Placemark>
	<name>CARP7-289</name>
      <Point><coordinates>-123.394252692314,54.764216066801</coordinates></Point>
  </Placemark>
  <Placemark>
	<name>CARP7-290</name>
      <Point><coordinates>-123.423996594831,54.7807914863294</coordinates></Point>
  </Placemark>
  <Placemark>
	<name>CARP7-291</name>
      <Point><coordinates>-123.368033950254,54.7908695405164</coordinates></Point>
  </Placemark>
  <Placemark>
	<name>CARP7-292</name>
      <Point><coordinates>-123.361489768877,54.7608737882781</coordinates></Point>
  </Placemark>
  <Placemark>
	<name>CARP7-293</name>
      <Point><coordinates>-123.261919948498,54.7750560105618</coordinates></Point>
  </Placemark>
  <Placemark>
	<name>CARP7-294</name>
      <Point><coordinates>-123.347339679493,54.8163248504196</coordinates></Point>
  </Placemark>
  <Placemark>
	<name>CARP7-295</name>
      <Point><coordinates>-123.340297998568,54.8083714114159</coordinates></Point>
  </Placemark>
  <Placemark>
	<name>CARP7-296</name>
      <Point><coordinates>-123.340045795889,54.7980571705811</coordinates></Point>
  </Placemark>
  <Placemark>
	<name>CARP7-297</name>
      <Point><coordinates>-123.340444812438,54.80733315099</coordinates></Point>
  </Placemark>
  <Placemark>
	<name>CARP7-298</name>
      <Point><coordinates>-123.354238146877,54.8035261445222</coordinates></Point>
  </Placemark>
  <Placemark>
	<name>CARP7-299</name>
      <Point><coordinates>-123.37446458668,54.7152337084726</coordinates></Point>
  </Placemark>
  <Placemark>
	<name>CARP7-300</name>
      <Point><coordinates>-123.352447279756,54.7583269656255</coordinates></Point>
  </Placemark>
  <Placemark>
	<name>CARP7-301</name>
      <Point><coordinates>-123.36842936481,54.760073348784</coordinates></Point>
  </Placemark>
  <Placemark>
	<name>CARP7-302</name>
      <Point><coordinates>-123.336419712116,54.7977987896551</coordinates></Point>
  </Placemark>
  <Placemark>
	<name>CARP7-303</name>
      <Point><coordinates>-123.40903209504,54.7467980200876</coordinates></Point>
  </Placemark>
  <Placemark>
	<name>CARP7-304</name>
      <Point><coordinates>-123.324250038365,54.8061903429309</coordinates></Point>
  </Placemark>
  <Placemark>
	<name>CARP7-305</name>
      <Point><coordinates>-123.393298944861,54.7635615604478</coordinates></Point>
  </Placemark>
  <Placemark>
	<name>CARP7-306</name>
      <Point><coordinates>-123.401727796052,54.7895076909899</coordinates></Point>
  </Placemark>
  <Placemark>
	<name>CARP7-307</name>
      <Point><coordinates>-123.313896201245,54.7278425133551</coordinates></Point>
  </Placemark>
  <Placemark>
	<name>CARP7-308</name>
      <Point><coordinates>-123.366543877181,54.7626578782286</coordinates></Point>
  </Placemark>
  <Placemark>
	<name>CARP7-309</name>
      <Point><coordinates>-123.404630576632,54.7682349220997</coordinates></Point>
  </Placemark>
  <Placemark>
	<name>CARP7-310</name>
      <Point><coordinates>-123.406354944598,54.7746371177414</coordinates></Point>
  </Placemark>
  <Placemark>
	<name>CARP7-311</name>
      <Point><coordinates>-123.364432287995,54.7142730572217</coordinates></Point>
  </Placemark>
  <Placemark>
	<name>CARP7-312</name>
      <Point><coordinates>-123.350743938161,54.8098729262419</coordinates></Point>
  </Placemark>
  <Placemark>
	<name>CARP7-313</name>
      <Point><coordinates>-123.37847104463,54.7868471098533</coordinates></Point>
  </Placemark>
  <Placemark>
	<name>CARP7-314</name>
      <Point><coordinates>-123.367307238222,54.718484325347</coordinates></Point>
  </Placemark>
  <Placemark>
	<name>CARP7-315</name>
      <Point><coordinates>-123.398836432153,54.7889581344755</coordinates></Point>
  </Placemark>
  <Placemark>
	<name>CARP7-316</name>
      <Point><coordinates>-123.372761184697,54.714876040982</coordinates></Point>
  </Placemark>
  <Placemark>
	<name>CARP7-317</name>
      <Point><coordinates>-123.281274819003,54.740730848887</coordinates></Point>
  </Placemark>
  <Placemark>
	<name>CARP7-318</name>
      <Point><coordinates>-123.366401435728,54.7556161091224</coordinates></Point>
  </Placemark>
  <Placemark>
	<name>CARP7-319</name>
      <Point><coordinates>-123.326715723293,54.7252374396639</coordinates></Point>
  </Placemark>
  <Placemark>
	<name>CARP7-320</name>
      <Point><coordinates>-123.274585168695,54.7574792825418</coordinates></Point>
  </Placemark>
  <Placemark>
	<name>CARP7-321</name>
      <Point><coordinates>-123.361080115654,54.770468617066</coordinates></Point>
  </Placemark>
  <Placemark>
	<name>CARP7-322</name>
      <Point><coordinates>-123.313030486225,54.7263206760169</coordinates></Point>
  </Placemark>
  <Placemark>
	<name>CARP7-323</name>
      <Point><coordinates>-123.367541181904,54.7904204906599</coordinates></Point>
  </Placemark>
  <Placemark>
	<name>CARP7-324</name>
      <Point><coordinates>-123.246339402798,54.7777125947081</coordinates></Point>
  </Placemark>
  <Placemark>
	<name>CARP7-325</name>
      <Point><coordinates>-123.336183017076,54.7257872494053</coordinates></Point>
  </Placemark>
  <Placemark>
	<name>CARP7-326</name>
      <Point><coordinates>-123.425837070416,54.7748967650242</coordinates></Point>
  </Placemark>
  <Placemark>
	<name>CARP7-327</name>
      <Point><coordinates>-123.339812334127,54.7894069896617</coordinates></Point>
  </Placemark>
  <Placemark>
	<name>CARP7-328</name>
      <Point><coordinates>-123.28878939798,54.7626702510911</coordinates></Point>
  </Placemark>
  <Placemark>
	<name>CARP7-329</name>
      <Point><coordinates>-123.325637540632,54.807413728337</coordinates></Point>
  </Placemark>
  <Placemark>
	<name>CARP7-330</name>
      <Point><coordinates>-123.394529518587,54.7528943983115</coordinates></Point>
  </Placemark>
  <Placemark>
	<name>CARP7-331</name>
      <Point><coordinates>-123.361655878005,54.8028176002473</coordinates></Point>
  </Placemark>
  <Placemark>
	<name>CARP7-332</name>
      <Point><coordinates>-123.242416364713,54.7847493403367</coordinates></Point>
  </Placemark>
  <Placemark>
	<name>CARP7-333</name>
      <Point><coordinates>-123.280163057826,54.7509819954017</coordinates></Point>
  </Placemark>
</Folder>
</Document></kml>
