<?xml version="1.0" standalone="yes"?>
<gpx xmlns="http://www.topografix.com/GPX/1/1" creator="KML2GPX.COM" version="1.1" xmlns:xsi="http://www.w3.org/2001/XMLSchema-instance" xsi:schemaLocation="http://www.topografix.com/GPX/1/1 http://www.topografix.com/GPX/1/1/gpx.xsd">
    <metadata>
        <name><![CDATA[Carp_oc7_Z1.kml]]></name>
        <desc><![CDATA[Converted from a KML file KML2GPX.COM]]></desc>
                </metadata>

                                                                                
                <wpt lat="54.7881571949876" lon="-123.330866802254">
                                                            <ele>0</ele>
                    <name><![CDATA[CARP7-Z1-2]]></name>
                    <cmt><![CDATA[Waypoint no: 1]]></cmt>
                    <desc><![CDATA[This is waypoint no: 1]]></desc>
                </wpt>
                                                                                                                            
                <wpt lat="54.78320383401821" lon="-123.318455617327">
                                                            <ele>0</ele>
                    <name><![CDATA[CARP7-Z1-4]]></name>
                    <cmt><![CDATA[Waypoint no: 2]]></cmt>
                    <desc><![CDATA[This is waypoint no: 2]]></desc>
                </wpt>
                                                                                                                            
                <wpt lat="54.7781493753391" lon="-123.342546227353">
                                                            <ele>0</ele>
                    <name><![CDATA[CARP7-Z1-7]]></name>
                    <cmt><![CDATA[Waypoint no: 3]]></cmt>
                    <desc><![CDATA[This is waypoint no: 3]]></desc>
                </wpt>
                                                                                                                            
                <wpt lat="54.8093993323483" lon="-123.348385599696">
                                                            <ele>0</ele>
                    <name><![CDATA[CARP7-Z1-14]]></name>
                    <cmt><![CDATA[Waypoint no: 4]]></cmt>
                    <desc><![CDATA[This is waypoint no: 4]]></desc>
                </wpt>
                                                                                                                            
                <wpt lat="54.7856719441269" lon="-123.369908878225">
                                                            <ele>0</ele>
                    <name><![CDATA[CARP7-Z1-16]]></name>
                    <cmt><![CDATA[Waypoint no: 5]]></cmt>
                    <desc><![CDATA[This is waypoint no: 5]]></desc>
                </wpt>
                                                                                                                            
                <wpt lat="54.8049416617466" lon="-123.324009667204">
                                                            <ele>0</ele>
                    <name><![CDATA[CARP7-Z1-31]]></name>
                    <cmt><![CDATA[Waypoint no: 6]]></cmt>
                    <desc><![CDATA[This is waypoint no: 6]]></desc>
                </wpt>
                                                                                                                            
                <wpt lat="54.79227490288025" lon="-123.3312721267964">
                                                            <ele>0</ele>
                    <name><![CDATA[CARP7-Z1-61]]></name>
                    <cmt><![CDATA[Waypoint no: 7]]></cmt>
                    <desc><![CDATA[This is waypoint no: 7]]></desc>
                </wpt>
                                                                                                                            
                <wpt lat="54.7995776833277" lon="-123.338059133897">
                                                            <ele>0</ele>
                    <name><![CDATA[CARP7-Z1-126]]></name>
                    <cmt><![CDATA[Waypoint no: 8]]></cmt>
                    <desc><![CDATA[This is waypoint no: 8]]></desc>
                </wpt>
                                                                                                                            
                <wpt lat="54.79479893607021" lon="-123.338136049617">
                                                            <ele>0</ele>
                    <name><![CDATA[CARP7-Z1-137]]></name>
                    <cmt><![CDATA[Waypoint no: 9]]></cmt>
                    <desc><![CDATA[This is waypoint no: 9]]></desc>
                </wpt>
                                                                                                                            
                <wpt lat="54.79378708320529" lon="-123.3624086482153">
                                                            <ele>0</ele>
                    <name><![CDATA[CARP7-Z1-148]]></name>
                    <cmt><![CDATA[Waypoint no: 10]]></cmt>
                    <desc><![CDATA[This is waypoint no: 10]]></desc>
                </wpt>
                                                                                                                            
                <wpt lat="54.7895175795567" lon="-123.368807543065">
                                                            <ele>0</ele>
                    <name><![CDATA[CARP7-Z1-150]]></name>
                    <cmt><![CDATA[Waypoint no: 11]]></cmt>
                    <desc><![CDATA[This is waypoint no: 11]]></desc>
                </wpt>
                                                                                                                            
                <wpt lat="54.78063173984701" lon="-123.309439594719">
                                                            <ele>0</ele>
                    <name><![CDATA[CARP7-Z1-175]]></name>
                    <cmt><![CDATA[Waypoint no: 12]]></cmt>
                    <desc><![CDATA[This is waypoint no: 12]]></desc>
                </wpt>
                                                                                                                            
                <wpt lat="54.7931464423909" lon="-123.326578433564">
                                                            <ele>0</ele>
                    <name><![CDATA[CARP7-Z1-187]]></name>
                    <cmt><![CDATA[Waypoint no: 13]]></cmt>
                    <desc><![CDATA[This is waypoint no: 13]]></desc>
                </wpt>
                                                                                                                            
                <wpt lat="54.79846593869849" lon="-123.365154033711">
                                                            <ele>0</ele>
                    <name><![CDATA[CARP7-Z1-209]]></name>
                    <cmt><![CDATA[Waypoint no: 14]]></cmt>
                    <desc><![CDATA[This is waypoint no: 14]]></desc>
                </wpt>
                                                                                                                            
                <wpt lat="54.80103497761421" lon="-123.333336361795">
                                                            <ele>0</ele>
                    <name><![CDATA[CARP7-Z1-222]]></name>
                    <cmt><![CDATA[Waypoint no: 15]]></cmt>
                    <desc><![CDATA[This is waypoint no: 15]]></desc>
                </wpt>
                                                                                                                            
                <wpt lat="54.80908512703179" lon="-123.328124084771">
                                                            <ele>0</ele>
                    <name><![CDATA[CARP7-Z1-227]]></name>
                    <cmt><![CDATA[Waypoint no: 16]]></cmt>
                    <desc><![CDATA[This is waypoint no: 16]]></desc>
                </wpt>
                                                                                                                            
                <wpt lat="54.80368999309199" lon="-123.352088419295">
                                                            <ele>0</ele>
                    <name><![CDATA[CARP7-Z1-235]]></name>
                    <cmt><![CDATA[Waypoint no: 17]]></cmt>
                    <desc><![CDATA[This is waypoint no: 17]]></desc>
                </wpt>
                                                                                                                            
                <wpt lat="54.7777630733148" lon="-123.344570869683">
                                                            <ele>0</ele>
                    <name><![CDATA[CARP7-Z1-236]]></name>
                    <cmt><![CDATA[Waypoint no: 18]]></cmt>
                    <desc><![CDATA[This is waypoint no: 18]]></desc>
                </wpt>
                                                                                                                            
                <wpt lat="54.7829451226719" lon="-123.32362823913">
                                                            <ele>0</ele>
                    <name><![CDATA[CARP7-Z1-244]]></name>
                    <cmt><![CDATA[Waypoint no: 19]]></cmt>
                    <desc><![CDATA[This is waypoint no: 19]]></desc>
                </wpt>
                                                                                                                            
                <wpt lat="54.80151506001652" lon="-123.3568067618838">
                                                            <ele>0</ele>
                    <name><![CDATA[CARP7-Z1-331]]></name>
                    <cmt><![CDATA[Waypoint no: 20]]></cmt>
                    <desc><![CDATA[This is waypoint no: 20]]></desc>
                </wpt>
                                                            
                    
    
</gpx>