<?xml version="1.0" encoding="utf-8" ?>
<kml xmlns="http://www.opengis.net/kml/2.2">
<Document id="root_doc">
<Folder><name>carp_occ4_trapping_points</name>
  <Placemark>
	<name>CARP4-1</name>
      <Point><coordinates>-123.421559098118,54.7740420682108</coordinates></Point>
  </Placemark>
  <Placemark>
	<name>CARP4-2</name>
      <Point><coordinates>-123.330866802254,54.7886294669805</coordinates></Point>
  </Placemark>
  <Placemark>
	<name>CARP4-3</name>
      <Point><coordinates>-123.326482152483,54.7790833724774</coordinates></Point>
  </Placemark>
  <Placemark>
	<name>CARP4-4</name>
      <Point><coordinates>-123.302775690908,54.7613579357359</coordinates></Point>
  </Placemark>
  <Placemark>
	<name>CARP4-5</name>
      <Point><coordinates>-123.410777079353,54.7485508092065</coordinates></Point>
  </Placemark>
  <Placemark>
	<name>CARP4-6</name>
      <Point><coordinates>-123.368490373545,54.7627128922341</coordinates></Point>
  </Placemark>
  <Placemark>
	<name>CARP4-7</name>
      <Point><coordinates>-123.243253916153,54.7850121313373</coordinates></Point>
  </Placemark>
  <Placemark>
	<name>CARP4-8</name>
      <Point><coordinates>-123.249126335732,54.7727314731083</coordinates></Point>
  </Placemark>
  <Placemark>
	<name>CARP4-9</name>
      <Point><coordinates>-123.340322185445,54.7245213196552</coordinates></Point>
  </Placemark>
  <Placemark>
	<name>CARP4-10</name>
      <Point><coordinates>-123.40328273952,54.7674719573028</coordinates></Point>
  </Placemark>
  <Placemark>
	<name>CARP4-11</name>
      <Point><coordinates>-123.386323765805,54.758291934911</coordinates></Point>
  </Placemark>
  <Placemark>
	<name>CARP4-12</name>
      <Point><coordinates>-123.380133157249,54.7838892270746</coordinates></Point>
  </Placemark>
  <Placemark>
	<name>CARP4-13</name>
      <Point><coordinates>-123.324694244839,54.7678441995262</coordinates></Point>
  </Placemark>
  <Placemark>
	<name>CARP4-14</name>
      <Point><coordinates>-123.359743062771,54.7701068539827</coordinates></Point>
  </Placemark>
  <Placemark>
	<name>CARP4-15</name>
      <Point><coordinates>-123.412296424557,54.7868878111315</coordinates></Point>
  </Placemark>
  <Placemark>
	<name>CARP4-16</name>
      <Point><coordinates>-123.378552357579,54.7891437029978</coordinates></Point>
  </Placemark>
  <Placemark>
	<name>CARP4-17</name>
      <Point><coordinates>-123.409233917868,54.7723025691695</coordinates></Point>
  </Placemark>
  <Placemark>
	<name>CARP4-18</name>
      <Point><coordinates>-123.262277379216,54.7718520689207</coordinates></Point>
  </Placemark>
  <Placemark>
	<name>CARP4-19</name>
      <Point><coordinates>-123.397221044355,54.7765547934112</coordinates></Point>
  </Placemark>
  <Placemark>
	<name>CARP4-20</name>
      <Point><coordinates>-123.405557678599,54.7862870688005</coordinates></Point>
  </Placemark>
  <Placemark>
	<name>CARP4-21</name>
      <Point><coordinates>-123.365559241833,54.7971319770987</coordinates></Point>
  </Placemark>
  <Placemark>
	<name>CARP4-22</name>
      <Point><coordinates>-123.34239275373,54.8090578381486</coordinates></Point>
  </Placemark>
  <Placemark>
	<name>CARP4-23</name>
      <Point><coordinates>-123.250733334983,54.7705676625832</coordinates></Point>
  </Placemark>
  <Placemark>
	<name>CARP4-24</name>
      <Point><coordinates>-123.373506946848,54.7881431589136</coordinates></Point>
  </Placemark>
  <Placemark>
	<name>CARP4-25</name>
      <Point><coordinates>-123.326886299927,54.8113906305754</coordinates></Point>
  </Placemark>
  <Placemark>
	<name>CARP4-26</name>
      <Point><coordinates>-123.371538550198,54.7522913470679</coordinates></Point>
  </Placemark>
  <Placemark>
	<name>CARP4-27</name>
      <Point><coordinates>-123.386675657048,54.7584586785835</coordinates></Point>
  </Placemark>
  <Placemark>
	<name>CARP4-28</name>
      <Point><coordinates>-123.383938832789,54.7811127059005</coordinates></Point>
  </Placemark>
  <Placemark>
	<name>CARP4-29</name>
      <Point><coordinates>-123.356823977084,54.764479687536</coordinates></Point>
  </Placemark>
  <Placemark>
	<name>CARP4-30</name>
      <Point><coordinates>-123.322629239571,54.7993395527492</coordinates></Point>
  </Placemark>
  <Placemark>
	<name>CARP4-31</name>
      <Point><coordinates>-123.346529601507,54.8036906277259</coordinates></Point>
  </Placemark>
  <Placemark>
	<name>CARP4-32</name>
      <Point><coordinates>-123.363317272361,54.749934691458</coordinates></Point>
  </Placemark>
  <Placemark>
	<name>CARP4-33</name>
      <Point><coordinates>-123.290979611244,54.7621277646107</coordinates></Point>
  </Placemark>
  <Placemark>
	<name>CARP4-34</name>
      <Point><coordinates>-123.380186900561,54.7815546854695</coordinates></Point>
  </Placemark>
  <Placemark>
	<name>CARP4-35</name>
      <Point><coordinates>-123.360161185232,54.719611300844</coordinates></Point>
  </Placemark>
  <Placemark>
	<name>CARP4-36</name>
      <Point><coordinates>-123.369700351491,54.7644242944751</coordinates></Point>
  </Placemark>
  <Placemark>
	<name>CARP4-37</name>
      <Point><coordinates>-123.322454123623,54.7677655583045</coordinates></Point>
  </Placemark>
  <Placemark>
	<name>CARP4-38</name>
      <Point><coordinates>-123.361692215624,54.7625110580571</coordinates></Point>
  </Placemark>
  <Placemark>
	<name>CARP4-39</name>
      <Point><coordinates>-123.398049392585,54.7767847189198</coordinates></Point>
  </Placemark>
  <Placemark>
	<name>CARP4-40</name>
      <Point><coordinates>-123.303376031256,54.7618537233557</coordinates></Point>
  </Placemark>
  <Placemark>
	<name>CARP4-41</name>
      <Point><coordinates>-123.377021610966,54.7809364121428</coordinates></Point>
  </Placemark>
  <Placemark>
	<name>CARP4-42</name>
      <Point><coordinates>-123.35584183706,54.7609632877362</coordinates></Point>
  </Placemark>
  <Placemark>
	<name>CARP4-43</name>
      <Point><coordinates>-123.340312899355,54.8052358558642</coordinates></Point>
  </Placemark>
  <Placemark>
	<name>CARP4-44</name>
      <Point><coordinates>-123.324824813465,54.7921743224648</coordinates></Point>
  </Placemark>
  <Placemark>
	<name>CARP4-45</name>
      <Point><coordinates>-123.29888694457,54.7620141418974</coordinates></Point>
  </Placemark>
  <Placemark>
	<name>CARP4-46</name>
      <Point><coordinates>-123.349601830521,54.7183091261314</coordinates></Point>
  </Placemark>
  <Placemark>
	<name>CARP4-47</name>
      <Point><coordinates>-123.39785143868,54.785239136803</coordinates></Point>
  </Placemark>
  <Placemark>
	<name>CARP4-48</name>
      <Point><coordinates>-123.37150706114,54.7426669535806</coordinates></Point>
  </Placemark>
  <Placemark>
	<name>CARP4-49</name>
      <Point><coordinates>-123.381778776948,54.718522442725</coordinates></Point>
  </Placemark>
  <Placemark>
	<name>CARP4-50</name>
      <Point><coordinates>-123.37984207078,54.7251887338535</coordinates></Point>
  </Placemark>
  <Placemark>
	<name>CARP4-51</name>
      <Point><coordinates>-123.354116688299,54.8070303698037</coordinates></Point>
  </Placemark>
  <Placemark>
	<name>CARP4-52</name>
      <Point><coordinates>-123.341491140915,54.8103770837872</coordinates></Point>
  </Placemark>
  <Placemark>
	<name>CARP4-53</name>
      <Point><coordinates>-123.366909671152,54.7546060791687</coordinates></Point>
  </Placemark>
  <Placemark>
	<name>CARP4-54</name>
      <Point><coordinates>-123.387836485695,54.7812610076375</coordinates></Point>
  </Placemark>
  <Placemark>
	<name>CARP4-55</name>
      <Point><coordinates>-123.411191139344,54.7703376729553</coordinates></Point>
  </Placemark>
  <Placemark>
	<name>CARP4-56</name>
      <Point><coordinates>-123.419727501401,54.7748069163971</coordinates></Point>
  </Placemark>
  <Placemark>
	<name>CARP4-57</name>
      <Point><coordinates>-123.363591535265,54.790266946779</coordinates></Point>
  </Placemark>
  <Placemark>
	<name>CARP4-58</name>
      <Point><coordinates>-123.374509336956,54.7959481512779</coordinates></Point>
  </Placemark>
  <Placemark>
	<name>CARP4-59</name>
      <Point><coordinates>-123.410611311503,54.7705991139837</coordinates></Point>
  </Placemark>
  <Placemark>
	<name>CARP4-60</name>
      <Point><coordinates>-123.366522491416,54.7179389602455</coordinates></Point>
  </Placemark>
  <Placemark>
	<name>CARP4-61</name>
      <Point><coordinates>-123.337546140844,54.7255377748339</coordinates></Point>
  </Placemark>
  <Placemark>
	<name>CARP4-62</name>
      <Point><coordinates>-123.40767974023,54.7522708093703</coordinates></Point>
  </Placemark>
  <Placemark>
	<name>CARP4-63</name>
      <Point><coordinates>-123.333316407173,54.788890010946</coordinates></Point>
  </Placemark>
  <Placemark>
	<name>CARP4-64</name>
      <Point><coordinates>-123.313238234002,54.7267420894891</coordinates></Point>
  </Placemark>
  <Placemark>
	<name>CARP4-65</name>
      <Point><coordinates>-123.369350354844,54.7840171686621</coordinates></Point>
  </Placemark>
  <Placemark>
	<name>CARP4-66</name>
      <Point><coordinates>-123.393882535335,54.7724720152966</coordinates></Point>
  </Placemark>
  <Placemark>
	<name>CARP4-67</name>
      <Point><coordinates>-123.361840939888,54.7203888435789</coordinates></Point>
  </Placemark>
  <Placemark>
	<name>CARP4-68</name>
      <Point><coordinates>-123.350837856728,54.801376067304</coordinates></Point>
  </Placemark>
  <Placemark>
	<name>CARP4-69</name>
      <Point><coordinates>-123.390864075581,54.7732846845044</coordinates></Point>
  </Placemark>
  <Placemark>
	<name>CARP4-70</name>
      <Point><coordinates>-123.372086477032,54.7611562371076</coordinates></Point>
  </Placemark>
  <Placemark>
	<name>CARP4-71</name>
      <Point><coordinates>-123.345583399667,54.8182323711298</coordinates></Point>
  </Placemark>
  <Placemark>
	<name>CARP4-72</name>
      <Point><coordinates>-123.414615264459,54.7694933498699</coordinates></Point>
  </Placemark>
  <Placemark>
	<name>CARP4-73</name>
      <Point><coordinates>-123.366349339073,54.7224166215088</coordinates></Point>
  </Placemark>
  <Placemark>
	<name>CARP4-74</name>
      <Point><coordinates>-123.424860136858,54.7771452959805</coordinates></Point>
  </Placemark>
  <Placemark>
	<name>CARP4-75</name>
      <Point><coordinates>-123.36961490842,54.7903558727733</coordinates></Point>
  </Placemark>
  <Placemark>
	<name>CARP4-76</name>
      <Point><coordinates>-123.373191949447,54.7186108751116</coordinates></Point>
  </Placemark>
  <Placemark>
	<name>CARP4-77</name>
      <Point><coordinates>-123.411430910873,54.7747366754404</coordinates></Point>
  </Placemark>
  <Placemark>
	<name>CARP4-78</name>
      <Point><coordinates>-123.376934303229,54.7260960240108</coordinates></Point>
  </Placemark>
  <Placemark>
	<name>CARP4-79</name>
      <Point><coordinates>-123.402477570263,54.7801588611608</coordinates></Point>
  </Placemark>
  <Placemark>
	<name>CARP4-80</name>
      <Point><coordinates>-123.362826440486,54.7132533402875</coordinates></Point>
  </Placemark>
  <Placemark>
	<name>CARP4-81</name>
      <Point><coordinates>-123.33167174602,54.7902776814117</coordinates></Point>
  </Placemark>
  <Placemark>
	<name>CARP4-82</name>
      <Point><coordinates>-123.36437795214,54.7171283195233</coordinates></Point>
  </Placemark>
  <Placemark>
	<name>CARP4-83</name>
      <Point><coordinates>-123.384914822724,54.7809457216266</coordinates></Point>
  </Placemark>
  <Placemark>
	<name>CARP4-84</name>
      <Point><coordinates>-123.406676623895,54.7745594497299</coordinates></Point>
  </Placemark>
  <Placemark>
	<name>CARP4-85</name>
      <Point><coordinates>-123.34291193363,54.7942491510797</coordinates></Point>
  </Placemark>
  <Placemark>
	<name>CARP4-86</name>
      <Point><coordinates>-123.412470095139,54.7741386377024</coordinates></Point>
  </Placemark>
  <Placemark>
	<name>CARP4-87</name>
      <Point><coordinates>-123.277147036377,54.7443944136949</coordinates></Point>
  </Placemark>
  <Placemark>
	<name>CARP4-88</name>
      <Point><coordinates>-123.372278736161,54.7980332714944</coordinates></Point>
  </Placemark>
  <Placemark>
	<name>CARP4-89</name>
      <Point><coordinates>-123.408361059688,54.7748885210304</coordinates></Point>
  </Placemark>
  <Placemark>
	<name>CARP4-90</name>
      <Point><coordinates>-123.416873182794,54.7732887832444</coordinates></Point>
  </Placemark>
  <Placemark>
	<name>CARP4-91</name>
      <Point><coordinates>-123.363662959078,54.790484964175</coordinates></Point>
  </Placemark>
  <Placemark>
	<name>CARP4-92</name>
      <Point><coordinates>-123.361250625598,54.7219489332557</coordinates></Point>
  </Placemark>
  <Placemark>
	<name>CARP4-93</name>
      <Point><coordinates>-123.329372977838,54.8021127079689</coordinates></Point>
  </Placemark>
  <Placemark>
	<name>CARP4-94</name>
      <Point><coordinates>-123.365971814799,54.7505644267733</coordinates></Point>
  </Placemark>
  <Placemark>
	<name>CARP4-95</name>
      <Point><coordinates>-123.342780908814,54.8215613424824</coordinates></Point>
  </Placemark>
  <Placemark>
	<name>CARP4-96</name>
      <Point><coordinates>-123.355759046626,54.7659036694433</coordinates></Point>
  </Placemark>
  <Placemark>
	<name>CARP4-97</name>
      <Point><coordinates>-123.39784299771,54.7832038340182</coordinates></Point>
  </Placemark>
  <Placemark>
	<name>CARP4-98</name>
      <Point><coordinates>-123.418346473698,54.7763102896965</coordinates></Point>
  </Placemark>
  <Placemark>
	<name>CARP4-99</name>
      <Point><coordinates>-123.373523180627,54.7598781588538</coordinates></Point>
  </Placemark>
  <Placemark>
	<name>CARP4-100</name>
      <Point><coordinates>-123.371461382206,54.7916567167035</coordinates></Point>
  </Placemark>
  <Placemark>
	<name>CARP4-101</name>
      <Point><coordinates>-123.373195199134,54.7381683276024</coordinates></Point>
  </Placemark>
  <Placemark>
	<name>CARP4-102</name>
      <Point><coordinates>-123.253615539912,54.7847142253525</coordinates></Point>
  </Placemark>
  <Placemark>
	<name>CARP4-103</name>
      <Point><coordinates>-123.422697532963,54.7711359439069</coordinates></Point>
  </Placemark>
  <Placemark>
	<name>CARP4-104</name>
      <Point><coordinates>-123.364581363996,54.71246711277</coordinates></Point>
  </Placemark>
  <Placemark>
	<name>CARP4-105</name>
      <Point><coordinates>-123.378521963419,54.7124578091399</coordinates></Point>
  </Placemark>
  <Placemark>
	<name>CARP4-106</name>
      <Point><coordinates>-123.414810009591,54.7840546176092</coordinates></Point>
  </Placemark>
  <Placemark>
	<name>CARP4-107</name>
      <Point><coordinates>-123.357730024367,54.7596855921576</coordinates></Point>
  </Placemark>
  <Placemark>
	<name>CARP4-108</name>
      <Point><coordinates>-123.323108995648,54.7278897749008</coordinates></Point>
  </Placemark>
  <Placemark>
	<name>CARP4-109</name>
      <Point><coordinates>-123.330564474534,54.7266693321554</coordinates></Point>
  </Placemark>
  <Placemark>
	<name>CARP4-110</name>
      <Point><coordinates>-123.42708391004,54.7799987681803</coordinates></Point>
  </Placemark>
  <Placemark>
	<name>CARP4-111</name>
      <Point><coordinates>-123.355835517097,54.7627815866361</coordinates></Point>
  </Placemark>
  <Placemark>
	<name>CARP4-112</name>
      <Point><coordinates>-123.277453177359,54.7502917306274</coordinates></Point>
  </Placemark>
  <Placemark>
	<name>CARP4-113</name>
      <Point><coordinates>-123.327311286627,54.8108805051951</coordinates></Point>
  </Placemark>
  <Placemark>
	<name>CARP4-114</name>
      <Point><coordinates>-123.32612901034,54.8109802608844</coordinates></Point>
  </Placemark>
  <Placemark>
	<name>CARP4-115</name>
      <Point><coordinates>-123.35053363126,54.8093993323483</coordinates></Point>
  </Placemark>
  <Placemark>
	<name>CARP4-116</name>
      <Point><coordinates>-123.360977260194,54.7630604614574</coordinates></Point>
  </Placemark>
  <Placemark>
	<name>CARP4-117</name>
      <Point><coordinates>-123.320598610722,54.7666316317581</coordinates></Point>
  </Placemark>
  <Placemark>
	<name>CARP4-118</name>
      <Point><coordinates>-123.247995920544,54.7723920956714</coordinates></Point>
  </Placemark>
  <Placemark>
	<name>CARP4-119</name>
      <Point><coordinates>-123.33457585491,54.7924972372535</coordinates></Point>
  </Placemark>
  <Placemark>
	<name>CARP4-120</name>
      <Point><coordinates>-123.387679910466,54.7772393670657</coordinates></Point>
  </Placemark>
  <Placemark>
	<name>CARP4-121</name>
      <Point><coordinates>-123.370261960462,54.7454448992228</coordinates></Point>
  </Placemark>
  <Placemark>
	<name>CARP4-122</name>
      <Point><coordinates>-123.367912048613,54.7572902009707</coordinates></Point>
  </Placemark>
  <Placemark>
	<name>CARP4-123</name>
      <Point><coordinates>-123.361632220657,54.7688362964549</coordinates></Point>
  </Placemark>
  <Placemark>
	<name>CARP4-124</name>
      <Point><coordinates>-123.378671208767,54.7266697456745</coordinates></Point>
  </Placemark>
  <Placemark>
	<name>CARP4-125</name>
      <Point><coordinates>-123.362009869995,54.7144236452999</coordinates></Point>
  </Placemark>
  <Placemark>
	<name>CARP4-126</name>
      <Point><coordinates>-123.351602385352,54.7229675263835</coordinates></Point>
  </Placemark>
  <Placemark>
	<name>CARP4-127</name>
      <Point><coordinates>-123.35772664349,54.7927794246142</coordinates></Point>
  </Placemark>
  <Placemark>
	<name>CARP4-128</name>
      <Point><coordinates>-123.340706618856,54.8151042412944</coordinates></Point>
  </Placemark>
  <Placemark>
	<name>CARP4-129</name>
      <Point><coordinates>-123.323534350363,54.7253908351162</coordinates></Point>
  </Placemark>
  <Placemark>
	<name>CARP4-130</name>
      <Point><coordinates>-123.335602467471,54.7937194097954</coordinates></Point>
  </Placemark>
  <Placemark>
	<name>CARP4-131</name>
      <Point><coordinates>-123.364238313287,54.7550191998619</coordinates></Point>
  </Placemark>
  <Placemark>
	<name>CARP4-132</name>
      <Point><coordinates>-123.408069452484,54.7635194209697</coordinates></Point>
  </Placemark>
  <Placemark>
	<name>CARP4-133</name>
      <Point><coordinates>-123.399105515634,54.7614631371753</coordinates></Point>
  </Placemark>
  <Placemark>
	<name>CARP4-134</name>
      <Point><coordinates>-123.349565823678,54.8065152222307</coordinates></Point>
  </Placemark>
  <Placemark>
	<name>CARP4-135</name>
      <Point><coordinates>-123.271320799488,54.7578005668636</coordinates></Point>
  </Placemark>
  <Placemark>
	<name>CARP4-136</name>
      <Point><coordinates>-123.367237303927,54.758050529504</coordinates></Point>
  </Placemark>
  <Placemark>
	<name>CARP4-137</name>
      <Point><coordinates>-123.425825773328,54.7730319436265</coordinates></Point>
  </Placemark>
  <Placemark>
	<name>CARP4-138</name>
      <Point><coordinates>-123.369729353715,54.7543494494807</coordinates></Point>
  </Placemark>
  <Placemark>
	<name>CARP4-139</name>
      <Point><coordinates>-123.403028583912,54.7667345436695</coordinates></Point>
  </Placemark>
  <Placemark>
	<name>CARP4-140</name>
      <Point><coordinates>-123.352634948811,54.7192028883937</coordinates></Point>
  </Placemark>
  <Placemark>
	<name>CARP4-141</name>
      <Point><coordinates>-123.301753340665,54.7303037536984</coordinates></Point>
  </Placemark>
  <Placemark>
	<name>CARP4-142</name>
      <Point><coordinates>-123.27835638454,54.754440686438</coordinates></Point>
  </Placemark>
  <Placemark>
	<name>CARP4-143</name>
      <Point><coordinates>-123.367808836604,54.8006708014042</coordinates></Point>
  </Placemark>
  <Placemark>
	<name>CARP4-144</name>
      <Point><coordinates>-123.310707512043,54.7843123621271</coordinates></Point>
  </Placemark>
  <Placemark>
	<name>CARP4-145</name>
      <Point><coordinates>-123.427212240603,54.7774530944161</coordinates></Point>
  </Placemark>
  <Placemark>
	<name>CARP4-146</name>
      <Point><coordinates>-123.307130333962,54.7300588419314</coordinates></Point>
  </Placemark>
  <Placemark>
	<name>CARP4-147</name>
      <Point><coordinates>-123.338136049617,54.7242879307995</coordinates></Point>
  </Placemark>
  <Placemark>
	<name>CARP4-148</name>
      <Point><coordinates>-123.410629189008,54.7735387300033</coordinates></Point>
  </Placemark>
  <Placemark>
	<name>CARP4-149</name>
      <Point><coordinates>-123.377390574676,54.7934153646401</coordinates></Point>
  </Placemark>
  <Placemark>
	<name>CARP4-150</name>
      <Point><coordinates>-123.36218569029,54.7635028989257</coordinates></Point>
  </Placemark>
  <Placemark>
	<name>CARP4-151</name>
      <Point><coordinates>-123.361362635039,54.7547154797705</coordinates></Point>
  </Placemark>
  <Placemark>
	<name>CARP4-152</name>
      <Point><coordinates>-123.380730131291,54.7597448114728</coordinates></Point>
  </Placemark>
  <Placemark>
	<name>CARP4-153</name>
      <Point><coordinates>-123.31565168531,54.7829112691811</coordinates></Point>
  </Placemark>
  <Placemark>
	<name>CARP4-154</name>
      <Point><coordinates>-123.381725085359,54.7884426865751</coordinates></Point>
  </Placemark>
  <Placemark>
	<name>CARP4-155</name>
      <Point><coordinates>-123.274301941679,54.7654071320092</coordinates></Point>
  </Placemark>
  <Placemark>
	<name>CARP4-156</name>
      <Point><coordinates>-123.252760205006,54.766859622204</coordinates></Point>
  </Placemark>
  <Placemark>
	<name>CARP4-157</name>
      <Point><coordinates>-123.363155678173,54.7133117631386</coordinates></Point>
  </Placemark>
  <Placemark>
	<name>CARP4-158</name>
      <Point><coordinates>-123.407365285048,54.7634155253992</coordinates></Point>
  </Placemark>
  <Placemark>
	<name>CARP4-159</name>
      <Point><coordinates>-123.269591945156,54.769467588029</coordinates></Point>
  </Placemark>
  <Placemark>
	<name>CARP4-160</name>
      <Point><coordinates>-123.354931702626,54.8055910520039</coordinates></Point>
  </Placemark>
  <Placemark>
	<name>CARP4-161</name>
      <Point><coordinates>-123.350440475547,54.8057704290923</coordinates></Point>
  </Placemark>
  <Placemark>
	<name>CARP4-162</name>
      <Point><coordinates>-123.315146598359,54.7252036270504</coordinates></Point>
  </Placemark>
  <Placemark>
	<name>CARP4-163</name>
      <Point><coordinates>-123.325095551831,54.7972167275427</coordinates></Point>
  </Placemark>
  <Placemark>
	<name>CARP4-164</name>
      <Point><coordinates>-123.376576706139,54.7274099214817</coordinates></Point>
  </Placemark>
  <Placemark>
	<name>CARP4-165</name>
      <Point><coordinates>-123.369352028458,54.7531916485059</coordinates></Point>
  </Placemark>
  <Placemark>
	<name>CARP4-166</name>
      <Point><coordinates>-123.265698807759,54.7718235363797</coordinates></Point>
  </Placemark>
  <Placemark>
	<name>CARP4-167</name>
      <Point><coordinates>-123.406852490881,54.7572696660272</coordinates></Point>
  </Placemark>
  <Placemark>
	<name>CARP4-168</name>
      <Point><coordinates>-123.361930316165,54.719738824739</coordinates></Point>
  </Placemark>
  <Placemark>
	<name>CARP4-169</name>
      <Point><coordinates>-123.333769476237,54.7959070833463</coordinates></Point>
  </Placemark>
  <Placemark>
	<name>CARP4-170</name>
      <Point><coordinates>-123.409484603286,54.7610583120503</coordinates></Point>
  </Placemark>
  <Placemark>
	<name>CARP4-171</name>
      <Point><coordinates>-123.325503708577,54.7267154752238</coordinates></Point>
  </Placemark>
  <Placemark>
	<name>CARP4-172</name>
      <Point><coordinates>-123.424214719046,54.7782812255177</coordinates></Point>
  </Placemark>
  <Placemark>
	<name>CARP4-173</name>
      <Point><coordinates>-123.373922950797,54.7960568532783</coordinates></Point>
  </Placemark>
  <Placemark>
	<name>CARP4-174</name>
      <Point><coordinates>-123.360828044777,54.7932762138631</coordinates></Point>
  </Placemark>
  <Placemark>
	<name>CARP4-175</name>
      <Point><coordinates>-123.246978012645,54.77547870966</coordinates></Point>
  </Placemark>
  <Placemark>
	<name>CARP4-176</name>
      <Point><coordinates>-123.336164385645,54.7941175045354</coordinates></Point>
  </Placemark>
  <Placemark>
	<name>CARP4-177</name>
      <Point><coordinates>-123.346008317972,54.8197811427728</coordinates></Point>
  </Placemark>
  <Placemark>
	<name>CARP4-178</name>
      <Point><coordinates>-123.39901138838,54.7595354349754</coordinates></Point>
  </Placemark>
  <Placemark>
	<name>CARP4-179</name>
      <Point><coordinates>-123.33693194831,54.7970983903743</coordinates></Point>
  </Placemark>
  <Placemark>
	<name>CARP4-180</name>
      <Point><coordinates>-123.34995634609,54.8150869401608</coordinates></Point>
  </Placemark>
  <Placemark>
	<name>CARP4-181</name>
      <Point><coordinates>-123.31714313334,54.7282706836625</coordinates></Point>
  </Placemark>
  <Placemark>
	<name>CARP4-182</name>
      <Point><coordinates>-123.344070281963,54.7242610987311</coordinates></Point>
  </Placemark>
  <Placemark>
	<name>CARP4-183</name>
      <Point><coordinates>-123.388349993662,54.7856458329613</coordinates></Point>
  </Placemark>
  <Placemark>
	<name>CARP4-184</name>
      <Point><coordinates>-123.31824921392,54.7790428554047</coordinates></Point>
  </Placemark>
  <Placemark>
	<name>CARP4-185</name>
      <Point><coordinates>-123.36768826253,54.7976889260838</coordinates></Point>
  </Placemark>
  <Placemark>
	<name>CARP4-186</name>
      <Point><coordinates>-123.420724009751,54.7832787388891</coordinates></Point>
  </Placemark>
  <Placemark>
	<name>CARP4-187</name>
      <Point><coordinates>-123.380104055385,54.727241663308</coordinates></Point>
  </Placemark>
  <Placemark>
	<name>CARP4-188</name>
      <Point><coordinates>-123.342552441068,54.7947989360702</coordinates></Point>
  </Placemark>
  <Placemark>
	<name>CARP4-189</name>
      <Point><coordinates>-123.425026839273,54.7694592078508</coordinates></Point>
  </Placemark>
  <Placemark>
	<name>CARP4-190</name>
      <Point><coordinates>-123.370976766366,54.7124237138269</coordinates></Point>
  </Placemark>
  <Placemark>
	<name>CARP4-191</name>
      <Point><coordinates>-123.367108289014,54.8026860392036</coordinates></Point>
  </Placemark>
  <Placemark>
	<name>CARP4-192</name>
      <Point><coordinates>-123.300118013256,54.7303504322358</coordinates></Point>
  </Placemark>
  <Placemark>
	<name>CARP4-193</name>
      <Point><coordinates>-123.383868207756,54.7895175795567</coordinates></Point>
  </Placemark>
  <Placemark>
	<name>CARP4-194</name>
      <Point><coordinates>-123.36478398998,54.7557525038183</coordinates></Point>
  </Placemark>
  <Placemark>
	<name>CARP4-195</name>
      <Point><coordinates>-123.383979919372,54.7903688726252</coordinates></Point>
  </Placemark>
  <Placemark>
	<name>CARP4-196</name>
      <Point><coordinates>-123.369309523683,54.7951282873398</coordinates></Point>
  </Placemark>
  <Placemark>
	<name>CARP4-197</name>
      <Point><coordinates>-123.328392292587,54.7271542056259</coordinates></Point>
  </Placemark>
  <Placemark>
	<name>CARP4-198</name>
      <Point><coordinates>-123.329424815963,54.8004772604503</coordinates></Point>
  </Placemark>
  <Placemark>
	<name>CARP4-199</name>
      <Point><coordinates>-123.346705595701,54.8199825655437</coordinates></Point>
  </Placemark>
  <Placemark>
	<name>CARP4-200</name>
      <Point><coordinates>-123.378632502989,54.7854369413562</coordinates></Point>
  </Placemark>
  <Placemark>
	<name>CARP4-201</name>
      <Point><coordinates>-123.324488093965,54.7918328219131</coordinates></Point>
  </Placemark>
  <Placemark>
	<name>CARP4-202</name>
      <Point><coordinates>-123.380498121633,54.7222796613369</coordinates></Point>
  </Placemark>
  <Placemark>
	<name>CARP4-203</name>
      <Point><coordinates>-123.270185387351,54.757988985721</coordinates></Point>
  </Placemark>
  <Placemark>
	<name>CARP4-204</name>
      <Point><coordinates>-123.397326764728,54.7808611086578</coordinates></Point>
  </Placemark>
  <Placemark>
	<name>CARP4-205</name>
      <Point><coordinates>-123.317608562488,54.7925387748244</coordinates></Point>
  </Placemark>
  <Placemark>
	<name>CARP4-206</name>
      <Point><coordinates>-123.273985041629,54.7702093839405</coordinates></Point>
  </Placemark>
  <Placemark>
	<name>CARP4-207</name>
      <Point><coordinates>-123.368345401718,54.7616983018735</coordinates></Point>
  </Placemark>
  <Placemark>
	<name>CARP4-208</name>
      <Point><coordinates>-123.369031471497,54.7918741590488</coordinates></Point>
  </Placemark>
  <Placemark>
	<name>CARP4-209</name>
      <Point><coordinates>-123.350361601428,54.7180232659111</coordinates></Point>
  </Placemark>
  <Placemark>
	<name>CARP4-210</name>
      <Point><coordinates>-123.375720199012,54.7623905586188</coordinates></Point>
  </Placemark>
  <Placemark>
	<name>CARP4-211</name>
      <Point><coordinates>-123.36836046542,54.7933677608452</coordinates></Point>
  </Placemark>
  <Placemark>
	<name>CARP4-212</name>
      <Point><coordinates>-123.366135705644,54.7139285596683</coordinates></Point>
  </Placemark>
  <Placemark>
	<name>CARP4-213</name>
      <Point><coordinates>-123.26807900949,54.7726732242013</coordinates></Point>
  </Placemark>
  <Placemark>
	<name>CARP4-214</name>
      <Point><coordinates>-123.343348179085,54.7915024864349</coordinates></Point>
  </Placemark>
  <Placemark>
	<name>CARP4-215</name>
      <Point><coordinates>-123.38151098515,54.7931464423909</coordinates></Point>
  </Placemark>
  <Placemark>
	<name>CARP4-216</name>
      <Point><coordinates>-123.260400663157,54.7636132763202</coordinates></Point>
  </Placemark>
  <Placemark>
	<name>CARP4-217</name>
      <Point><coordinates>-123.344926054242,54.8157768125344</coordinates></Point>
  </Placemark>
  <Placemark>
	<name>CARP4-218</name>
      <Point><coordinates>-123.328894649229,54.7256188294308</coordinates></Point>
  </Placemark>
  <Placemark>
	<name>CARP4-219</name>
      <Point><coordinates>-123.3818287473,54.7174521134008</coordinates></Point>
  </Placemark>
  <Placemark>
	<name>CARP4-220</name>
      <Point><coordinates>-123.341602929153,54.7706378330138</coordinates></Point>
  </Placemark>
  <Placemark>
	<name>CARP4-221</name>
      <Point><coordinates>-123.327656447972,54.8011821861236</coordinates></Point>
  </Placemark>
  <Placemark>
	<name>CARP4-222</name>
      <Point><coordinates>-123.371405784424,54.7159652290466</coordinates></Point>
  </Placemark>
  <Placemark>
	<name>CARP4-223</name>
      <Point><coordinates>-123.37143893178,54.7832018084211</coordinates></Point>
  </Placemark>
  <Placemark>
	<name>CARP4-224</name>
      <Point><coordinates>-123.367231630944,54.7594747168838</coordinates></Point>
  </Placemark>
  <Placemark>
	<name>CARP4-225</name>
      <Point><coordinates>-123.366891165353,54.7908917745474</coordinates></Point>
  </Placemark>
  <Placemark>
	<name>CARP4-226</name>
      <Point><coordinates>-123.371859678523,54.7860209954097</coordinates></Point>
  </Placemark>
  <Placemark>
	<name>CARP4-227</name>
      <Point><coordinates>-123.389435425468,54.7842154289618</coordinates></Point>
  </Placemark>
  <Placemark>
	<name>CARP4-228</name>
      <Point><coordinates>-123.385473608397,54.7824593082485</coordinates></Point>
  </Placemark>
  <Placemark>
	<name>CARP4-229</name>
      <Point><coordinates>-123.359207263224,54.7703295634156</coordinates></Point>
  </Placemark>
</Folder>
</Document></kml>
