<?xml version="1.0" standalone="yes"?>
<gpx xmlns="http://www.topografix.com/GPX/1/1" creator="KML2GPX.COM" version="1.1" xmlns:xsi="http://www.w3.org/2001/XMLSchema-instance" xsi:schemaLocation="http://www.topografix.com/GPX/1/1 http://www.topografix.com/GPX/1/1/gpx.xsd">
    <metadata>
        <name><![CDATA[carp_oc6_Z2.kml]]></name>
        <desc><![CDATA[Converted from a KML file KML2GPX.COM]]></desc>
                </metadata>

                                                                                
                <wpt lat="54.7466900413224" lon="-123.406152341894">
                                                            <ele>0</ele>
                    <name><![CDATA[CARP6-Z2-8]]></name>
                    <cmt><![CDATA[Waypoint no: 1]]></cmt>
                    <desc><![CDATA[This is waypoint no: 1]]></desc>
                </wpt>
                                                                                                                            
                <wpt lat="54.76528970888621" lon="-123.363985741543">
                                                            <ele>0</ele>
                    <name><![CDATA[CARP6-Z2-34]]></name>
                    <cmt><![CDATA[Waypoint no: 2]]></cmt>
                    <desc><![CDATA[This is waypoint no: 2]]></desc>
                </wpt>
                                                                                                                            
                <wpt lat="54.76092803184011" lon="-123.372086477032">
                                                            <ele>0</ele>
                    <name><![CDATA[CARP6-Z2-62]]></name>
                    <cmt><![CDATA[Waypoint no: 3]]></cmt>
                    <desc><![CDATA[This is waypoint no: 3]]></desc>
                </wpt>
                                                                                                                            
                <wpt lat="54.7823639609953" lon="-123.373523180627">
                                                            <ele>0</ele>
                    <name><![CDATA[CARP6-Z2-90]]></name>
                    <cmt><![CDATA[Waypoint no: 4]]></cmt>
                    <desc><![CDATA[This is waypoint no: 4]]></desc>
                </wpt>
                                                                                                                            
                <wpt lat="54.77828681628359" lon="-123.426669755617">
                                                            <ele>0</ele>
                    <name><![CDATA[CARP6-Z2-100]]></name>
                    <cmt><![CDATA[Waypoint no: 5]]></cmt>
                    <desc><![CDATA[This is waypoint no: 5]]></desc>
                </wpt>
                                                                                                                            
                <wpt lat="54.7857168087639" lon="-123.382417026131">
                                                            <ele>0</ele>
                    <name><![CDATA[CARP6-Z2-119]]></name>
                    <cmt><![CDATA[Waypoint no: 6]]></cmt>
                    <desc><![CDATA[This is waypoint no: 6]]></desc>
                </wpt>
                                                                                                                            
                <wpt lat="54.7761432410196" lon="-123.388881978678">
                                                            <ele>0</ele>
                    <name><![CDATA[CARP6-Z2-137]]></name>
                    <cmt><![CDATA[Waypoint no: 7]]></cmt>
                    <desc><![CDATA[This is waypoint no: 7]]></desc>
                </wpt>
                                                                                                                            
                <wpt lat="54.78238097631959" lon="-123.388231922656">
                                                            <ele>0</ele>
                    <name><![CDATA[CARP6-Z2-146]]></name>
                    <cmt><![CDATA[Waypoint no: 8]]></cmt>
                    <desc><![CDATA[This is waypoint no: 8]]></desc>
                </wpt>
                                                                                                                            
                <wpt lat="54.7619669419195" lon="-123.40432703372">
                                                            <ele>0</ele>
                    <name><![CDATA[CARP6-Z2-155]]></name>
                    <cmt><![CDATA[Waypoint no: 9]]></cmt>
                    <desc><![CDATA[This is waypoint no: 9]]></desc>
                </wpt>
                                                                                                                            
                <wpt lat="54.76809520455441" lon="-123.356541249493">
                                                            <ele>0</ele>
                    <name><![CDATA[CARP6-Z2-168]]></name>
                    <cmt><![CDATA[Waypoint no: 10]]></cmt>
                    <desc><![CDATA[This is waypoint no: 10]]></desc>
                </wpt>
                                                                                                                            
                <wpt lat="54.7582925271522" lon="-123.385973155612">
                                                            <ele>0</ele>
                    <name><![CDATA[CARP6-Z2-237]]></name>
                    <cmt><![CDATA[Waypoint no: 11]]></cmt>
                    <desc><![CDATA[This is waypoint no: 11]]></desc>
                </wpt>
                                                                                                                            
                <wpt lat="54.77272380490231" lon="-123.402747422636">
                                                            <ele>0</ele>
                    <name><![CDATA[CARP6-Z2-285]]></name>
                    <cmt><![CDATA[Waypoint no: 12]]></cmt>
                    <desc><![CDATA[This is waypoint no: 12]]></desc>
                </wpt>
                                                                                                                            
                <wpt lat="54.75747928254181" lon="-123.390779190484">
                                                            <ele>0</ele>
                    <name><![CDATA[CARP6-Z2-298]]></name>
                    <cmt><![CDATA[Waypoint no: 13]]></cmt>
                    <desc><![CDATA[This is waypoint no: 13]]></desc>
                </wpt>
                                                                                                                            
                <wpt lat="54.7680376423362" lon="-123.406354944598">
                                                            <ele>0</ele>
                    <name><![CDATA[CARP6-Z2-346]]></name>
                    <cmt><![CDATA[Waypoint no: 14]]></cmt>
                    <desc><![CDATA[This is waypoint no: 14]]></desc>
                </wpt>
                                                                                                                            
                <wpt lat="54.7578740766024" lon="-123.406282452099">
                                                            <ele>0</ele>
                    <name><![CDATA[CARP6-Z2-359]]></name>
                    <cmt><![CDATA[Waypoint no: 15]]></cmt>
                    <desc><![CDATA[This is waypoint no: 15]]></desc>
                </wpt>
                                                                                                                            
                <wpt lat="54.7522822472304" lon="-123.40746068937">
                                                            <ele>0</ele>
                    <name><![CDATA[CARP6-Z2-363]]></name>
                    <cmt><![CDATA[Waypoint no: 16]]></cmt>
                    <desc><![CDATA[This is waypoint no: 16]]></desc>
                </wpt>
                                                                                                                            
                <wpt lat="54.7732995111532" lon="-123.400143392639">
                                                            <ele>0</ele>
                    <name><![CDATA[CARP6-Z2-376]]></name>
                    <cmt><![CDATA[Waypoint no: 17]]></cmt>
                    <desc><![CDATA[This is waypoint no: 17]]></desc>
                </wpt>
                                                                                                                            
                <wpt lat="54.7711950237874" lon="-123.409560838157">
                                                            <ele>0</ele>
                    <name><![CDATA[CARP6-Z2-398]]></name>
                    <cmt><![CDATA[Waypoint no: 18]]></cmt>
                    <desc><![CDATA[This is waypoint no: 18]]></desc>
                </wpt>
                                                                                                                            
                <wpt lat="54.7672431584423" lon="-123.35966572775">
                                                            <ele>0</ele>
                    <name><![CDATA[CARP6-Z2-409]]></name>
                    <cmt><![CDATA[Waypoint no: 19]]></cmt>
                    <desc><![CDATA[This is waypoint no: 19]]></desc>
                </wpt>
                                                                                                                            
                <wpt lat="54.7642748633162" lon="-123.371110166911">
                                                            <ele>0</ele>
                    <name><![CDATA[CARP6-Z2-420]]></name>
                    <cmt><![CDATA[Waypoint no: 20]]></cmt>
                    <desc><![CDATA[This is waypoint no: 20]]></desc>
                </wpt>
                                                            
                    
    
</gpx>