<?xml version="1.0" encoding="UTF-8"?>
<kml xmlns="http://www.opengis.net/kml/2.2" xmlns:gx="http://www.google.com/kml/ext/2.2" xmlns:kml="http://www.opengis.net/kml/2.2" xmlns:atom="http://www.w3.org/2005/Atom">
<Document>
	<name>Carp_oc5_Z2.kml</name>
	<StyleMap id="msn_ylw-pushpin">
		<Pair>
			<key>normal</key>
			<styleUrl>#sn_ylw-pushpin</styleUrl>
		</Pair>
		<Pair>
			<key>highlight</key>
			<styleUrl>#sh_ylw-pushpin0</styleUrl>
		</Pair>
	</StyleMap>
	<StyleMap id="msn_ylw-pushpin0">
		<Pair>
			<key>normal</key>
			<styleUrl>#sn_ylw-pushpin1</styleUrl>
		</Pair>
		<Pair>
			<key>highlight</key>
			<styleUrl>#sh_ylw-pushpin</styleUrl>
		</Pair>
	</StyleMap>
	<StyleMap id="msn_ylw-pushpin1">
		<Pair>
			<key>normal</key>
			<styleUrl>#sn_ylw-pushpin0</styleUrl>
		</Pair>
		<Pair>
			<key>highlight</key>
			<styleUrl>#sh_ylw-pushpin1</styleUrl>
		</Pair>
	</StyleMap>
	<Style id="sh_ylw-pushpin">
		<IconStyle>
			<color>ffcf6ffd</color>
			<scale>1.2</scale>
		</IconStyle>
		<BalloonStyle>
		</BalloonStyle>
	</Style>
	<Style id="sh_ylw-pushpin0">
		<IconStyle>
			<color>ffff66fd</color>
			<scale>1.2</scale>
		</IconStyle>
		<BalloonStyle>
		</BalloonStyle>
	</Style>
	<Style id="sh_ylw-pushpin1">
		<IconStyle>
			<color>ffff66fd</color>
			<scale>1.2</scale>
		</IconStyle>
		<BalloonStyle>
		</BalloonStyle>
	</Style>
	<Style id="sn_ylw-pushpin">
		<IconStyle>
			<color>ffff66fd</color>
		</IconStyle>
		<BalloonStyle>
		</BalloonStyle>
	</Style>
	<Style id="sn_ylw-pushpin0">
		<IconStyle>
			<color>ffff66fd</color>
		</IconStyle>
		<BalloonStyle>
		</BalloonStyle>
	</Style>
	<Style id="sn_ylw-pushpin1">
		<IconStyle>
			<color>ffcf6ffd</color>
		</IconStyle>
		<BalloonStyle>
		</BalloonStyle>
	</Style>
	<Folder>
		<name>Carp_oc5_Z2</name>
		<Placemark>
			<name>CARP5-Z2-10</name>
			<styleUrl>#msn_ylw-pushpin</styleUrl>
			<Point>
				<coordinates>-123.40328273952,54.7674719573028,0</coordinates>
			</Point>
		</Placemark>
		<Placemark>
			<name>CARP5-Z2-16</name>
			<styleUrl>#msn_ylw-pushpin1</styleUrl>
			<Point>
				<coordinates>-123.378552357579,54.78914370299781,0</coordinates>
			</Point>
		</Placemark>
		<Placemark>
			<name>CARP5-Z2-17</name>
			<styleUrl>#msn_ylw-pushpin</styleUrl>
			<Point>
				<coordinates>-123.409233917868,54.7723025691695,0</coordinates>
			</Point>
		</Placemark>
		<Placemark>
			<name>CARP5-Z2-27</name>
			<styleUrl>#msn_ylw-pushpin1</styleUrl>
			<Point>
				<coordinates>-123.386675657048,54.7584586785835,0</coordinates>
			</Point>
		</Placemark>
		<Placemark>
			<name>CARP5-Z2-41</name>
			<styleUrl>#msn_ylw-pushpin</styleUrl>
			<Point>
				<coordinates>-123.377021610966,54.7809364121428,0</coordinates>
			</Point>
		</Placemark>
		<Placemark>
			<name>CARP5-Z2-56</name>
			<styleUrl>#msn_ylw-pushpin</styleUrl>
			<Point>
				<coordinates>-123.419727501401,54.77480691639709,0</coordinates>
			</Point>
		</Placemark>
		<Placemark>
			<name>CARP5-Z2-66</name>
			<styleUrl>#msn_ylw-pushpin1</styleUrl>
			<Point>
				<coordinates>-123.393882535335,54.7724720152966,0</coordinates>
			</Point>
		</Placemark>
		<Placemark>
			<name>CARP5-Z2-69</name>
			<styleUrl>#msn_ylw-pushpin1</styleUrl>
			<Point>
				<coordinates>-123.390864075581,54.7732846845044,0</coordinates>
			</Point>
		</Placemark>
		<Placemark>
			<name>CARP5-Z2-70</name>
			<styleUrl>#msn_ylw-pushpin1</styleUrl>
			<Point>
				<coordinates>-123.372086477032,54.7611562371076,0</coordinates>
			</Point>
		</Placemark>
		<Placemark>
			<name>CARP5-Z2-84</name>
			<styleUrl>#msn_ylw-pushpin</styleUrl>
			<Point>
				<coordinates>-123.406676623895,54.77455944972989,0</coordinates>
			</Point>
		</Placemark>
		<Placemark>
			<name>CARP5-Z2-97</name>
			<styleUrl>#msn_ylw-pushpin</styleUrl>
			<Point>
				<coordinates>-123.39784299771,54.78320383401821,0</coordinates>
			</Point>
		</Placemark>
		<Placemark>
			<name>CARP5-Z2-98</name>
			<styleUrl>#msn_ylw-pushpin</styleUrl>
			<Point>
				<coordinates>-123.418346473698,54.77631028969649,0</coordinates>
			</Point>
		</Placemark>
		<Placemark>
			<name>CARP5-Z2-103</name>
			<styleUrl>#msn_ylw-pushpin</styleUrl>
			<Point>
				<coordinates>-123.422697532963,54.77113594390689,0</coordinates>
			</Point>
		</Placemark>
		<Placemark>
			<name>CARP5-Z2-120</name>
			<styleUrl>#msn_ylw-pushpin</styleUrl>
			<Point>
				<coordinates>-123.387679910466,54.7772393670657,0</coordinates>
			</Point>
		</Placemark>
		<Placemark>
			<name>CARP5-Z2-150</name>
			<styleUrl>#msn_ylw-pushpin1</styleUrl>
			<Point>
				<coordinates>-123.36218569029,54.7635028989257,0</coordinates>
			</Point>
		</Placemark>
		<Placemark>
			<name>CARP5-Z2-167</name>
			<styleUrl>#msn_ylw-pushpin1</styleUrl>
			<Point>
				<coordinates>-123.406852490881,54.7572696660272,0</coordinates>
			</Point>
		</Placemark>
		<Placemark>
			<name>CARP5-Z2-178</name>
			<styleUrl>#msn_ylw-pushpin1</styleUrl>
			<Point>
				<coordinates>-123.39901138838,54.7595354349754,0</coordinates>
			</Point>
		</Placemark>
		<Placemark>
			<name>CARP5-Z2-200</name>
			<styleUrl>#msn_ylw-pushpin0</styleUrl>
			<Point>
				<coordinates>-123.378632502989,54.7854369413562,0</coordinates>
			</Point>
		</Placemark>
		<Placemark>
			<name>CARP5-Z2-210</name>
			<styleUrl>#msn_ylw-pushpin1</styleUrl>
			<Point>
				<coordinates>-123.375720199012,54.7623905586188,0</coordinates>
			</Point>
		</Placemark>
		<Placemark>
			<name>CARP5-Z2-227</name>
			<styleUrl>#msn_ylw-pushpin</styleUrl>
			<Point>
				<coordinates>-123.389435425468,54.7842154289618,0</coordinates>
			</Point>
		</Placemark>
		<Placemark>
			<name>CARP5-Z2-229</name>
			<styleUrl>#msn_ylw-pushpin1</styleUrl>
			<Point>
				<coordinates>-123.359207263224,54.7703295634156,0</coordinates>
			</Point>
		</Placemark>
	</Folder>
</Document>
</kml>
