<?xml version="1.0" standalone="yes"?>
<gpx xmlns="http://www.topografix.com/GPX/1/1" creator="KML2GPX.COM" version="1.1" xmlns:xsi="http://www.w3.org/2001/XMLSchema-instance" xsi:schemaLocation="http://www.topografix.com/GPX/1/1 http://www.topografix.com/GPX/1/1/gpx.xsd">
    <metadata>
        <name><![CDATA[carp_occ3_z2.kml]]></name>
        <desc><![CDATA[Converted from a KML file KML2GPX.COM]]></desc>
                </metadata>

                                                                                
                <wpt lat="54.77607576148471" lon="-123.420885707254">
                                                            <ele>0</ele>
                    <name><![CDATA[CARP3-Z2-290]]></name>
                    <cmt><![CDATA[Waypoint no: 1]]></cmt>
                    <desc><![CDATA[This is waypoint no: 1]]></desc>
                </wpt>
                                                                                                                            
                <wpt lat="54.78660101895721" lon="-123.40466779136">
                                                            <ele>0</ele>
                    <name><![CDATA[CARP3-Z2-303]]></name>
                    <cmt><![CDATA[Waypoint no: 2]]></cmt>
                    <desc><![CDATA[This is waypoint no: 2]]></desc>
                </wpt>
                                                                                                                            
                <wpt lat="54.7582353851276" lon="-123.40328273952">
                                                            <ele>0</ele>
                    <name><![CDATA[CARP3-Z2-6]]></name>
                    <cmt><![CDATA[Waypoint no: 3]]></cmt>
                    <desc><![CDATA[This is waypoint no: 3]]></desc>
                </wpt>
                                                                                                                            
                <wpt lat="54.77444181879379" lon="-123.387836485695">
                                                            <ele>0</ele>
                    <name><![CDATA[CARP3-Z2-45]]></name>
                    <cmt><![CDATA[Waypoint no: 4]]></cmt>
                    <desc><![CDATA[This is waypoint no: 4]]></desc>
                </wpt>
                                                                                                                            
                <wpt lat="54.7594828844739" lon="-123.389680828716">
                                                            <ele>0</ele>
                    <name><![CDATA[CARP3-Z2-69]]></name>
                    <cmt><![CDATA[Waypoint no: 5]]></cmt>
                    <desc><![CDATA[This is waypoint no: 5]]></desc>
                </wpt>
                                                                                                                            
                <wpt lat="54.76945920785081" lon="-123.406119632523">
                                                            <ele>0</ele>
                    <name><![CDATA[CARP3-Z2-83]]></name>
                    <cmt><![CDATA[Waypoint no: 6]]></cmt>
                    <desc><![CDATA[This is waypoint no: 6]]></desc>
                </wpt>
                                                                                                                            
                <wpt lat="54.7823639609953" lon="-123.373523180627">
                                                            <ele>0</ele>
                    <name><![CDATA[CARP3-Z2-90]]></name>
                    <cmt><![CDATA[Waypoint no: 7]]></cmt>
                    <desc><![CDATA[This is waypoint no: 7]]></desc>
                </wpt>
                                                                                                                            
                <wpt lat="54.77020938394049" lon="-123.403789525946">
                                                            <ele>0</ele>
                    <name><![CDATA[CARP3-Z2-120]]></name>
                    <cmt><![CDATA[Waypoint no: 8]]></cmt>
                    <desc><![CDATA[This is waypoint no: 8]]></desc>
                </wpt>
                                                                                                                            
                <wpt lat="54.7617330150478" lon="-123.399710072441">
                                                            <ele>0</ele>
                    <name><![CDATA[CARP3-Z2-159]]></name>
                    <cmt><![CDATA[Waypoint no: 9]]></cmt>
                    <desc><![CDATA[This is waypoint no: 9]]></desc>
                </wpt>
                                                                                                                            
                <wpt lat="54.7718635907072" lon="-123.404211495364">
                                                            <ele>0</ele>
                    <name><![CDATA[CARP3-Z2-167]]></name>
                    <cmt><![CDATA[Waypoint no: 10]]></cmt>
                    <desc><![CDATA[This is waypoint no: 10]]></desc>
                </wpt>
                                                                                                                            
                <wpt lat="54.7601105676698" lon="-123.382068893189">
                                                            <ele>0</ele>
                    <name><![CDATA[CARP3-Z2-195]]></name>
                    <cmt><![CDATA[Waypoint no: 11]]></cmt>
                    <desc><![CDATA[This is waypoint no: 11]]></desc>
                </wpt>
                                                                                                                            
                <wpt lat="54.7822891928536" lon="-123.383374495215">
                                                            <ele>0</ele>
                    <name><![CDATA[CARP3-Z2-207]]></name>
                    <cmt><![CDATA[Waypoint no: 12]]></cmt>
                    <desc><![CDATA[This is waypoint no: 12]]></desc>
                </wpt>
                                                                                                                            
                <wpt lat="54.7829451226719" lon="-123.376629450779">
                                                            <ele>0</ele>
                    <name><![CDATA[CARP3-Z2-263]]></name>
                    <cmt><![CDATA[Waypoint no: 13]]></cmt>
                    <desc><![CDATA[This is waypoint no: 13]]></desc>
                </wpt>
                                                                                                                            
                <wpt lat="54.77272380490231" lon="-123.402747422636">
                                                            <ele>0</ele>
                    <name><![CDATA[CARP3-Z2-285]]></name>
                    <cmt><![CDATA[Waypoint no: 14]]></cmt>
                    <desc><![CDATA[This is waypoint no: 14]]></desc>
                </wpt>
                                                                                                                            
                <wpt lat="54.77771259470811" lon="-123.404130867859">
                                                            <ele>0</ele>
                    <name><![CDATA[CARP3-Z2-299]]></name>
                    <cmt><![CDATA[Waypoint no: 15]]></cmt>
                    <desc><![CDATA[This is waypoint no: 15]]></desc>
                </wpt>
                                                                                                                            
                <wpt lat="54.7602704415412" lon="-123.40728121269">
                                                            <ele>0</ele>
                    <name><![CDATA[CARP3-Z2-353]]></name>
                    <cmt><![CDATA[Waypoint no: 16]]></cmt>
                    <desc><![CDATA[This is waypoint no: 16]]></desc>
                </wpt>
                                                                                                                            
                <wpt lat="54.7596316061249" lon="-123.407734012634">
                                                            <ele>0</ele>
                    <name><![CDATA[CARP3-Z2-354]]></name>
                    <cmt><![CDATA[Waypoint no: 17]]></cmt>
                    <desc><![CDATA[This is waypoint no: 17]]></desc>
                </wpt>
                                                                                                                            
                <wpt lat="54.7770790642012" lon="-123.401105598959">
                                                            <ele>0</ele>
                    <name><![CDATA[CARP3-Z2-369]]></name>
                    <cmt><![CDATA[Waypoint no: 18]]></cmt>
                    <desc><![CDATA[This is waypoint no: 18]]></desc>
                </wpt>
                                                                                                                            
                <wpt lat="54.7761009389076" lon="-123.402176284317">
                                                            <ele>0</ele>
                    <name><![CDATA[CARP3-Z2-387]]></name>
                    <cmt><![CDATA[Waypoint no: 19]]></cmt>
                    <desc><![CDATA[This is waypoint no: 19]]></desc>
                </wpt>
                                                                                                                            
                <wpt lat="54.77360015452069" lon="-123.412380531004">
                                                            <ele>0</ele>
                    <name><![CDATA[CARP3-Z2-392]]></name>
                    <cmt><![CDATA[Waypoint no: 20]]></cmt>
                    <desc><![CDATA[This is waypoint no: 20]]></desc>
                </wpt>
                                                                                                                            
                <wpt lat="54.77657720372029" lon="-123.385468927697">
                                                            <ele>0</ele>
                    <name><![CDATA[CARP3-Z2-393]]></name>
                    <cmt><![CDATA[Waypoint no: 21]]></cmt>
                    <desc><![CDATA[This is waypoint no: 21]]></desc>
                </wpt>
                                                                                                                            
                <wpt lat="54.7636546772735" lon="-123.399606943662">
                                                            <ele>0</ele>
                    <name><![CDATA[CARP3-Z2-405]]></name>
                    <cmt><![CDATA[Waypoint no: 22]]></cmt>
                    <desc><![CDATA[This is waypoint no: 22]]></desc>
                </wpt>
                                                                                                                            
                <wpt lat="54.7642748633162" lon="-123.371110166911">
                                                            <ele>0</ele>
                    <name><![CDATA[CARP3-Z2-420]]></name>
                    <cmt><![CDATA[Waypoint no: 23]]></cmt>
                    <desc><![CDATA[This is waypoint no: 23]]></desc>
                </wpt>
                                                            
                    
    
</gpx>