<?xml version="1.0" standalone="yes"?>
<gpx xmlns="http://www.topografix.com/GPX/1/1" creator="KML2GPX.COM" version="1.1" xmlns:xsi="http://www.w3.org/2001/XMLSchema-instance" xsi:schemaLocation="http://www.topografix.com/GPX/1/1 http://www.topografix.com/GPX/1/1/gpx.xsd">
    <metadata>
        <name><![CDATA[Carp_oc4_Z4.kml]]></name>
        <desc><![CDATA[Converted from a KML file KML2GPX.COM]]></desc>
                </metadata>

                                                                                
                <wpt lat="54.7613579357359" lon="-123.302775690908">
                                                            <ele>0</ele>
                    <name><![CDATA[CARP4-Z4-4]]></name>
                    <cmt><![CDATA[Waypoint no: 1]]></cmt>
                    <desc><![CDATA[This is waypoint no: 1]]></desc>
                </wpt>
                                                                                                                            
                <wpt lat="54.7850121313373" lon="-123.243253916153">
                                                            <ele>0</ele>
                    <name><![CDATA[CARP4-Z4-7]]></name>
                    <cmt><![CDATA[Waypoint no: 2]]></cmt>
                    <desc><![CDATA[This is waypoint no: 2]]></desc>
                </wpt>
                                                                                                                            
                <wpt lat="54.7678441995262" lon="-123.324694244839">
                                                            <ele>0</ele>
                    <name><![CDATA[CARP4-Z4-13]]></name>
                    <cmt><![CDATA[Waypoint no: 3]]></cmt>
                    <desc><![CDATA[This is waypoint no: 3]]></desc>
                </wpt>
                                                                                                                            
                <wpt lat="54.7718520689207" lon="-123.262277379216">
                                                            <ele>0</ele>
                    <name><![CDATA[CARP4-Z4-18]]></name>
                    <cmt><![CDATA[Waypoint no: 4]]></cmt>
                    <desc><![CDATA[This is waypoint no: 4]]></desc>
                </wpt>
                                                                                                                            
                <wpt lat="54.7705676625832" lon="-123.250733334983">
                                                            <ele>0</ele>
                    <name><![CDATA[CARP4-Z4-23]]></name>
                    <cmt><![CDATA[Waypoint no: 5]]></cmt>
                    <desc><![CDATA[This is waypoint no: 5]]></desc>
                </wpt>
                                                                                                                            
                <wpt lat="54.7621277646107" lon="-123.290979611244">
                                                            <ele>0</ele>
                    <name><![CDATA[CARP4-Z4-33]]></name>
                    <cmt><![CDATA[Waypoint no: 6]]></cmt>
                    <desc><![CDATA[This is waypoint no: 6]]></desc>
                </wpt>
                                                                                                                            
                <wpt lat="54.7443944136949" lon="-123.277147036377">
                                                            <ele>0</ele>
                    <name><![CDATA[CARP4-Z4-87]]></name>
                    <cmt><![CDATA[Waypoint no: 7]]></cmt>
                    <desc><![CDATA[This is waypoint no: 7]]></desc>
                </wpt>
                                                                                                                            
                <wpt lat="54.7502917306274" lon="-123.277453177359">
                                                            <ele>0</ele>
                    <name><![CDATA[CARP4-Z4-112]]></name>
                    <cmt><![CDATA[Waypoint no: 8]]></cmt>
                    <desc><![CDATA[This is waypoint no: 8]]></desc>
                </wpt>
                                                                                                                            
                <wpt lat="54.76663163175811" lon="-123.320598610722">
                                                            <ele>0</ele>
                    <name><![CDATA[CARP4-Z4-117]]></name>
                    <cmt><![CDATA[Waypoint no: 9]]></cmt>
                    <desc><![CDATA[This is waypoint no: 9]]></desc>
                </wpt>
                                                                                                                            
                <wpt lat="54.7578005668636" lon="-123.271320799488">
                                                            <ele>0</ele>
                    <name><![CDATA[CARP4-Z4-135]]></name>
                    <cmt><![CDATA[Waypoint no: 10]]></cmt>
                    <desc><![CDATA[This is waypoint no: 10]]></desc>
                </wpt>
                                                                                                                            
                <wpt lat="54.7303037536984" lon="-123.301753340665">
                                                            <ele>0</ele>
                    <name><![CDATA[CARP4-Z4-141]]></name>
                    <cmt><![CDATA[Waypoint no: 11]]></cmt>
                    <desc><![CDATA[This is waypoint no: 11]]></desc>
                </wpt>
                                                                                                                            
                <wpt lat="54.7300588419314" lon="-123.307130333962">
                                                            <ele>0</ele>
                    <name><![CDATA[CARP4-Z4-146]]></name>
                    <cmt><![CDATA[Waypoint no: 12]]></cmt>
                    <desc><![CDATA[This is waypoint no: 12]]></desc>
                </wpt>
                                                                                                                            
                <wpt lat="54.7654071320092" lon="-123.274301941679">
                                                            <ele>0</ele>
                    <name><![CDATA[CARP4-Z4-155]]></name>
                    <cmt><![CDATA[Waypoint no: 13]]></cmt>
                    <desc><![CDATA[This is waypoint no: 13]]></desc>
                </wpt>
                                                                                                                            
                <wpt lat="54.766859622204" lon="-123.252760205006">
                                                            <ele>0</ele>
                    <name><![CDATA[CARP4-Z4-118]]></name>
                    <cmt><![CDATA[Waypoint no: 14]]></cmt>
                    <desc><![CDATA[This is waypoint no: 14]]></desc>
                </wpt>
                                                                                                                            
                <wpt lat="54.76946758802901" lon="-123.269591945156">
                                                            <ele>0</ele>
                    <name><![CDATA[CARP4-Z4-159]]></name>
                    <cmt><![CDATA[Waypoint no: 15]]></cmt>
                    <desc><![CDATA[This is waypoint no: 15]]></desc>
                </wpt>
                                                                                                                            
                <wpt lat="54.77182353637971" lon="-123.265698807759">
                                                            <ele>0</ele>
                    <name><![CDATA[CARP4-Z4-166]]></name>
                    <cmt><![CDATA[Waypoint no: 16]]></cmt>
                    <desc><![CDATA[This is waypoint no: 16]]></desc>
                </wpt>
                                                                                                                            
                <wpt lat="54.77547870966" lon="-123.246978012645">
                                                            <ele>0</ele>
                    <name><![CDATA[CARP4-Z4-175]]></name>
                    <cmt><![CDATA[Waypoint no: 17]]></cmt>
                    <desc><![CDATA[This is waypoint no: 17]]></desc>
                </wpt>
                                                                                                                            
                <wpt lat="54.7303504322358" lon="-123.300118013256">
                                                            <ele>0</ele>
                    <name><![CDATA[CARP4-Z4-192]]></name>
                    <cmt><![CDATA[Waypoint no: 18]]></cmt>
                    <desc><![CDATA[This is waypoint no: 18]]></desc>
                </wpt>
                                                                                                                            
                <wpt lat="54.7636132763202" lon="-123.260400663157">
                                                            <ele>0</ele>
                    <name><![CDATA[CARP4-Z4-216]]></name>
                    <cmt><![CDATA[Waypoint no: 19]]></cmt>
                    <desc><![CDATA[This is waypoint no: 19]]></desc>
                </wpt>
                                                                                                                            
                <wpt lat="54.7706378330138" lon="-123.341602929153">
                                                            <ele>0</ele>
                    <name><![CDATA[CARP4-Z4-220]]></name>
                    <cmt><![CDATA[Waypoint no: 20]]></cmt>
                    <desc><![CDATA[This is waypoint no: 20]]></desc>
                </wpt>
                                                            
                    
    
</gpx>