<?xml version="1.0" encoding="UTF-8"?>
<kml xmlns="http://www.opengis.net/kml/2.2" xmlns:gx="http://www.google.com/kml/ext/2.2" xmlns:kml="http://www.opengis.net/kml/2.2" xmlns:atom="http://www.w3.org/2005/Atom">
<Document>
	<name>Carp_oc4_Z4.kml</name>
	<StyleMap id="msn_ylw-pushpin">
		<Pair>
			<key>normal</key>
			<styleUrl>#sn_ylw-pushpin</styleUrl>
		</Pair>
		<Pair>
			<key>highlight</key>
			<styleUrl>#sh_ylw-pushpin</styleUrl>
		</Pair>
	</StyleMap>
	<Style id="sh_ylw-pushpin">
		<IconStyle>
			<color>ffffcc66</color>
			<scale>1.2</scale>
		</IconStyle>
		<BalloonStyle>
		</BalloonStyle>
	</Style>
	<Style id="sn_ylw-pushpin">
		<IconStyle>
			<color>ffffcc66</color>
		</IconStyle>
		<BalloonStyle>
		</BalloonStyle>
	</Style>
	<Folder>
		<name>Carp_oc4_Z4</name>
		<Placemark>
			<name>CARP4-Z4-4</name>
			<styleUrl>#msn_ylw-pushpin</styleUrl>
			<Point>
				<coordinates>-123.302775690908,54.7613579357359,0</coordinates>
			</Point>
		</Placemark>
		<Placemark>
			<name>CARP4-Z4-7</name>
			<styleUrl>#msn_ylw-pushpin</styleUrl>
			<Point>
				<coordinates>-123.243253916153,54.7850121313373,0</coordinates>
			</Point>
		</Placemark>
		<Placemark>
			<name>CARP4-Z4-13</name>
			<styleUrl>#msn_ylw-pushpin</styleUrl>
			<Point>
				<coordinates>-123.324694244839,54.7678441995262,0</coordinates>
			</Point>
		</Placemark>
		<Placemark>
			<name>CARP4-Z4-18</name>
			<styleUrl>#msn_ylw-pushpin</styleUrl>
			<Point>
				<coordinates>-123.262277379216,54.7718520689207,0</coordinates>
			</Point>
		</Placemark>
		<Placemark>
			<name>CARP4-Z4-23</name>
			<styleUrl>#msn_ylw-pushpin</styleUrl>
			<Point>
				<coordinates>-123.250733334983,54.7705676625832,0</coordinates>
			</Point>
		</Placemark>
		<Placemark>
			<name>CARP4-Z4-33</name>
			<styleUrl>#msn_ylw-pushpin</styleUrl>
			<Point>
				<coordinates>-123.290979611244,54.7621277646107,0</coordinates>
			</Point>
		</Placemark>
		<Placemark>
			<name>CARP4-Z4-87</name>
			<styleUrl>#msn_ylw-pushpin</styleUrl>
			<Point>
				<coordinates>-123.277147036377,54.7443944136949,0</coordinates>
			</Point>
		</Placemark>
		<Placemark>
			<name>CARP4-Z4-112</name>
			<styleUrl>#msn_ylw-pushpin</styleUrl>
			<Point>
				<coordinates>-123.277453177359,54.7502917306274,0</coordinates>
			</Point>
		</Placemark>
		<Placemark>
			<name>CARP4-Z4-117</name>
			<styleUrl>#msn_ylw-pushpin</styleUrl>
			<Point>
				<coordinates>-123.320598610722,54.76663163175811,0</coordinates>
			</Point>
		</Placemark>
		<Placemark>
			<name>CARP4-Z4-135</name>
			<styleUrl>#msn_ylw-pushpin</styleUrl>
			<Point>
				<coordinates>-123.271320799488,54.7578005668636,0</coordinates>
			</Point>
		</Placemark>
		<Placemark>
			<name>CARP4-Z4-141</name>
			<styleUrl>#msn_ylw-pushpin</styleUrl>
			<Point>
				<coordinates>-123.301753340665,54.7303037536984,0</coordinates>
			</Point>
		</Placemark>
		<Placemark>
			<name>CARP4-Z4-146</name>
			<styleUrl>#msn_ylw-pushpin</styleUrl>
			<Point>
				<coordinates>-123.307130333962,54.7300588419314,0</coordinates>
			</Point>
		</Placemark>
		<Placemark>
			<name>CARP4-Z4-155</name>
			<styleUrl>#msn_ylw-pushpin</styleUrl>
			<Point>
				<coordinates>-123.274301941679,54.7654071320092,0</coordinates>
			</Point>
		</Placemark>
		<Placemark>
			<name>CARP4-Z4-118</name>
			<styleUrl>#msn_ylw-pushpin</styleUrl>
			<Point>
				<coordinates>-123.252760205006,54.766859622204,0</coordinates>
			</Point>
		</Placemark>
		<Placemark>
			<name>CARP4-Z4-159</name>
			<styleUrl>#msn_ylw-pushpin</styleUrl>
			<Point>
				<coordinates>-123.269591945156,54.76946758802901,0</coordinates>
			</Point>
		</Placemark>
		<Placemark>
			<name>CARP4-Z4-166</name>
			<styleUrl>#msn_ylw-pushpin</styleUrl>
			<Point>
				<coordinates>-123.265698807759,54.77182353637971,0</coordinates>
			</Point>
		</Placemark>
		<Placemark>
			<name>CARP4-Z4-175</name>
			<styleUrl>#msn_ylw-pushpin</styleUrl>
			<Point>
				<coordinates>-123.246978012645,54.77547870966,0</coordinates>
			</Point>
		</Placemark>
		<Placemark>
			<name>CARP4-Z4-192</name>
			<styleUrl>#msn_ylw-pushpin</styleUrl>
			<Point>
				<coordinates>-123.300118013256,54.7303504322358,0</coordinates>
			</Point>
		</Placemark>
		<Placemark>
			<name>CARP4-Z4-216</name>
			<styleUrl>#msn_ylw-pushpin</styleUrl>
			<Point>
				<coordinates>-123.260400663157,54.7636132763202,0</coordinates>
			</Point>
		</Placemark>
		<Placemark>
			<name>CARP4-Z4-220</name>
			<styleUrl>#msn_ylw-pushpin</styleUrl>
			<Point>
				<coordinates>-123.341602929153,54.7706378330138,0</coordinates>
			</Point>
		</Placemark>
	</Folder>
</Document>
</kml>
