<?xml version="1.0" standalone="yes"?>
<gpx xmlns="http://www.topografix.com/GPX/1/1" creator="KML2GPX.COM" version="1.1" xmlns:xsi="http://www.w3.org/2001/XMLSchema-instance" xsi:schemaLocation="http://www.topografix.com/GPX/1/1 http://www.topografix.com/GPX/1/1/gpx.xsd">
    <metadata>
        <name><![CDATA[Carp_oc5_Z3.kml]]></name>
        <desc><![CDATA[Converted from a KML file KML2GPX.COM]]></desc>
                </metadata>

                                                                                
                <wpt lat="54.764479687536" lon="-123.356823977084">
                                                            <ele>0</ele>
                    <name><![CDATA[CARP5-Z3-29]]></name>
                    <cmt><![CDATA[Waypoint no: 1]]></cmt>
                    <desc><![CDATA[This is waypoint no: 1]]></desc>
                </wpt>
                                                                                                                            
                <wpt lat="54.749934691458" lon="-123.363317272361">
                                                            <ele>0</ele>
                    <name><![CDATA[CARP5-Z3-32]]></name>
                    <cmt><![CDATA[Waypoint no: 2]]></cmt>
                    <desc><![CDATA[This is waypoint no: 2]]></desc>
                </wpt>
                                                                                                                            
                <wpt lat="54.71961130084399" lon="-123.360161185232">
                                                            <ele>0</ele>
                    <name><![CDATA[CARP5-Z3-35]]></name>
                    <cmt><![CDATA[Waypoint no: 3]]></cmt>
                    <desc><![CDATA[This is waypoint no: 3]]></desc>
                </wpt>
                                                                                                                            
                <wpt lat="54.74266695358061" lon="-123.37150706114">
                                                            <ele>0</ele>
                    <name><![CDATA[CARP5-Z3-48]]></name>
                    <cmt><![CDATA[Waypoint no: 4]]></cmt>
                    <desc><![CDATA[This is waypoint no: 4]]></desc>
                </wpt>
                                                                                                                            
                <wpt lat="54.7255377748339" lon="-123.337546140844">
                                                            <ele>0</ele>
                    <name><![CDATA[CARP5-Z3-61]]></name>
                    <cmt><![CDATA[Waypoint no: 5]]></cmt>
                    <desc><![CDATA[This is waypoint no: 5]]></desc>
                </wpt>
                                                                                                                            
                <wpt lat="54.72241662150881" lon="-123.366349339073">
                                                            <ele>0</ele>
                    <name><![CDATA[CARP5-Z3-73]]></name>
                    <cmt><![CDATA[Waypoint no: 6]]></cmt>
                    <desc><![CDATA[This is waypoint no: 6]]></desc>
                </wpt>
                                                                                                                            
                <wpt lat="54.7186108751116" lon="-123.373191949447">
                                                            <ele>0</ele>
                    <name><![CDATA[CARP5-Z3-76]]></name>
                    <cmt><![CDATA[Waypoint no: 7]]></cmt>
                    <desc><![CDATA[This is waypoint no: 7]]></desc>
                </wpt>
                                                                                                                            
                <wpt lat="54.7260960240108" lon="-123.376934303229">
                                                            <ele>0</ele>
                    <name><![CDATA[CARP5-Z3-78]]></name>
                    <cmt><![CDATA[Waypoint no: 8]]></cmt>
                    <desc><![CDATA[This is waypoint no: 8]]></desc>
                </wpt>
                                                                                                                            
                <wpt lat="54.7659036694433" lon="-123.355759046626">
                                                            <ele>0</ele>
                    <name><![CDATA[CARP5-Z3-96]]></name>
                    <cmt><![CDATA[Waypoint no: 9]]></cmt>
                    <desc><![CDATA[This is waypoint no: 9]]></desc>
                </wpt>
                                                                                                                            
                <wpt lat="54.7381683276024" lon="-123.373195199134">
                                                            <ele>0</ele>
                    <name><![CDATA[CARP5-Z3-101]]></name>
                    <cmt><![CDATA[Waypoint no: 10]]></cmt>
                    <desc><![CDATA[This is waypoint no: 10]]></desc>
                </wpt>
                                                                                                                            
                <wpt lat="54.7253908351162" lon="-123.323534350363">
                                                            <ele>0</ele>
                    <name><![CDATA[CARP5-Z3-129]]></name>
                    <cmt><![CDATA[Waypoint no: 11]]></cmt>
                    <desc><![CDATA[This is waypoint no: 11]]></desc>
                </wpt>
                                                                                                                            
                <wpt lat="54.75434944948071" lon="-123.369729353715">
                                                            <ele>0</ele>
                    <name><![CDATA[CARP5-Z3-138]]></name>
                    <cmt><![CDATA[Waypoint no: 12]]></cmt>
                    <desc><![CDATA[This is waypoint no: 12]]></desc>
                </wpt>
                                                                                                                            
                <wpt lat="54.71920288839371" lon="-123.352634948811">
                                                            <ele>0</ele>
                    <name><![CDATA[CARP5-Z3-140]]></name>
                    <cmt><![CDATA[Waypoint no: 13]]></cmt>
                    <desc><![CDATA[This is waypoint no: 13]]></desc>
                </wpt>
                                                                                                                            
                <wpt lat="54.7531916485059" lon="-123.369352028458">
                                                            <ele>0</ele>
                    <name><![CDATA[CARP5-Z3-165]]></name>
                    <cmt><![CDATA[Waypoint no: 14]]></cmt>
                    <desc><![CDATA[This is waypoint no: 14]]></desc>
                </wpt>
                                                                                                                            
                <wpt lat="54.72827068366251" lon="-123.31714313334">
                                                            <ele>0</ele>
                    <name><![CDATA[CARP5-Z3-181]]></name>
                    <cmt><![CDATA[Waypoint no: 15]]></cmt>
                    <desc><![CDATA[This is waypoint no: 15]]></desc>
                </wpt>
                                                                                                                            
                <wpt lat="54.7242610987311" lon="-123.344070281963">
                                                            <ele>0</ele>
                    <name><![CDATA[CARP5-Z3-182]]></name>
                    <cmt><![CDATA[Waypoint no: 16]]></cmt>
                    <desc><![CDATA[This is waypoint no: 16]]></desc>
                </wpt>
                                                                                                                            
                <wpt lat="54.7124237138269" lon="-123.370976766366">
                                                            <ele>0</ele>
                    <name><![CDATA[CARP5-Z3-190]]></name>
                    <cmt><![CDATA[Waypoint no: 17]]></cmt>
                    <desc><![CDATA[This is waypoint no: 17]]></desc>
                </wpt>
                                                                                                                            
                <wpt lat="54.7271542056259" lon="-123.328392292587">
                                                            <ele>0</ele>
                    <name><![CDATA[CARP5-Z3-197]]></name>
                    <cmt><![CDATA[Waypoint no: 18]]></cmt>
                    <desc><![CDATA[This is waypoint no: 18]]></desc>
                </wpt>
                                                                                                                            
                <wpt lat="54.7180232659111" lon="-123.350361601428">
                                                            <ele>0</ele>
                    <name><![CDATA[CARP5-Z3-209]]></name>
                    <cmt><![CDATA[Waypoint no: 19]]></cmt>
                    <desc><![CDATA[This is waypoint no: 19]]></desc>
                </wpt>
                                                                                                                            
                <wpt lat="54.7174521134008" lon="-123.3818287473">
                                                            <ele>0</ele>
                    <name><![CDATA[CARP5-Z3-219]]></name>
                    <cmt><![CDATA[Waypoint no: 20]]></cmt>
                    <desc><![CDATA[This is waypoint no: 20]]></desc>
                </wpt>
                                                            
                    
    
</gpx>