<?xml version="1.0" encoding="UTF-8"?>
<kml xmlns="http://www.opengis.net/kml/2.2" xmlns:gx="http://www.google.com/kml/ext/2.2" xmlns:kml="http://www.opengis.net/kml/2.2" xmlns:atom="http://www.w3.org/2005/Atom">
<Document>
	<name>Carp_oc7_Z2.kml</name>
	<StyleMap id="msn_ylw-pushpin">
		<Pair>
			<key>normal</key>
			<styleUrl>#sn_ylw-pushpin0</styleUrl>
		</Pair>
		<Pair>
			<key>highlight</key>
			<styleUrl>#sh_ylw-pushpin</styleUrl>
		</Pair>
	</StyleMap>
	<StyleMap id="msn_ylw-pushpin0">
		<Pair>
			<key>normal</key>
			<styleUrl>#sn_ylw-pushpin</styleUrl>
		</Pair>
		<Pair>
			<key>highlight</key>
			<styleUrl>#sh_ylw-pushpin0</styleUrl>
		</Pair>
	</StyleMap>
	<Style id="sh_ylw-pushpin">
		<IconStyle>
			<color>ffcf6ffd</color>
			<scale>1.2</scale>
		</IconStyle>
	</Style>
	<Style id="sh_ylw-pushpin0">
		<IconStyle>
			<color>ffcf6ffd</color>
			<scale>1.2</scale>
		</IconStyle>
		<BalloonStyle>
		</BalloonStyle>
	</Style>
	<Style id="sn_ylw-pushpin">
		<IconStyle>
			<color>ffcf6ffd</color>
		</IconStyle>
		<BalloonStyle>
		</BalloonStyle>
	</Style>
	<Style id="sn_ylw-pushpin0">
		<IconStyle>
			<color>ffcf6ffd</color>
		</IconStyle>
	</Style>
	<Folder>
		<name>Carp_oc7_Z2</name>
		<Placemark>
			<name>CARP7-Z2-15</name>
			<styleUrl>#msn_ylw-pushpin</styleUrl>
			<Point>
				<coordinates>-123.365559241833,54.7625073228555,0</coordinates>
			</Point>
		</Placemark>
		<Placemark>
			<name>CARP7-Z2-21</name>
			<styleUrl>#msn_ylw-pushpin</styleUrl>
			<Point>
				<coordinates>-123.37228698004,54.7626811740035,0</coordinates>
			</Point>
		</Placemark>
		<Placemark>
			<name>CARP7-Z2-60</name>
			<styleUrl>#msn_ylw-pushpin</styleUrl>
			<Point>
				<coordinates>-123.39377677291,54.7582353851276,0</coordinates>
			</Point>
		</Placemark>
		<Placemark>
			<name>CARP7-Z2-65</name>
			<styleUrl>#msn_ylw-pushpin</styleUrl>
			<Point>
				<coordinates>-123.385090752155,54.78449086927,0</coordinates>
			</Point>
		</Placemark>
		<Placemark>
			<name>CARP7-Z2-103</name>
			<styleUrl>#msn_ylw-pushpin</styleUrl>
			<Point>
				<coordinates>-123.372896336616,54.7597501924959,0</coordinates>
			</Point>
		</Placemark>
		<Placemark>
			<name>CARP7-Z2-113</name>
			<styleUrl>#msn_ylw-pushpin</styleUrl>
			<Point>
				<coordinates>-123.376932522405,54.7839383880635,0</coordinates>
			</Point>
		</Placemark>
		<Placemark>
			<name>CARP7-Z2-123</name>
			<styleUrl>#msn_ylw-pushpin</styleUrl>
			<Point>
				<coordinates>-123.425825773328,54.775874257878,0</coordinates>
			</Point>
		</Placemark>
		<Placemark>
			<name>CARP7-Z2-139</name>
			<styleUrl>#msn_ylw-pushpin</styleUrl>
			<Point>
				<coordinates>-123.410629189008,54.7695146037684,0</coordinates>
			</Point>
		</Placemark>
		<Placemark>
			<name>CARP7-Z2-152</name>
			<styleUrl>#msn_ylw-pushpin</styleUrl>
			<Point>
				<coordinates>-123.40753376251,54.75575250381829,0</coordinates>
			</Point>
		</Placemark>
		<Placemark>
			<name>CARP7-Z2-172</name>
			<styleUrl>#msn_ylw-pushpin</styleUrl>
			<Point>
				<coordinates>-123.401317809778,54.772125054906,0</coordinates>
			</Point>
		</Placemark>
		<Placemark>
			<name>CARP7-Z2-186</name>
			<styleUrl>#msn_ylw-pushpin</styleUrl>
			<Point>
				<coordinates>-123.372551746853,54.7649679715915,0</coordinates>
			</Point>
		</Placemark>
		<Placemark>
			<name>CARP7-Z2-192</name>
			<styleUrl>#msn_ylw-pushpin</styleUrl>
			<Point>
				<coordinates>-123.392548915534,54.7795568516197,0</coordinates>
			</Point>
		</Placemark>
		<Placemark>
			<name>CARP7-Z2-218</name>
			<styleUrl>#msn_ylw-pushpin</styleUrl>
			<Point>
				<coordinates>-123.403098914884,54.7619669419195,0</coordinates>
			</Point>
		</Placemark>
		<Placemark>
			<name>CARP7-Z2-239</name>
			<styleUrl>#msn_ylw-pushpin</styleUrl>
			<Point>
				<coordinates>-123.389377709086,54.7757179537187,0</coordinates>
			</Point>
		</Placemark>
		<Placemark>
			<name>CARP7-Z2-259</name>
			<styleUrl>#msn_ylw-pushpin</styleUrl>
			<Point>
				<coordinates>-123.382584741965,54.75946648463471,0</coordinates>
			</Point>
		</Placemark>
		<Placemark>
			<name>CARP7-Z2-275</name>
			<styleUrl>#msn_ylw-pushpin</styleUrl>
			<Point>
				<coordinates>-123.385695687698,54.78904054557739,0</coordinates>
			</Point>
		</Placemark>
		<Placemark>
			<name>CARP7-Z2-282</name>
			<styleUrl>#msn_ylw-pushpin</styleUrl>
			<Point>
				<coordinates>-123.404962942838,54.77845875014251,0</coordinates>
			</Point>
		</Placemark>
		<Placemark>
			<name>CARP7-Z2-305</name>
			<styleUrl>#msn_ylw-pushpin</styleUrl>
			<Point>
				<coordinates>-123.393298944861,54.76356156044779,0</coordinates>
			</Point>
		</Placemark>
		<Placemark>
			<name>CARP7-Z2-313</name>
			<styleUrl>#msn_ylw-pushpin0</styleUrl>
			<Point>
				<coordinates>-123.365964104305,54.77091355352481,0</coordinates>
			</Point>
		</Placemark>
		<Placemark>
			<name>CARP7-Z2-326</name>
			<styleUrl>#msn_ylw-pushpin</styleUrl>
			<Point>
				<coordinates>-123.425837070416,54.7748967650242,0</coordinates>
			</Point>
		</Placemark>
	</Folder>
</Document>
</kml>
