<?xml version="1.0" encoding="UTF-8"?>
<kml xmlns="http://www.opengis.net/kml/2.2" xmlns:gx="http://www.google.com/kml/ext/2.2" xmlns:kml="http://www.opengis.net/kml/2.2" xmlns:atom="http://www.w3.org/2005/Atom">
<Document>
	<name>Carp_oc7_Z3.kml</name>
	<StyleMap id="msn_ylw-pushpin">
		<Pair>
			<key>normal</key>
			<styleUrl>#sn_ylw-pushpin</styleUrl>
		</Pair>
		<Pair>
			<key>highlight</key>
			<styleUrl>#sh_ylw-pushpin0</styleUrl>
		</Pair>
	</StyleMap>
	<StyleMap id="msn_ylw-pushpin0">
		<Pair>
			<key>normal</key>
			<styleUrl>#sn_ylw-pushpin0</styleUrl>
		</Pair>
		<Pair>
			<key>highlight</key>
			<styleUrl>#sh_ylw-pushpin</styleUrl>
		</Pair>
	</StyleMap>
	<Style id="sh_ylw-pushpin">
		<IconStyle>
			<color>ff408010</color>
			<scale>1.2</scale>
		</IconStyle>
	</Style>
	<Style id="sh_ylw-pushpin0">
		<IconStyle>
			<color>ff408010</color>
			<scale>1.2</scale>
		</IconStyle>
		<BalloonStyle>
		</BalloonStyle>
	</Style>
	<Style id="sn_ylw-pushpin">
		<IconStyle>
			<color>ff408010</color>
		</IconStyle>
		<BalloonStyle>
		</BalloonStyle>
	</Style>
	<Style id="sn_ylw-pushpin0">
		<IconStyle>
			<color>ff408010</color>
		</IconStyle>
	</Style>
	<Folder>
		<name>Carp_oc7_Z3</name>
		<Placemark>
			<name>CARP7-Z3-6</name>
			<styleUrl>#msn_ylw-pushpin0</styleUrl>
			<Point>
				<coordinates>-123.370320896106,54.74426938438311,0</coordinates>
			</Point>
		</Placemark>
		<Placemark>
			<name>CARP7-Z3-19</name>
			<styleUrl>#msn_ylw-pushpin0</styleUrl>
			<Point>
				<coordinates>-123.373506946848,54.72806695742301,0</coordinates>
			</Point>
		</Placemark>
		<Placemark>
			<name>CARP7-Z3-27</name>
			<styleUrl>#msn_ylw-pushpin0</styleUrl>
			<Point>
				<coordinates>-123.329817611621,54.7253908351162,0</coordinates>
			</Point>
		</Placemark>
		<Placemark>
			<name>CARP7-Z3-30</name>
			<styleUrl>#msn_ylw-pushpin</styleUrl>
			<Point>
				<coordinates>-123.3353318130647,54.73754416354728,0</coordinates>
			</Point>
		</Placemark>
		<Placemark>
			<name>CARP7-Z3-53</name>
			<styleUrl>#msn_ylw-pushpin0</styleUrl>
			<Point>
				<coordinates>-123.356900531223,54.7635028989257,0</coordinates>
			</Point>
		</Placemark>
		<Placemark>
			<name>CARP7-Z3-101</name>
			<styleUrl>#msn_ylw-pushpin0</styleUrl>
			<Point>
				<coordinates>-123.361632220657,54.7181283317262,0</coordinates>
			</Point>
		</Placemark>
		<Placemark>
			<name>CARP7-Z3-108</name>
			<styleUrl>#msn_ylw-pushpin0</styleUrl>
			<Point>
				<coordinates>-123.373640629465,54.7252036270504,0</coordinates>
			</Point>
		</Placemark>
		<Placemark>
			<name>CARP7-Z3-136</name>
			<styleUrl>#msn_ylw-pushpin</styleUrl>
			<Point>
				<coordinates>-123.3535683077403,54.74057492357979,0</coordinates>
			</Point>
		</Placemark>
		<Placemark>
			<name>CARP7-Z3-149</name>
			<styleUrl>#msn_ylw-pushpin0</styleUrl>
			<Point>
				<coordinates>-123.314963341454,54.72710227929501,0</coordinates>
			</Point>
		</Placemark>
		<Placemark>
			<name>CARP7-Z3-167</name>
			<styleUrl>#msn_ylw-pushpin0</styleUrl>
			<Point>
				<coordinates>-123.327075011369,54.7271715427531,0</coordinates>
			</Point>
		</Placemark>
		<Placemark>
			<name>CARP7-Z3-168</name>
			<styleUrl>#msn_ylw-pushpin0</styleUrl>
			<Point>
				<coordinates>-123.364036668121,54.7508759108774,0</coordinates>
			</Point>
		</Placemark>
		<Placemark>
			<name>CARP7-Z3-194</name>
			<styleUrl>#msn_ylw-pushpin0</styleUrl>
			<Point>
				<coordinates>-123.356591988475,54.7211582960028,0</coordinates>
			</Point>
		</Placemark>
		<Placemark>
			<name>CARP7-Z3-202</name>
			<styleUrl>#msn_ylw-pushpin0</styleUrl>
			<Point>
				<coordinates>-123.376189151649,54.7150393911729,0</coordinates>
			</Point>
		</Placemark>
		<Placemark>
			<name>CARP7-Z3-238</name>
			<styleUrl>#msn_ylw-pushpin</styleUrl>
			<Point>
				<coordinates>-123.3513495154671,54.74775306014387,0</coordinates>
			</Point>
		</Placemark>
		<Placemark>
			<name>CARP7-Z3-249</name>
			<styleUrl>#msn_ylw-pushpin0</styleUrl>
			<Point>
				<coordinates>-123.371563413811,54.7412944808671,0</coordinates>
			</Point>
		</Placemark>
		<Placemark>
			<name>CARP7-Z3-258</name>
			<styleUrl>#msn_ylw-pushpin0</styleUrl>
			<Point>
				<coordinates>-123.376433082532,54.7208675695143,0</coordinates>
			</Point>
		</Placemark>
		<Placemark>
			<name>CARP7-Z3-266</name>
			<styleUrl>#msn_ylw-pushpin0</styleUrl>
			<Point>
				<coordinates>-123.35396156198,54.76149912445191,0</coordinates>
			</Point>
		</Placemark>
		<Placemark>
			<name>CARP7-Z3-279</name>
			<styleUrl>#msn_ylw-pushpin0</styleUrl>
			<Point>
				<coordinates>-123.344593495583,54.7243454304139,0</coordinates>
			</Point>
		</Placemark>
		<Placemark>
			<name>CARP7-Z3-314</name>
			<styleUrl>#msn_ylw-pushpin0</styleUrl>
			<Point>
				<coordinates>-123.367307238222,54.71848432534701,0</coordinates>
			</Point>
		</Placemark>
		<Placemark>
			<name>CARP7-Z3-322</name>
			<styleUrl>#msn_ylw-pushpin0</styleUrl>
			<Point>
				<coordinates>-123.313030486225,54.7263206760169,0</coordinates>
			</Point>
		</Placemark>
	</Folder>
</Document>
</kml>
