<?xml version="1.0" encoding="UTF-8"?>
<kml xmlns="http://www.opengis.net/kml/2.2" xmlns:gx="http://www.google.com/kml/ext/2.2" xmlns:kml="http://www.opengis.net/kml/2.2" xmlns:atom="http://www.w3.org/2005/Atom">
<Document>
	<name>Carp_oc4_Z2.kml</name>
	<StyleMap id="msn_ylw-pushpin">
		<Pair>
			<key>normal</key>
			<styleUrl>#sn_ylw-pushpin</styleUrl>
		</Pair>
		<Pair>
			<key>highlight</key>
			<styleUrl>#sh_ylw-pushpin</styleUrl>
		</Pair>
	</StyleMap>
	<Style id="sh_ylw-pushpin">
		<IconStyle>
			<color>ff018010</color>
			<scale>1.2</scale>
		</IconStyle>
		<BalloonStyle>
		</BalloonStyle>
	</Style>
	<Style id="sn_ylw-pushpin">
		<IconStyle>
			<color>ff018010</color>
		</IconStyle>
		<BalloonStyle>
		</BalloonStyle>
	</Style>
	<Folder>
		<name>Carp_oc4_Z2</name>
		<Placemark>
			<name>CARP4-Z2-17</name>
			<styleUrl>#msn_ylw-pushpin</styleUrl>
			<Point>
				<coordinates>-123.409233917868,54.7723025691695,0</coordinates>
			</Point>
		</Placemark>
		<Placemark>
			<name>CARP4-Z2-19</name>
			<styleUrl>#msn_ylw-pushpin</styleUrl>
			<Point>
				<coordinates>-123.397221044355,54.7765547934112,0</coordinates>
			</Point>
		</Placemark>
		<Placemark>
			<name>CARP4-Z2-20</name>
			<styleUrl>#msn_ylw-pushpin</styleUrl>
			<Point>
				<coordinates>-123.405557678599,54.7862870688005,0</coordinates>
			</Point>
		</Placemark>
		<Placemark>
			<name>CARP4-Z2-56</name>
			<styleUrl>#msn_ylw-pushpin</styleUrl>
			<Point>
				<coordinates>-123.419727501401,54.77480691639709,0</coordinates>
			</Point>
		</Placemark>
		<Placemark>
			<name>CARP4-Z2-59</name>
			<styleUrl>#msn_ylw-pushpin</styleUrl>
			<Point>
				<coordinates>-123.410611311503,54.7705991139837,0</coordinates>
			</Point>
		</Placemark>
		<Placemark>
			<name>CARP4-Z2-62</name>
			<styleUrl>#msn_ylw-pushpin</styleUrl>
			<Point>
				<coordinates>-123.40767974023,54.75227080937029,0</coordinates>
			</Point>
		</Placemark>
		<Placemark>
			<name>CARP4-Z2-69</name>
			<styleUrl>#msn_ylw-pushpin</styleUrl>
			<Point>
				<coordinates>-123.390864075581,54.7732846845044,0</coordinates>
			</Point>
		</Placemark>
		<Placemark>
			<name>CARP4-Z2-70</name>
			<styleUrl>#msn_ylw-pushpin</styleUrl>
			<Point>
				<coordinates>-123.372086477032,54.7611562371076,0</coordinates>
			</Point>
		</Placemark>
		<Placemark>
			<name>CARP4-Z2-74</name>
			<styleUrl>#msn_ylw-pushpin</styleUrl>
			<Point>
				<coordinates>-123.424860136858,54.7771452959805,0</coordinates>
			</Point>
		</Placemark>
		<Placemark>
			<name>CARP4-Z2-83</name>
			<styleUrl>#msn_ylw-pushpin</styleUrl>
			<Point>
				<coordinates>-123.384914822724,54.7809457216266,0</coordinates>
			</Point>
		</Placemark>
		<Placemark>
			<name>CARP4-Z2-84</name>
			<styleUrl>#msn_ylw-pushpin</styleUrl>
			<Point>
				<coordinates>-123.406676623895,54.77455944972989,0</coordinates>
			</Point>
		</Placemark>
		<Placemark>
			<name>CARP4-Z2-106</name>
			<styleUrl>#msn_ylw-pushpin</styleUrl>
			<Point>
				<coordinates>-123.414810009591,54.7840546176092,0</coordinates>
			</Point>
		</Placemark>
		<Placemark>
			<name>CARP4-Z2-133</name>
			<styleUrl>#msn_ylw-pushpin</styleUrl>
			<Point>
				<coordinates>-123.399105515634,54.7614631371753,0</coordinates>
			</Point>
		</Placemark>
		<Placemark>
			<name>CARP4-Z2-150</name>
			<styleUrl>#msn_ylw-pushpin</styleUrl>
			<Point>
				<coordinates>-123.36218569029,54.7635028989257,0</coordinates>
			</Point>
		</Placemark>
		<Placemark>
			<name>CARP4-Z2-152</name>
			<styleUrl>#msn_ylw-pushpin</styleUrl>
			<Point>
				<coordinates>-123.380730131291,54.7597448114728,0</coordinates>
			</Point>
		</Placemark>
		<Placemark>
			<name>CARP4-Z2-154</name>
			<styleUrl>#msn_ylw-pushpin</styleUrl>
			<Point>
				<coordinates>-123.381725085359,54.7884426865751,0</coordinates>
			</Point>
		</Placemark>
		<Placemark>
			<name>CARP4-Z2-178</name>
			<styleUrl>#msn_ylw-pushpin</styleUrl>
			<Point>
				<coordinates>-123.39901138838,54.7595354349754,0</coordinates>
			</Point>
		</Placemark>
		<Placemark>
			<name>CARP4-Z2-200</name>
			<styleUrl>#msn_ylw-pushpin</styleUrl>
			<Point>
				<coordinates>-123.378632502989,54.7854369413562,0</coordinates>
			</Point>
		</Placemark>
		<Placemark>
			<name>CARP4-Z2-207</name>
			<styleUrl>#msn_ylw-pushpin</styleUrl>
			<Point>
				<coordinates>-123.368345401718,54.7616983018735,0</coordinates>
			</Point>
		</Placemark>
		<Placemark>
			<name>CARP4-Z2-210</name>
			<styleUrl>#msn_ylw-pushpin</styleUrl>
			<Point>
				<coordinates>-123.375720199012,54.7623905586188,0</coordinates>
			</Point>
		</Placemark>
	</Folder>
</Document>
</kml>
