<?xml version="1.0" standalone="yes"?>
<gpx xmlns="http://www.topografix.com/GPX/1/1" creator="KML2GPX.COM" version="1.1" xmlns:xsi="http://www.w3.org/2001/XMLSchema-instance" xsi:schemaLocation="http://www.topografix.com/GPX/1/1 http://www.topografix.com/GPX/1/1/gpx.xsd">
    <metadata>
        <name><![CDATA[carp_oc6_Z4.kml]]></name>
        <desc><![CDATA[Converted from a KML file KML2GPX.COM]]></desc>
                </metadata>

                                                                                
                <wpt lat="54.7736567259388" lon="-123.263514438183">
                                                            <ele>0</ele>
                    <name><![CDATA[CARP6-Z4-14]]></name>
                    <cmt><![CDATA[Waypoint no: 1]]></cmt>
                    <desc><![CDATA[This is waypoint no: 1]]></desc>
                </wpt>
                                                                                                                            
                <wpt lat="54.766859622204" lon="-123.276644818146">
                                                            <ele>0</ele>
                    <name><![CDATA[CARP6-Z4-46]]></name>
                    <cmt><![CDATA[Waypoint no: 2]]></cmt>
                    <desc><![CDATA[This is waypoint no: 2]]></desc>
                </wpt>
                                                                                                                            
                <wpt lat="54.7628481174644" lon="-123.261584322059">
                                                            <ele>0</ele>
                    <name><![CDATA[CARP6-Z4-58]]></name>
                    <cmt><![CDATA[Waypoint no: 3]]></cmt>
                    <desc><![CDATA[This is waypoint no: 3]]></desc>
                </wpt>
                                                                                                                            
                <wpt lat="54.7350472142463" lon="-123.28712877221">
                                                            <ele>0</ele>
                    <name><![CDATA[CARP6-Z4-63]]></name>
                    <cmt><![CDATA[Waypoint no: 4]]></cmt>
                    <desc><![CDATA[This is waypoint no: 4]]></desc>
                </wpt>
                                                                                                                            
                <wpt lat="54.7628957555267" lon="-123.277542904279">
                                                            <ele>0</ele>
                    <name><![CDATA[CARP6-Z4-76]]></name>
                    <cmt><![CDATA[Waypoint no: 5]]></cmt>
                    <desc><![CDATA[This is waypoint no: 5]]></desc>
                </wpt>
                                                                                                                            
                <wpt lat="54.7630758167887" lon="-123.275496196253">
                                                            <ele>0</ele>
                    <name><![CDATA[CARP6-Z4-106]]></name>
                    <cmt><![CDATA[Waypoint no: 6]]></cmt>
                    <desc><![CDATA[This is waypoint no: 6]]></desc>
                </wpt>
                                                                                                                            
                <wpt lat="54.7846545680398" lon="-123.243484147132">
                                                            <ele>0</ele>
                    <name><![CDATA[CARP6-Z4-107]]></name>
                    <cmt><![CDATA[Waypoint no: 7]]></cmt>
                    <desc><![CDATA[This is waypoint no: 7]]></desc>
                </wpt>
                                                                                                                            
                <wpt lat="54.7664999897961" lon="-123.27088706966">
                                                            <ele>0</ele>
                    <name><![CDATA[CARP6-Z4-128]]></name>
                    <cmt><![CDATA[Waypoint no: 8]]></cmt>
                    <desc><![CDATA[This is waypoint no: 8]]></desc>
                </wpt>
                                                                                                                            
                <wpt lat="54.7706378330138" lon="-123.340317287875">
                                                            <ele>0</ele>
                    <name><![CDATA[CARP6-Z4-140]]></name>
                    <cmt><![CDATA[Waypoint no: 9]]></cmt>
                    <desc><![CDATA[This is waypoint no: 9]]></desc>
                </wpt>
                                                                                                                            
                <wpt lat="54.768411388108" lon="-123.328220020986">
                                                            <ele>0</ele>
                    <name><![CDATA[CARP6-Z4-194]]></name>
                    <cmt><![CDATA[Waypoint no: 10]]></cmt>
                    <desc><![CDATA[This is waypoint no: 10]]></desc>
                </wpt>
                                                                                                                            
                <wpt lat="54.78524024980659" lon="-123.25104021462">
                                                            <ele>0</ele>
                    <name><![CDATA[CARP6-Z4-233]]></name>
                    <cmt><![CDATA[Waypoint no: 11]]></cmt>
                    <desc><![CDATA[This is waypoint no: 11]]></desc>
                </wpt>
                                                                                                                            
                <wpt lat="54.733754981186" lon="-123.287624585323">
                                                            <ele>0</ele>
                    <name><![CDATA[CARP6-Z4-240]]></name>
                    <cmt><![CDATA[Waypoint no: 12]]></cmt>
                    <desc><![CDATA[This is waypoint no: 12]]></desc>
                </wpt>
                                                                                                                            
                <wpt lat="54.7665890699716" lon="-123.26930168626">
                                                            <ele>0</ele>
                    <name><![CDATA[CARP6-Z4-243]]></name>
                    <cmt><![CDATA[Waypoint no: 13]]></cmt>
                    <desc><![CDATA[This is waypoint no: 13]]></desc>
                </wpt>
                                                                                                                            
                <wpt lat="54.7618270240957" lon="-123.29852665244">
                                                            <ele>0</ele>
                    <name><![CDATA[CARP6-Z4-251]]></name>
                    <cmt><![CDATA[Waypoint no: 14]]></cmt>
                    <desc><![CDATA[This is waypoint no: 14]]></desc>
                </wpt>
                                                                                                                            
                <wpt lat="54.76955691056691" lon="-123.267538418794">
                                                            <ele>0</ele>
                    <name><![CDATA[CARP6-Z4-266]]></name>
                    <cmt><![CDATA[Waypoint no: 15]]></cmt>
                    <desc><![CDATA[This is waypoint no: 15]]></desc>
                </wpt>
                                                                                                                            
                <wpt lat="54.7297661326605" lon="-123.305020646769">
                                                            <ele>0</ele>
                    <name><![CDATA[CARP6-Z4-284]]></name>
                    <cmt><![CDATA[Waypoint no: 16]]></cmt>
                    <desc><![CDATA[This is waypoint no: 16]]></desc>
                </wpt>
                                                                                                                            
                <wpt lat="54.7782968356586" lon="-123.247358759957">
                                                            <ele>0</ele>
                    <name><![CDATA[CARP6-Z4-319]]></name>
                    <cmt><![CDATA[Waypoint no: 17]]></cmt>
                    <desc><![CDATA[This is waypoint no: 17]]></desc>
                </wpt>
                                                                                                                            
                <wpt lat="54.76149131058259" lon="-123.283532360265">
                                                            <ele>0</ele>
                    <name><![CDATA[CARP6-Z4-320]]></name>
                    <cmt><![CDATA[Waypoint no: 18]]></cmt>
                    <desc><![CDATA[This is waypoint no: 18]]></desc>
                </wpt>
                                                                                                                            
                <wpt lat="54.7698561142132" lon="-123.337288868402">
                                                            <ele>0</ele>
                    <name><![CDATA[CARP6-Z4-426]]></name>
                    <cmt><![CDATA[Waypoint no: 19]]></cmt>
                    <desc><![CDATA[This is waypoint no: 19]]></desc>
                </wpt>
                                                                                                                            
                <wpt lat="54.76309370271699" lon="-123.31991815262">
                                                            <ele>0</ele>
                    <name><![CDATA[CARP6-Z4-427]]></name>
                    <cmt><![CDATA[Waypoint no: 20]]></cmt>
                    <desc><![CDATA[This is waypoint no: 20]]></desc>
                </wpt>
                                                            
                    
    
</gpx>