<?xml version="1.0" encoding="UTF-8"?>
<kml xmlns="http://www.opengis.net/kml/2.2" xmlns:gx="http://www.google.com/kml/ext/2.2" xmlns:kml="http://www.opengis.net/kml/2.2" xmlns:atom="http://www.w3.org/2005/Atom">
<Document>
	<name>carp_oc6_Z2.kml</name>
	<StyleMap id="msn_ylw-pushpin">
		<Pair>
			<key>normal</key>
			<styleUrl>#sn_ylw-pushpin</styleUrl>
		</Pair>
		<Pair>
			<key>highlight</key>
			<styleUrl>#sh_ylw-pushpin</styleUrl>
		</Pair>
	</StyleMap>
	<Style id="sh_ylw-pushpin">
		<IconStyle>
			<color>ff8002fc</color>
			<scale>1.2</scale>
		</IconStyle>
		<BalloonStyle>
		</BalloonStyle>
	</Style>
	<Style id="sn_ylw-pushpin">
		<IconStyle>
			<color>ff8002fc</color>
		</IconStyle>
		<BalloonStyle>
		</BalloonStyle>
	</Style>
	<Folder>
		<name>carp_oc6_Z2</name>
		<Placemark>
			<name>CARP6-Z2-8</name>
			<styleUrl>#msn_ylw-pushpin</styleUrl>
			<Point>
				<coordinates>-123.406152341894,54.7466900413224,0</coordinates>
			</Point>
		</Placemark>
		<Placemark>
			<name>CARP6-Z2-34</name>
			<styleUrl>#msn_ylw-pushpin</styleUrl>
			<Point>
				<coordinates>-123.363985741543,54.76528970888621,0</coordinates>
			</Point>
		</Placemark>
		<Placemark>
			<name>CARP6-Z2-62</name>
			<styleUrl>#msn_ylw-pushpin</styleUrl>
			<Point>
				<coordinates>-123.372086477032,54.76092803184011,0</coordinates>
			</Point>
		</Placemark>
		<Placemark>
			<name>CARP6-Z2-90</name>
			<styleUrl>#msn_ylw-pushpin</styleUrl>
			<Point>
				<coordinates>-123.373523180627,54.7823639609953,0</coordinates>
			</Point>
		</Placemark>
		<Placemark>
			<name>CARP6-Z2-100</name>
			<styleUrl>#msn_ylw-pushpin</styleUrl>
			<Point>
				<coordinates>-123.426669755617,54.77828681628359,0</coordinates>
			</Point>
		</Placemark>
		<Placemark>
			<name>CARP6-Z2-119</name>
			<styleUrl>#msn_ylw-pushpin</styleUrl>
			<Point>
				<coordinates>-123.382417026131,54.7857168087639,0</coordinates>
			</Point>
		</Placemark>
		<Placemark>
			<name>CARP6-Z2-137</name>
			<styleUrl>#msn_ylw-pushpin</styleUrl>
			<Point>
				<coordinates>-123.388881978678,54.7761432410196,0</coordinates>
			</Point>
		</Placemark>
		<Placemark>
			<name>CARP6-Z2-146</name>
			<styleUrl>#msn_ylw-pushpin</styleUrl>
			<Point>
				<coordinates>-123.388231922656,54.78238097631959,0</coordinates>
			</Point>
		</Placemark>
		<Placemark>
			<name>CARP6-Z2-155</name>
			<styleUrl>#msn_ylw-pushpin</styleUrl>
			<Point>
				<coordinates>-123.40432703372,54.7619669419195,0</coordinates>
			</Point>
		</Placemark>
		<Placemark>
			<name>CARP6-Z2-168</name>
			<styleUrl>#msn_ylw-pushpin</styleUrl>
			<Point>
				<coordinates>-123.356541249493,54.76809520455441,0</coordinates>
			</Point>
		</Placemark>
		<Placemark>
			<name>CARP6-Z2-237</name>
			<styleUrl>#msn_ylw-pushpin</styleUrl>
			<Point>
				<coordinates>-123.385973155612,54.7582925271522,0</coordinates>
			</Point>
		</Placemark>
		<Placemark>
			<name>CARP6-Z2-285</name>
			<styleUrl>#msn_ylw-pushpin</styleUrl>
			<Point>
				<coordinates>-123.402747422636,54.77272380490231,0</coordinates>
			</Point>
		</Placemark>
		<Placemark>
			<name>CARP6-Z2-298</name>
			<styleUrl>#msn_ylw-pushpin</styleUrl>
			<Point>
				<coordinates>-123.390779190484,54.75747928254181,0</coordinates>
			</Point>
		</Placemark>
		<Placemark>
			<name>CARP6-Z2-346</name>
			<styleUrl>#msn_ylw-pushpin</styleUrl>
			<Point>
				<coordinates>-123.406354944598,54.7680376423362,0</coordinates>
			</Point>
		</Placemark>
		<Placemark>
			<name>CARP6-Z2-359</name>
			<styleUrl>#msn_ylw-pushpin</styleUrl>
			<Point>
				<coordinates>-123.406282452099,54.7578740766024,0</coordinates>
			</Point>
		</Placemark>
		<Placemark>
			<name>CARP6-Z2-363</name>
			<styleUrl>#msn_ylw-pushpin</styleUrl>
			<Point>
				<coordinates>-123.40746068937,54.7522822472304,0</coordinates>
			</Point>
		</Placemark>
		<Placemark>
			<name>CARP6-Z2-376</name>
			<styleUrl>#msn_ylw-pushpin</styleUrl>
			<Point>
				<coordinates>-123.400143392639,54.7732995111532,0</coordinates>
			</Point>
		</Placemark>
		<Placemark>
			<name>CARP6-Z2-398</name>
			<styleUrl>#msn_ylw-pushpin</styleUrl>
			<Point>
				<coordinates>-123.409560838157,54.7711950237874,0</coordinates>
			</Point>
		</Placemark>
		<Placemark>
			<name>CARP6-Z2-409</name>
			<styleUrl>#msn_ylw-pushpin</styleUrl>
			<Point>
				<coordinates>-123.35966572775,54.7672431584423,0</coordinates>
			</Point>
		</Placemark>
		<Placemark>
			<name>CARP6-Z2-420</name>
			<styleUrl>#msn_ylw-pushpin</styleUrl>
			<Point>
				<coordinates>-123.371110166911,54.7642748633162,0</coordinates>
			</Point>
		</Placemark>
	</Folder>
</Document>
</kml>
