<?xml version="1.0" standalone="yes"?>
<gpx xmlns="http://www.topografix.com/GPX/1/1" creator="KML2GPX.COM" version="1.1" xmlns:xsi="http://www.w3.org/2001/XMLSchema-instance" xsi:schemaLocation="http://www.topografix.com/GPX/1/1 http://www.topografix.com/GPX/1/1/gpx.xsd">
    <metadata>
        <name><![CDATA[carp_occ3_z4.kml]]></name>
        <desc><![CDATA[Converted from a KML file KML2GPX.COM]]></desc>
                </metadata>

                                                                                
                <wpt lat="54.7609416563094" lon="-123.313735499044">
                                                            <ele>0</ele>
                    <name><![CDATA[CARP3-Z4-21]]></name>
                    <cmt><![CDATA[Waypoint no: 1]]></cmt>
                    <desc><![CDATA[This is waypoint no: 1]]></desc>
                </wpt>
                                                                                                                            
                <wpt lat="54.737762094172" lon="-123.282530144275">
                                                            <ele>0</ele>
                    <name><![CDATA[CARP3-Z4-40]]></name>
                    <cmt><![CDATA[Waypoint no: 2]]></cmt>
                    <desc><![CDATA[This is waypoint no: 2]]></desc>
                </wpt>
                                                                                                                            
                <wpt lat="54.7740844576851" lon="-123.247462765626">
                                                            <ele>0</ele>
                    <name><![CDATA[CARP3-Z4-42]]></name>
                    <cmt><![CDATA[Waypoint no: 3]]></cmt>
                    <desc><![CDATA[This is waypoint no: 3]]></desc>
                </wpt>
                                                                                                                            
                <wpt lat="54.7350472142463" lon="-123.28712877221">
                                                            <ele>0</ele>
                    <name><![CDATA[CARP3-Z4-63]]></name>
                    <cmt><![CDATA[Waypoint no: 4]]></cmt>
                    <desc><![CDATA[This is waypoint no: 4]]></desc>
                </wpt>
                                                                                                                            
                <wpt lat="54.7271715427531" lon="-123.318512663538">
                                                            <ele>0</ele>
                    <name><![CDATA[CARP3-Z4-112]]></name>
                    <cmt><![CDATA[Waypoint no: 5]]></cmt>
                    <desc><![CDATA[This is waypoint no: 5]]></desc>
                </wpt>
                                                                                                                            
                <wpt lat="54.7629150786451" lon="-123.295198924105">
                                                            <ele>0</ele>
                    <name><![CDATA[CARP3-Z4-127]]></name>
                    <cmt><![CDATA[Waypoint no: 6]]></cmt>
                    <desc><![CDATA[This is waypoint no: 6]]></desc>
                </wpt>
                                                                                                                            
                <wpt lat="54.7664999897961" lon="-123.27088706966">
                                                            <ele>0</ele>
                    <name><![CDATA[CARP3-Z4-128]]></name>
                    <cmt><![CDATA[Waypoint no: 7]]></cmt>
                    <desc><![CDATA[This is waypoint no: 7]]></desc>
                </wpt>
                                                                                                                            
                <wpt lat="54.7629560901125" lon="-123.276107062301">
                                                            <ele>0</ele>
                    <name><![CDATA[CARP3-Z4-135]]></name>
                    <cmt><![CDATA[Waypoint no: 8]]></cmt>
                    <desc><![CDATA[This is waypoint no: 8]]></desc>
                </wpt>
                                                                                                                            
                <wpt lat="54.7612940668955" lon="-123.285045249415">
                                                            <ele>0</ele>
                    <name><![CDATA[CARP3-Z4-143]]></name>
                    <cmt><![CDATA[Waypoint no: 9]]></cmt>
                    <desc><![CDATA[This is waypoint no: 9]]></desc>
                </wpt>
                                                                                                                            
                <wpt lat="54.7619796679546" lon="-123.278189650575">
                                                            <ele>0</ele>
                    <name><![CDATA[CARP3-Z4-153]]></name>
                    <cmt><![CDATA[Waypoint no: 10]]></cmt>
                    <desc><![CDATA[This is waypoint no: 10]]></desc>
                </wpt>
                                                                                                                            
                <wpt lat="54.768411388108" lon="-123.328220020986">
                                                            <ele>0</ele>
                    <name><![CDATA[CARP3-Z4-194]]></name>
                    <cmt><![CDATA[Waypoint no: 11]]></cmt>
                    <desc><![CDATA[This is waypoint no: 11]]></desc>
                </wpt>
                                                                                                                            
                <wpt lat="54.7848438456027" lon="-123.247288377131">
                                                            <ele>0</ele>
                    <name><![CDATA[CARP3-Z4-208]]></name>
                    <cmt><![CDATA[Waypoint no: 12]]></cmt>
                    <desc><![CDATA[This is waypoint no: 12]]></desc>
                </wpt>
                                                                                                                            
                <wpt lat="54.76139036139689" lon="-123.307921894903">
                                                            <ele>0</ele>
                    <name><![CDATA[CARP3-Z4-228]]></name>
                    <cmt><![CDATA[Waypoint no: 13]]></cmt>
                    <desc><![CDATA[This is waypoint no: 13]]></desc>
                </wpt>
                                                                                                                            
                <wpt lat="54.725907544522" lon="-123.317833550855">
                                                            <ele>0</ele>
                    <name><![CDATA[CARP3-Z4-229]]></name>
                    <cmt><![CDATA[Waypoint no: 14]]></cmt>
                    <desc><![CDATA[This is waypoint no: 14]]></desc>
                </wpt>
                                                                                                                            
                <wpt lat="54.78524024980659" lon="-123.25104021462">
                                                            <ele>0</ele>
                    <name><![CDATA[CARP3-Z4-233]]></name>
                    <cmt><![CDATA[Waypoint no: 15]]></cmt>
                    <desc><![CDATA[This is waypoint no: 15]]></desc>
                </wpt>
                                                                                                                            
                <wpt lat="54.7665890699716" lon="-123.26930168626">
                                                            <ele>0</ele>
                    <name><![CDATA[CARP3-Z4-243]]></name>
                    <cmt><![CDATA[Waypoint no: 16]]></cmt>
                    <desc><![CDATA[This is waypoint no: 16]]></desc>
                </wpt>
                                                                                                                            
                <wpt lat="54.76955691056691" lon="-123.267538418794">
                                                            <ele>0</ele>
                    <name><![CDATA[CARP3-Z4-266]]></name>
                    <cmt><![CDATA[Waypoint no: 17]]></cmt>
                    <desc><![CDATA[This is waypoint no: 17]]></desc>
                </wpt>
                                                                                                                            
                <wpt lat="54.7297661326605" lon="-123.305020646769">
                                                            <ele>0</ele>
                    <name><![CDATA[CARP3-Z4-284]]></name>
                    <cmt><![CDATA[Waypoint no: 18]]></cmt>
                    <desc><![CDATA[This is waypoint no: 18]]></desc>
                </wpt>
                                                                                                                            
                <wpt lat="54.7782968356586" lon="-123.247358759957">
                                                            <ele>0</ele>
                    <name><![CDATA[CARP3-Z4-319]]></name>
                    <cmt><![CDATA[Waypoint no: 19]]></cmt>
                    <desc><![CDATA[This is waypoint no: 19]]></desc>
                </wpt>
                                                                                                                            
                <wpt lat="54.7671801605059" lon="-123.253208535651">
                                                            <ele>0</ele>
                    <name><![CDATA[CARP3-Z4-326]]></name>
                    <cmt><![CDATA[Waypoint no: 20]]></cmt>
                    <desc><![CDATA[This is waypoint no: 20]]></desc>
                </wpt>
                                                                                                                            
                <wpt lat="54.77411863057681" lon="-123.263002876405">
                                                            <ele>0</ele>
                    <name><![CDATA[CARP3-Z4-368]]></name>
                    <cmt><![CDATA[Waypoint no: 21]]></cmt>
                    <desc><![CDATA[This is waypoint no: 21]]></desc>
                </wpt>
                                                                                                                            
                <wpt lat="54.7277897061115" lon="-123.314920340626">
                                                            <ele>0</ele>
                    <name><![CDATA[CARP3-Z4-410]]></name>
                    <cmt><![CDATA[Waypoint no: 22]]></cmt>
                    <desc><![CDATA[This is waypoint no: 22]]></desc>
                </wpt>
                                                            
                    
    
</gpx>