<?xml version="1.0" encoding="UTF-8"?>
<kml xmlns="http://www.opengis.net/kml/2.2" xmlns:gx="http://www.google.com/kml/ext/2.2" xmlns:kml="http://www.opengis.net/kml/2.2" xmlns:atom="http://www.w3.org/2005/Atom">
<Document>
	<name>carp_occ3_z4.kml</name>
	<Style id="sn_ylw-pushpin">
		<IconStyle>
			<color>ffff800f</color>
		</IconStyle>
		<BalloonStyle>
		</BalloonStyle>
	</Style>
	<Style id="sh_ylw-pushpin">
		<IconStyle>
			<color>ffff800f</color>
			<scale>1.2</scale>
		</IconStyle>
		<BalloonStyle>
		</BalloonStyle>
	</Style>
	<Style id="sn_ylw-pushpin0">
		<IconStyle>
			<color>ffff800f</color>
		</IconStyle>
		<BalloonStyle>
		</BalloonStyle>
	</Style>
	<Style id="sh_ylw-pushpin0">
		<IconStyle>
			<color>ffff800f</color>
			<scale>1.2</scale>
		</IconStyle>
		<BalloonStyle>
		</BalloonStyle>
	</Style>
	<StyleMap id="msn_ylw-pushpin">
		<Pair>
			<key>normal</key>
			<styleUrl>#sn_ylw-pushpin0</styleUrl>
		</Pair>
		<Pair>
			<key>highlight</key>
			<styleUrl>#sh_ylw-pushpin0</styleUrl>
		</Pair>
	</StyleMap>
	<StyleMap id="msn_ylw-pushpin0">
		<Pair>
			<key>normal</key>
			<styleUrl>#sn_ylw-pushpin</styleUrl>
		</Pair>
		<Pair>
			<key>highlight</key>
			<styleUrl>#sh_ylw-pushpin</styleUrl>
		</Pair>
	</StyleMap>
	<Folder>
		<name>carp_occ3_z4</name>
		<Placemark>
			<name>CARP3-Z4-21</name>
			<styleUrl>#msn_ylw-pushpin</styleUrl>
			<Point>
				<coordinates>-123.313735499044,54.7609416563094,0</coordinates>
			</Point>
		</Placemark>
		<Placemark>
			<name>CARP3-Z4-40</name>
			<styleUrl>#msn_ylw-pushpin</styleUrl>
			<Point>
				<coordinates>-123.282530144275,54.737762094172,0</coordinates>
			</Point>
		</Placemark>
		<Placemark>
			<name>CARP3-Z4-42</name>
			<styleUrl>#msn_ylw-pushpin</styleUrl>
			<Point>
				<coordinates>-123.247462765626,54.7740844576851,0</coordinates>
			</Point>
		</Placemark>
		<Placemark>
			<name>CARP3-Z4-63</name>
			<styleUrl>#msn_ylw-pushpin</styleUrl>
			<Point>
				<coordinates>-123.28712877221,54.7350472142463,0</coordinates>
			</Point>
		</Placemark>
		<Placemark>
			<name>CARP3-Z4-112</name>
			<styleUrl>#msn_ylw-pushpin</styleUrl>
			<Point>
				<coordinates>-123.318512663538,54.7271715427531,0</coordinates>
			</Point>
		</Placemark>
		<Placemark>
			<name>CARP3-Z4-127</name>
			<styleUrl>#msn_ylw-pushpin</styleUrl>
			<Point>
				<coordinates>-123.295198924105,54.7629150786451,0</coordinates>
			</Point>
		</Placemark>
		<Placemark>
			<name>CARP3-Z4-128</name>
			<styleUrl>#msn_ylw-pushpin</styleUrl>
			<Point>
				<coordinates>-123.27088706966,54.7664999897961,0</coordinates>
			</Point>
		</Placemark>
		<Placemark>
			<name>CARP3-Z4-135</name>
			<styleUrl>#msn_ylw-pushpin</styleUrl>
			<Point>
				<coordinates>-123.276107062301,54.7629560901125,0</coordinates>
			</Point>
		</Placemark>
		<Placemark>
			<name>CARP3-Z4-143</name>
			<styleUrl>#msn_ylw-pushpin</styleUrl>
			<Point>
				<coordinates>-123.285045249415,54.7612940668955,0</coordinates>
			</Point>
		</Placemark>
		<Placemark>
			<name>CARP3-Z4-153</name>
			<styleUrl>#msn_ylw-pushpin</styleUrl>
			<Point>
				<coordinates>-123.278189650575,54.7619796679546,0</coordinates>
			</Point>
		</Placemark>
		<Placemark>
			<name>CARP3-Z4-194</name>
			<styleUrl>#msn_ylw-pushpin</styleUrl>
			<Point>
				<coordinates>-123.328220020986,54.768411388108,0</coordinates>
			</Point>
		</Placemark>
		<Placemark>
			<name>CARP3-Z4-208</name>
			<styleUrl>#msn_ylw-pushpin</styleUrl>
			<Point>
				<coordinates>-123.247288377131,54.7848438456027,0</coordinates>
			</Point>
		</Placemark>
		<Placemark>
			<name>CARP3-Z4-228</name>
			<styleUrl>#msn_ylw-pushpin</styleUrl>
			<Point>
				<coordinates>-123.307921894903,54.76139036139689,0</coordinates>
			</Point>
		</Placemark>
		<Placemark>
			<name>CARP3-Z4-229</name>
			<styleUrl>#msn_ylw-pushpin</styleUrl>
			<Point>
				<coordinates>-123.317833550855,54.725907544522,0</coordinates>
			</Point>
		</Placemark>
		<Placemark>
			<name>CARP3-Z4-233</name>
			<styleUrl>#msn_ylw-pushpin</styleUrl>
			<Point>
				<coordinates>-123.25104021462,54.78524024980659,0</coordinates>
			</Point>
		</Placemark>
		<Placemark>
			<name>CARP3-Z4-243</name>
			<styleUrl>#msn_ylw-pushpin</styleUrl>
			<Point>
				<coordinates>-123.26930168626,54.7665890699716,0</coordinates>
			</Point>
		</Placemark>
		<Placemark>
			<name>CARP3-Z4-266</name>
			<styleUrl>#msn_ylw-pushpin</styleUrl>
			<Point>
				<coordinates>-123.267538418794,54.76955691056691,0</coordinates>
			</Point>
		</Placemark>
		<Placemark>
			<name>CARP3-Z4-284</name>
			<styleUrl>#msn_ylw-pushpin</styleUrl>
			<Point>
				<coordinates>-123.305020646769,54.7297661326605,0</coordinates>
			</Point>
		</Placemark>
		<Placemark>
			<name>CARP3-Z4-319</name>
			<styleUrl>#msn_ylw-pushpin</styleUrl>
			<Point>
				<coordinates>-123.247358759957,54.7782968356586,0</coordinates>
			</Point>
		</Placemark>
		<Placemark>
			<name>CARP3-Z4-326</name>
			<styleUrl>#msn_ylw-pushpin</styleUrl>
			<Point>
				<coordinates>-123.253208535651,54.7671801605059,0</coordinates>
			</Point>
		</Placemark>
		<Placemark>
			<name>CARP3-Z4-368</name>
			<styleUrl>#msn_ylw-pushpin</styleUrl>
			<Point>
				<coordinates>-123.263002876405,54.77411863057681,0</coordinates>
			</Point>
		</Placemark>
		<Placemark>
			<name>CARP3-Z4-410</name>
			<styleUrl>#msn_ylw-pushpin0</styleUrl>
			<Point>
				<coordinates>-123.314920340626,54.7277897061115,0</coordinates>
			</Point>
		</Placemark>
	</Folder>
</Document>
</kml>
