<?xml version="1.0" encoding="UTF-8"?>
<kml xmlns="http://www.opengis.net/kml/2.2" xmlns:gx="http://www.google.com/kml/ext/2.2" xmlns:kml="http://www.opengis.net/kml/2.2" xmlns:atom="http://www.w3.org/2005/Atom">
<Document>
	<name>Carp_oc5_Z4.kml</name>
	<StyleMap id="msn_ylw-pushpin">
		<Pair>
			<key>normal</key>
			<styleUrl>#sn_ylw-pushpin0</styleUrl>
		</Pair>
		<Pair>
			<key>highlight</key>
			<styleUrl>#sh_ylw-pushpin</styleUrl>
		</Pair>
	</StyleMap>
	<StyleMap id="msn_ylw-pushpin0">
		<Pair>
			<key>normal</key>
			<styleUrl>#sn_ylw-pushpin</styleUrl>
		</Pair>
		<Pair>
			<key>highlight</key>
			<styleUrl>#sh_ylw-pushpin0</styleUrl>
		</Pair>
	</StyleMap>
	<StyleMap id="msn_ylw-pushpin1">
		<Pair>
			<key>normal</key>
			<styleUrl>#sn_ylw-pushpin1</styleUrl>
		</Pair>
		<Pair>
			<key>highlight</key>
			<styleUrl>#sh_ylw-pushpin1</styleUrl>
		</Pair>
	</StyleMap>
	<Style id="sh_ylw-pushpin">
		<IconStyle>
			<color>ffccff66</color>
			<scale>1.2</scale>
		</IconStyle>
		<BalloonStyle>
		</BalloonStyle>
	</Style>
	<Style id="sh_ylw-pushpin0">
		<IconStyle>
			<color>ffccff66</color>
			<scale>1.2</scale>
		</IconStyle>
		<BalloonStyle>
		</BalloonStyle>
	</Style>
	<Style id="sh_ylw-pushpin1">
		<IconStyle>
			<color>ffccff66</color>
			<scale>1.2</scale>
		</IconStyle>
		<BalloonStyle>
		</BalloonStyle>
	</Style>
	<Style id="sn_ylw-pushpin">
		<IconStyle>
			<color>ffccff66</color>
		</IconStyle>
		<BalloonStyle>
		</BalloonStyle>
	</Style>
	<Style id="sn_ylw-pushpin0">
		<IconStyle>
			<color>ffccff66</color>
		</IconStyle>
		<BalloonStyle>
		</BalloonStyle>
	</Style>
	<Style id="sn_ylw-pushpin1">
		<IconStyle>
			<color>ffccff66</color>
		</IconStyle>
		<BalloonStyle>
		</BalloonStyle>
	</Style>
	<Folder>
		<name>Carp_oc5_Z4</name>
		<Placemark>
			<name>CARP5-Z4-4</name>
			<styleUrl>#msn_ylw-pushpin1</styleUrl>
			<Point>
				<coordinates>-123.302775690908,54.7613579357359,0</coordinates>
			</Point>
		</Placemark>
		<Placemark>
			<name>CARP5-Z4-7</name>
			<styleUrl>#msn_ylw-pushpin1</styleUrl>
			<Point>
				<coordinates>-123.243253916153,54.7850121313373,0</coordinates>
			</Point>
		</Placemark>
		<Placemark>
			<name>CARP5-Z4-8</name>
			<styleUrl>#msn_ylw-pushpin0</styleUrl>
			<Point>
				<coordinates>-123.249126335732,54.7727314731083,0</coordinates>
			</Point>
		</Placemark>
		<Placemark>
			<name>CARP5-Z4-13</name>
			<styleUrl>#msn_ylw-pushpin0</styleUrl>
			<Point>
				<coordinates>-123.324694244839,54.7678441995262,0</coordinates>
			</Point>
		</Placemark>
		<Placemark>
			<name>CARP5-Z4-33</name>
			<styleUrl>#msn_ylw-pushpin0</styleUrl>
			<Point>
				<coordinates>-123.290979611244,54.7621277646107,0</coordinates>
			</Point>
		</Placemark>
		<Placemark>
			<name>CARP5-Z4-87</name>
			<styleUrl>#msn_ylw-pushpin0</styleUrl>
			<Point>
				<coordinates>-123.277147036377,54.7443944136949,0</coordinates>
			</Point>
		</Placemark>
		<Placemark>
			<name>CARP5-Z4-117</name>
			<styleUrl>#msn_ylw-pushpin0</styleUrl>
			<Point>
				<coordinates>-123.320598610722,54.76663163175811,0</coordinates>
			</Point>
		</Placemark>
		<Placemark>
			<name>CARP5-Z4-135</name>
			<styleUrl>#msn_ylw-pushpin0</styleUrl>
			<Point>
				<coordinates>-123.271320799488,54.7578005668636,0</coordinates>
			</Point>
		</Placemark>
		<Placemark>
			<name>CARP5-Z4-141</name>
			<styleUrl>#msn_ylw-pushpin0</styleUrl>
			<Point>
				<coordinates>-123.301753340665,54.7303037536984,0</coordinates>
			</Point>
		</Placemark>
		<Placemark>
			<name>CARP5-Z4-142</name>
			<styleUrl>#msn_ylw-pushpin0</styleUrl>
			<Point>
				<coordinates>-123.27835638454,54.754440686438,0</coordinates>
			</Point>
		</Placemark>
		<Placemark>
			<name>CARP5-Z4-146</name>
			<styleUrl>#msn_ylw-pushpin0</styleUrl>
			<Point>
				<coordinates>-123.307130333962,54.7300588419314,0</coordinates>
			</Point>
		</Placemark>
		<Placemark>
			<name>CARP5-Z4-155</name>
			<styleUrl>#msn_ylw-pushpin0</styleUrl>
			<Point>
				<coordinates>-123.274301941679,54.7654071320092,0</coordinates>
			</Point>
		</Placemark>
		<Placemark>
			<name>CARP5-Z4-156</name>
			<styleUrl>#msn_ylw-pushpin0</styleUrl>
			<Point>
				<coordinates>-123.252760205006,54.766859622204,0</coordinates>
			</Point>
		</Placemark>
		<Placemark>
			<name>CARP5-Z4-159</name>
			<styleUrl>#msn_ylw-pushpin0</styleUrl>
			<Point>
				<coordinates>-123.269591945156,54.76946758802901,0</coordinates>
			</Point>
		</Placemark>
		<Placemark>
			<name>CARP5-Z4-166</name>
			<styleUrl>#msn_ylw-pushpin0</styleUrl>
			<Point>
				<coordinates>-123.265698807759,54.77182353637971,0</coordinates>
			</Point>
		</Placemark>
		<Placemark>
			<name>CARP5-Z4-175</name>
			<styleUrl>#msn_ylw-pushpin0</styleUrl>
			<Point>
				<coordinates>-123.246978012645,54.77547870966,0</coordinates>
			</Point>
		</Placemark>
		<Placemark>
			<name>CARP5-Z4-206</name>
			<styleUrl>#msn_ylw-pushpin</styleUrl>
			<Point>
				<coordinates>-123.273985041629,54.77020938394049,0</coordinates>
			</Point>
		</Placemark>
		<Placemark>
			<name>CARP5-Z4-216</name>
			<styleUrl>#msn_ylw-pushpin0</styleUrl>
			<Point>
				<coordinates>-123.260400663157,54.7636132763202,0</coordinates>
			</Point>
		</Placemark>
		<Placemark>
			<name>CARP5-Z4-220</name>
			<styleUrl>#msn_ylw-pushpin0</styleUrl>
			<Point>
				<coordinates>-123.341602929153,54.7706378330138,0</coordinates>
			</Point>
		</Placemark>
		<Placemark>
			<name>CARP5-Z4-109</name>
			<LookAt>
				<longitude>-123.2835361098979</longitude>
				<latitude>54.75585200868517</latitude>
				<altitude>0</altitude>
				<heading>0.01742770805636509</heading>
				<tilt>9.477014414099603</tilt>
				<range>8750.141844466296</range>
				<gx:altitudeMode>relativeToSeaFloor</gx:altitudeMode>
			</LookAt>
			<styleUrl>#msn_ylw-pushpin0</styleUrl>
			<Point>
				<gx:drawOrder>1</gx:drawOrder>
				<coordinates>-123.2807268367319,54.74341438033269,0</coordinates>
			</Point>
		</Placemark>
	</Folder>
</Document>
</kml>
