<?xml version="1.0" encoding="UTF-8"?>
<kml xmlns="http://www.opengis.net/kml/2.2" xmlns:gx="http://www.google.com/kml/ext/2.2" xmlns:kml="http://www.opengis.net/kml/2.2" xmlns:atom="http://www.w3.org/2005/Atom">
<Document>
	<name>Carp_oc5_Z3.kml</name>
	<StyleMap id="msn_ylw-pushpin">
		<Pair>
			<key>normal</key>
			<styleUrl>#sn_ylw-pushpin</styleUrl>
		</Pair>
		<Pair>
			<key>highlight</key>
			<styleUrl>#sh_ylw-pushpin</styleUrl>
		</Pair>
	</StyleMap>
	<Style id="sh_ylw-pushpin">
		<IconStyle>
			<color>ff0701fc</color>
			<scale>1.2</scale>
		</IconStyle>
		<BalloonStyle>
		</BalloonStyle>
	</Style>
	<Style id="sn_ylw-pushpin">
		<IconStyle>
			<color>ff0701fc</color>
		</IconStyle>
		<BalloonStyle>
		</BalloonStyle>
	</Style>
	<Folder>
		<name>Carp_oc5_Z3</name>
		<Placemark>
			<name>CARP5-Z3-29</name>
			<styleUrl>#msn_ylw-pushpin</styleUrl>
			<Point>
				<coordinates>-123.356823977084,54.764479687536,0</coordinates>
			</Point>
		</Placemark>
		<Placemark>
			<name>CARP5-Z3-32</name>
			<styleUrl>#msn_ylw-pushpin</styleUrl>
			<Point>
				<coordinates>-123.363317272361,54.749934691458,0</coordinates>
			</Point>
		</Placemark>
		<Placemark>
			<name>CARP5-Z3-35</name>
			<styleUrl>#msn_ylw-pushpin</styleUrl>
			<Point>
				<coordinates>-123.360161185232,54.71961130084399,0</coordinates>
			</Point>
		</Placemark>
		<Placemark>
			<name>CARP5-Z3-48</name>
			<styleUrl>#msn_ylw-pushpin</styleUrl>
			<Point>
				<coordinates>-123.37150706114,54.74266695358061,0</coordinates>
			</Point>
		</Placemark>
		<Placemark>
			<name>CARP5-Z3-61</name>
			<styleUrl>#msn_ylw-pushpin</styleUrl>
			<Point>
				<coordinates>-123.337546140844,54.7255377748339,0</coordinates>
			</Point>
		</Placemark>
		<Placemark>
			<name>CARP5-Z3-73</name>
			<styleUrl>#msn_ylw-pushpin</styleUrl>
			<Point>
				<coordinates>-123.366349339073,54.72241662150881,0</coordinates>
			</Point>
		</Placemark>
		<Placemark>
			<name>CARP5-Z3-76</name>
			<styleUrl>#msn_ylw-pushpin</styleUrl>
			<Point>
				<coordinates>-123.373191949447,54.7186108751116,0</coordinates>
			</Point>
		</Placemark>
		<Placemark>
			<name>CARP5-Z3-78</name>
			<styleUrl>#msn_ylw-pushpin</styleUrl>
			<Point>
				<coordinates>-123.376934303229,54.7260960240108,0</coordinates>
			</Point>
		</Placemark>
		<Placemark>
			<name>CARP5-Z3-96</name>
			<styleUrl>#msn_ylw-pushpin</styleUrl>
			<Point>
				<coordinates>-123.355759046626,54.7659036694433,0</coordinates>
			</Point>
		</Placemark>
		<Placemark>
			<name>CARP5-Z3-101</name>
			<styleUrl>#msn_ylw-pushpin</styleUrl>
			<Point>
				<coordinates>-123.373195199134,54.7381683276024,0</coordinates>
			</Point>
		</Placemark>
		<Placemark>
			<name>CARP5-Z3-129</name>
			<styleUrl>#msn_ylw-pushpin</styleUrl>
			<Point>
				<coordinates>-123.323534350363,54.7253908351162,0</coordinates>
			</Point>
		</Placemark>
		<Placemark>
			<name>CARP5-Z3-138</name>
			<styleUrl>#msn_ylw-pushpin</styleUrl>
			<Point>
				<coordinates>-123.369729353715,54.75434944948071,0</coordinates>
			</Point>
		</Placemark>
		<Placemark>
			<name>CARP5-Z3-140</name>
			<styleUrl>#msn_ylw-pushpin</styleUrl>
			<Point>
				<coordinates>-123.352634948811,54.71920288839371,0</coordinates>
			</Point>
		</Placemark>
		<Placemark>
			<name>CARP5-Z3-165</name>
			<styleUrl>#msn_ylw-pushpin</styleUrl>
			<Point>
				<coordinates>-123.369352028458,54.7531916485059,0</coordinates>
			</Point>
		</Placemark>
		<Placemark>
			<name>CARP5-Z3-181</name>
			<styleUrl>#msn_ylw-pushpin</styleUrl>
			<Point>
				<coordinates>-123.31714313334,54.72827068366251,0</coordinates>
			</Point>
		</Placemark>
		<Placemark>
			<name>CARP5-Z3-182</name>
			<styleUrl>#msn_ylw-pushpin</styleUrl>
			<Point>
				<coordinates>-123.344070281963,54.7242610987311,0</coordinates>
			</Point>
		</Placemark>
		<Placemark>
			<name>CARP5-Z3-190</name>
			<styleUrl>#msn_ylw-pushpin</styleUrl>
			<Point>
				<coordinates>-123.370976766366,54.7124237138269,0</coordinates>
			</Point>
		</Placemark>
		<Placemark>
			<name>CARP5-Z3-197</name>
			<styleUrl>#msn_ylw-pushpin</styleUrl>
			<Point>
				<coordinates>-123.328392292587,54.7271542056259,0</coordinates>
			</Point>
		</Placemark>
		<Placemark>
			<name>CARP5-Z3-209</name>
			<styleUrl>#msn_ylw-pushpin</styleUrl>
			<Point>
				<coordinates>-123.350361601428,54.7180232659111,0</coordinates>
			</Point>
		</Placemark>
		<Placemark>
			<name>CARP5-Z3-219</name>
			<styleUrl>#msn_ylw-pushpin</styleUrl>
			<Point>
				<coordinates>-123.3818287473,54.7174521134008,0</coordinates>
			</Point>
		</Placemark>
	</Folder>
</Document>
</kml>
