<?xml version="1.0" standalone="yes"?>
<gpx xmlns="http://www.topografix.com/GPX/1/1" creator="KML2GPX.COM" version="1.1" xmlns:xsi="http://www.w3.org/2001/XMLSchema-instance" xsi:schemaLocation="http://www.topografix.com/GPX/1/1 http://www.topografix.com/GPX/1/1/gpx.xsd">
    <metadata>
        <name><![CDATA[carp_oc6_Z1.kml]]></name>
        <desc><![CDATA[Converted from a KML file KML2GPX.COM]]></desc>
                </metadata>

                                                                                
                <wpt lat="54.8114912814967" lon="-123.330866802254">
                                                            <ele>0</ele>
                    <name><![CDATA[CARP6-Z1-2]]></name>
                    <cmt><![CDATA[Waypoint no: 1]]></cmt>
                    <desc><![CDATA[This is waypoint no: 1]]></desc>
                </wpt>
                                                                                                                            
                <wpt lat="54.8098565131251" lon="-123.348385599696">
                                                            <ele>0</ele>
                    <name><![CDATA[CARP6-Z1-13]]></name>
                    <cmt><![CDATA[Waypoint no: 2]]></cmt>
                    <desc><![CDATA[This is waypoint no: 2]]></desc>
                </wpt>
                                                                                                                            
                <wpt lat="54.79059593731179" lon="-123.371538550198">
                                                            <ele>0</ele>
                    <name><![CDATA[CARP6-Z1-22]]></name>
                    <cmt><![CDATA[Waypoint no: 3]]></cmt>
                    <desc><![CDATA[This is waypoint no: 3]]></desc>
                </wpt>
                                                                                                                            
                <wpt lat="54.79963580573959" lon="-123.354116688299">
                                                            <ele>0</ele>
                    <name><![CDATA[CARP6-Z1-41]]></name>
                    <cmt><![CDATA[Waypoint no: 4]]></cmt>
                    <desc><![CDATA[This is waypoint no: 4]]></desc>
                </wpt>
                                                                                                                            
                <wpt lat="54.7808611086578" lon="-123.319745646994">
                                                            <ele>0</ele>
                    <name><![CDATA[CARP6-Z1-117]]></name>
                    <cmt><![CDATA[Waypoint no: 5]]></cmt>
                    <desc><![CDATA[This is waypoint no: 5]]></desc>
                </wpt>
                                                                                                                            
                <wpt lat="54.8102847106914" lon="-123.34532658849">
                                                            <ele>0</ele>
                    <name><![CDATA[CARP6-Z1-142]]></name>
                    <cmt><![CDATA[Waypoint no: 6]]></cmt>
                    <desc><![CDATA[This is waypoint no: 6]]></desc>
                </wpt>
                                                                                                                            
                <wpt lat="54.7854253433273" lon="-123.319009726413">
                                                            <ele>0</ele>
                    <name><![CDATA[CARP6-Z1-151]]></name>
                    <cmt><![CDATA[Waypoint no: 7]]></cmt>
                    <desc><![CDATA[This is waypoint no: 7]]></desc>
                </wpt>
                                                                                                                            
                <wpt lat="54.7987987042948" lon="-123.340214404016">
                                                            <ele>0</ele>
                    <name><![CDATA[CARP6-Z1-165]]></name>
                    <cmt><![CDATA[Waypoint no: 8]]></cmt>
                    <desc><![CDATA[This is waypoint no: 8]]></desc>
                </wpt>
                                                                                                                            
                <wpt lat="54.7718019580274" lon="-123.345972892601">
                                                            <ele>0</ele>
                    <name><![CDATA[CARP6-Z1-171]]></name>
                    <cmt><![CDATA[Waypoint no: 9]]></cmt>
                    <desc><![CDATA[This is waypoint no: 9]]></desc>
                </wpt>
                                                                                                                            
                <wpt lat="54.8033060046017" lon="-123.324503448535">
                                                            <ele>0</ele>
                    <name><![CDATA[CARP6-Z1-173]]></name>
                    <cmt><![CDATA[Waypoint no: 10]]></cmt>
                    <desc><![CDATA[This is waypoint no: 10]]></desc>
                </wpt>
                                                                                                                            
                <wpt lat="54.7976442000949" lon="-123.357886219198">
                                                            <ele>0</ele>
                    <name><![CDATA[CARP6-Z1-227]]></name>
                    <cmt><![CDATA[Waypoint no: 11]]></cmt>
                    <desc><![CDATA[This is waypoint no: 11]]></desc>
                </wpt>
                                                                                                                            
                <wpt lat="54.7959522825622" lon="-123.327258801348">
                                                            <ele>0</ele>
                    <name><![CDATA[CARP6-Z1-241]]></name>
                    <cmt><![CDATA[Waypoint no: 12]]></cmt>
                    <desc><![CDATA[This is waypoint no: 12]]></desc>
                </wpt>
                                                                                                                            
                <wpt lat="54.7814375050776" lon="-123.336522094189">
                                                            <ele>0</ele>
                    <name><![CDATA[CARP6-Z1-268]]></name>
                    <cmt><![CDATA[Waypoint no: 13]]></cmt>
                    <desc><![CDATA[This is waypoint no: 13]]></desc>
                </wpt>
                                                                                                                            
                <wpt lat="54.8190011373791" lon="-123.348881616027">
                                                            <ele>0</ele>
                    <name><![CDATA[CARP6-Z1-272]]></name>
                    <cmt><![CDATA[Waypoint no: 14]]></cmt>
                    <desc><![CDATA[This is waypoint no: 14]]></desc>
                </wpt>
                                                                                                                            
                <wpt lat="54.793873875748" lon="-123.335327176358">
                                                            <ele>0</ele>
                    <name><![CDATA[CARP6-Z1-300]]></name>
                    <cmt><![CDATA[Waypoint no: 15]]></cmt>
                    <desc><![CDATA[This is waypoint no: 15]]></desc>
                </wpt>
                                                                                                                            
                <wpt lat="54.79234339965149" lon="-123.322220216086">
                                                            <ele>0</ele>
                    <name><![CDATA[CARP6-Z1-315]]></name>
                    <cmt><![CDATA[Waypoint no: 16]]></cmt>
                    <desc><![CDATA[This is waypoint no: 16]]></desc>
                </wpt>
                                                                                                                            
                <wpt lat="54.7807946482926" lon="-123.339247834074">
                                                            <ele>0</ele>
                    <name><![CDATA[CARP6-Z1-343]]></name>
                    <cmt><![CDATA[Waypoint no: 17]]></cmt>
                    <desc><![CDATA[This is waypoint no: 17]]></desc>
                </wpt>
                                                                                                                            
                <wpt lat="54.7965921196468" lon="-123.364432287995">
                                                            <ele>0</ele>
                    <name><![CDATA[CARP6-Z1-350]]></name>
                    <cmt><![CDATA[Waypoint no: 18]]></cmt>
                    <desc><![CDATA[This is waypoint no: 18]]></desc>
                </wpt>
                                                                                                                            
                <wpt lat="54.7969546850113" lon="-123.338597326108">
                                                            <ele>0</ele>
                    <name><![CDATA[CARP6-Z1-366]]></name>
                    <cmt><![CDATA[Waypoint no: 19]]></cmt>
                    <desc><![CDATA[This is waypoint no: 19]]></desc>
                </wpt>
                                                                                                                            
                <wpt lat="54.7887531874801" lon="-123.365935136647">
                                                            <ele>0</ele>
                    <name><![CDATA[CARP6-Z1-379]]></name>
                    <cmt><![CDATA[Waypoint no: 20]]></cmt>
                    <desc><![CDATA[This is waypoint no: 20]]></desc>
                </wpt>
                                                            
                    
    
</gpx>