<?xml version="1.0" encoding="UTF-8"?>
<kml xmlns="http://www.opengis.net/kml/2.2" xmlns:gx="http://www.google.com/kml/ext/2.2" xmlns:kml="http://www.opengis.net/kml/2.2" xmlns:atom="http://www.w3.org/2005/Atom">
<Document>
	<name>carp_occ3_z2.kml</name>
	<Style id="hl">
		<IconStyle>
			<color>ffff0080</color>
			<scale>1.2</scale>
		</IconStyle>
	</Style>
	<Style id="default">
		<IconStyle>
			<color>ffff0080</color>
		</IconStyle>
	</Style>
	<Style id="sn_ylw-pushpin0">
		<IconStyle>
			<color>ffff0080</color>
		</IconStyle>
	</Style>
	<StyleMap id="msn_ylw-pushpin0">
		<Pair>
			<key>normal</key>
			<styleUrl>#sn_ylw-pushpin</styleUrl>
		</Pair>
		<Pair>
			<key>highlight</key>
			<styleUrl>#sh_ylw-pushpin</styleUrl>
		</Pair>
	</StyleMap>
	<Style id="sh_ylw-pushpin">
		<IconStyle>
			<color>ffff0080</color>
			<scale>1.2</scale>
		</IconStyle>
	</Style>
	<StyleMap id="msn_ylw-pushpin">
		<Pair>
			<key>normal</key>
			<styleUrl>#sn_ylw-pushpin0</styleUrl>
		</Pair>
		<Pair>
			<key>highlight</key>
			<styleUrl>#sh_ylw-pushpin0</styleUrl>
		</Pair>
	</StyleMap>
	<StyleMap id="default0">
		<Pair>
			<key>normal</key>
			<styleUrl>#default</styleUrl>
		</Pair>
		<Pair>
			<key>highlight</key>
			<styleUrl>#hl</styleUrl>
		</Pair>
	</StyleMap>
	<Style id="sh_ylw-pushpin0">
		<IconStyle>
			<color>ffff0080</color>
			<scale>1.2</scale>
		</IconStyle>
	</Style>
	<Style id="sn_ylw-pushpin">
		<IconStyle>
			<color>ffff0080</color>
		</IconStyle>
	</Style>
	<Folder>
		<name>carp_occ3_z2</name>
		<Placemark>
			<name>CARP3-Z2-290</name>
			<styleUrl>#default0</styleUrl>
			<Point>
				<coordinates>-123.420885707254,54.77607576148471,0</coordinates>
			</Point>
		</Placemark>
		<Placemark>
			<name>CARP3-Z2-303</name>
			<styleUrl>#default0</styleUrl>
			<Point>
				<coordinates>-123.40466779136,54.78660101895721,0</coordinates>
			</Point>
		</Placemark>
		<Placemark>
			<name>CARP3-Z2-6</name>
			<styleUrl>#msn_ylw-pushpin</styleUrl>
			<Point>
				<coordinates>-123.40328273952,54.7582353851276,0</coordinates>
			</Point>
		</Placemark>
		<Placemark>
			<name>CARP3-Z2-45</name>
			<styleUrl>#msn_ylw-pushpin</styleUrl>
			<Point>
				<coordinates>-123.387836485695,54.77444181879379,0</coordinates>
			</Point>
		</Placemark>
		<Placemark>
			<name>CARP3-Z2-69</name>
			<styleUrl>#msn_ylw-pushpin</styleUrl>
			<Point>
				<coordinates>-123.389680828716,54.7594828844739,0</coordinates>
			</Point>
		</Placemark>
		<Placemark>
			<name>CARP3-Z2-83</name>
			<styleUrl>#msn_ylw-pushpin</styleUrl>
			<Point>
				<coordinates>-123.406119632523,54.76945920785081,0</coordinates>
			</Point>
		</Placemark>
		<Placemark>
			<name>CARP3-Z2-90</name>
			<styleUrl>#msn_ylw-pushpin</styleUrl>
			<Point>
				<coordinates>-123.373523180627,54.7823639609953,0</coordinates>
			</Point>
		</Placemark>
		<Placemark>
			<name>CARP3-Z2-120</name>
			<styleUrl>#msn_ylw-pushpin0</styleUrl>
			<Point>
				<coordinates>-123.403789525946,54.77020938394049,0</coordinates>
			</Point>
		</Placemark>
		<Placemark>
			<name>CARP3-Z2-159</name>
			<styleUrl>#msn_ylw-pushpin</styleUrl>
			<Point>
				<coordinates>-123.399710072441,54.7617330150478,0</coordinates>
			</Point>
		</Placemark>
		<Placemark>
			<name>CARP3-Z2-167</name>
			<styleUrl>#msn_ylw-pushpin</styleUrl>
			<Point>
				<coordinates>-123.404211495364,54.7718635907072,0</coordinates>
			</Point>
		</Placemark>
		<Placemark>
			<name>CARP3-Z2-195</name>
			<styleUrl>#msn_ylw-pushpin</styleUrl>
			<Point>
				<coordinates>-123.382068893189,54.7601105676698,0</coordinates>
			</Point>
		</Placemark>
		<Placemark>
			<name>CARP3-Z2-207</name>
			<styleUrl>#msn_ylw-pushpin</styleUrl>
			<Point>
				<coordinates>-123.383374495215,54.7822891928536,0</coordinates>
			</Point>
		</Placemark>
		<Placemark>
			<name>CARP3-Z2-263</name>
			<styleUrl>#msn_ylw-pushpin</styleUrl>
			<Point>
				<coordinates>-123.376629450779,54.7829451226719,0</coordinates>
			</Point>
		</Placemark>
		<Placemark>
			<name>CARP3-Z2-285</name>
			<styleUrl>#msn_ylw-pushpin</styleUrl>
			<Point>
				<coordinates>-123.402747422636,54.77272380490231,0</coordinates>
			</Point>
		</Placemark>
		<Placemark>
			<name>CARP3-Z2-299</name>
			<styleUrl>#msn_ylw-pushpin</styleUrl>
			<Point>
				<coordinates>-123.404130867859,54.77771259470811,0</coordinates>
			</Point>
		</Placemark>
		<Placemark>
			<name>CARP3-Z2-353</name>
			<styleUrl>#msn_ylw-pushpin0</styleUrl>
			<Point>
				<coordinates>-123.40728121269,54.7602704415412,0</coordinates>
			</Point>
		</Placemark>
		<Placemark>
			<name>CARP3-Z2-354</name>
			<styleUrl>#msn_ylw-pushpin</styleUrl>
			<Point>
				<coordinates>-123.407734012634,54.7596316061249,0</coordinates>
			</Point>
		</Placemark>
		<Placemark>
			<name>CARP3-Z2-369</name>
			<styleUrl>#msn_ylw-pushpin</styleUrl>
			<Point>
				<coordinates>-123.401105598959,54.7770790642012,0</coordinates>
			</Point>
		</Placemark>
		<Placemark>
			<name>CARP3-Z2-387</name>
			<styleUrl>#msn_ylw-pushpin</styleUrl>
			<Point>
				<coordinates>-123.402176284317,54.7761009389076,0</coordinates>
			</Point>
		</Placemark>
		<Placemark>
			<name>CARP3-Z2-392</name>
			<styleUrl>#msn_ylw-pushpin</styleUrl>
			<Point>
				<coordinates>-123.412380531004,54.77360015452069,0</coordinates>
			</Point>
		</Placemark>
		<Placemark>
			<name>CARP3-Z2-393</name>
			<styleUrl>#msn_ylw-pushpin</styleUrl>
			<Point>
				<coordinates>-123.385468927697,54.77657720372029,0</coordinates>
			</Point>
		</Placemark>
		<Placemark>
			<name>CARP3-Z2-405</name>
			<styleUrl>#msn_ylw-pushpin</styleUrl>
			<Point>
				<coordinates>-123.399606943662,54.7636546772735,0</coordinates>
			</Point>
		</Placemark>
		<Placemark>
			<name>CARP3-Z2-420</name>
			<styleUrl>#msn_ylw-pushpin</styleUrl>
			<Point>
				<coordinates>-123.371110166911,54.7642748633162,0</coordinates>
			</Point>
		</Placemark>
	</Folder>
</Document>
</kml>
