<?xml version="1.0" standalone="yes"?>
<gpx xmlns="http://www.topografix.com/GPX/1/1" creator="KML2GPX.COM" version="1.1" xmlns:xsi="http://www.w3.org/2001/XMLSchema-instance" xsi:schemaLocation="http://www.topografix.com/GPX/1/1 http://www.topografix.com/GPX/1/1/gpx.xsd">
    <metadata>
        <name><![CDATA[carp_oc6_Z3.kml]]></name>
        <desc><![CDATA[Converted from a KML file KML2GPX.COM]]></desc>
                </metadata>

                                                                                
                <wpt lat="54.76267688431779" lon="-123.3528652036114">
                                                            <ele>0</ele>
                    <name><![CDATA[CARP6-Z3-3]]></name>
                    <cmt><![CDATA[Waypoint no: 1]]></cmt>
                    <desc><![CDATA[This is waypoint no: 1]]></desc>
                </wpt>
                                                                                                                            
                <wpt lat="54.7518934540687" lon="-123.370012740977">
                                                            <ele>0</ele>
                    <name><![CDATA[CARP6-Z3-19]]></name>
                    <cmt><![CDATA[Waypoint no: 2]]></cmt>
                    <desc><![CDATA[This is waypoint no: 2]]></desc>
                </wpt>
                                                                                                                            
                <wpt lat="54.7259649722696" lon="-123.37984207078">
                                                            <ele>0</ele>
                    <name><![CDATA[CARP6-Z3-39]]></name>
                    <cmt><![CDATA[Waypoint no: 3]]></cmt>
                    <desc><![CDATA[This is waypoint no: 3]]></desc>
                </wpt>
                                                                                                                            
                <wpt lat="54.7267154752238" lon="-123.329803153414">
                                                            <ele>0</ele>
                    <name><![CDATA[CARP6-Z3-61]]></name>
                    <cmt><![CDATA[Waypoint no: 4]]></cmt>
                    <desc><![CDATA[This is waypoint no: 4]]></desc>
                </wpt>
                                                                                                                            
                <wpt lat="54.72068908868989" lon="-123.36961490842">
                                                            <ele>0</ele>
                    <name><![CDATA[CARP6-Z3-71]]></name>
                    <cmt><![CDATA[Waypoint no: 5]]></cmt>
                    <desc><![CDATA[This is waypoint no: 5]]></desc>
                </wpt>
                                                                                                                            
                <wpt lat="54.7126937545699" lon="-123.379230014">
                                                            <ele>0</ele>
                    <name><![CDATA[CARP6-Z3-78]]></name>
                    <cmt><![CDATA[Waypoint no: 6]]></cmt>
                    <desc><![CDATA[This is waypoint no: 6]]></desc>
                </wpt>
                                                                                                                            
                <wpt lat="54.7271715427531" lon="-123.318512663538">
                                                            <ele>0</ele>
                    <name><![CDATA[CARP6-Z3-112]]></name>
                    <cmt><![CDATA[Waypoint no: 7]]></cmt>
                    <desc><![CDATA[This is waypoint no: 7]]></desc>
                </wpt>
                                                                                                                            
                <wpt lat="54.7186910090658" lon="-123.363257847226">
                                                            <ele>0</ele>
                    <name><![CDATA[CARP6-Z3-122]]></name>
                    <cmt><![CDATA[Waypoint no: 8]]></cmt>
                    <desc><![CDATA[This is waypoint no: 8]]></desc>
                </wpt>
                                                                                                                            
                <wpt lat="54.7636461919721" lon="-123.356978864216">
                                                            <ele>0</ele>
                    <name><![CDATA[CARP6-Z3-157]]></name>
                    <cmt><![CDATA[Waypoint no: 9]]></cmt>
                    <desc><![CDATA[This is waypoint no: 9]]></desc>
                </wpt>
                                                                                                                            
                <wpt lat="54.7227849974321" lon="-123.353925489979">
                                                            <ele>0</ele>
                    <name><![CDATA[CARP6-Z3-160]]></name>
                    <cmt><![CDATA[Waypoint no: 10]]></cmt>
                    <desc><![CDATA[This is waypoint no: 10]]></desc>
                </wpt>
                                                                                                                            
                <wpt lat="54.73486035017301" lon="-123.373317807004">
                                                            <ele>0</ele>
                    <name><![CDATA[CARP6-Z3-226]]></name>
                    <cmt><![CDATA[Waypoint no: 11]]></cmt>
                    <desc><![CDATA[This is waypoint no: 11]]></desc>
                </wpt>
                                                                                                                            
                <wpt lat="54.7264210249727" lon="-123.320710595308">
                                                            <ele>0</ele>
                    <name><![CDATA[CARP6-Z3-254]]></name>
                    <cmt><![CDATA[Waypoint no: 12]]></cmt>
                    <desc><![CDATA[This is waypoint no: 12]]></desc>
                </wpt>
                                                                                                                            
                <wpt lat="54.7118509087629" lon="-123.371283193752">
                                                            <ele>0</ele>
                    <name><![CDATA[CARP6-Z3-314]]></name>
                    <cmt><![CDATA[Waypoint no: 13]]></cmt>
                    <desc><![CDATA[This is waypoint no: 13]]></desc>
                </wpt>
                                                                                                                            
                <wpt lat="54.75456720571881" lon="-123.368459454056">
                                                            <ele>0</ele>
                    <name><![CDATA[CARP6-Z3-352]]></name>
                    <cmt><![CDATA[Waypoint no: 14]]></cmt>
                    <desc><![CDATA[This is waypoint no: 14]]></desc>
                </wpt>
                                                                                                                            
                <wpt lat="54.7273490864034" lon="-123.373596188259">
                                                            <ele>0</ele>
                    <name><![CDATA[CARP6-Z3-371]]></name>
                    <cmt><![CDATA[Waypoint no: 15]]></cmt>
                    <desc><![CDATA[This is waypoint no: 15]]></desc>
                </wpt>
                                                                                                                            
                <wpt lat="54.7415319943771" lon="-123.372695334097">
                                                            <ele>0</ele>
                    <name><![CDATA[CARP6-Z3-388]]></name>
                    <cmt><![CDATA[Waypoint no: 16]]></cmt>
                    <desc><![CDATA[This is waypoint no: 16]]></desc>
                </wpt>
                                                                                                                            
                <wpt lat="54.72163760383161" lon="-123.378052426421">
                                                            <ele>0</ele>
                    <name><![CDATA[CARP6-Z3-389]]></name>
                    <cmt><![CDATA[Waypoint no: 17]]></cmt>
                    <desc><![CDATA[This is waypoint no: 17]]></desc>
                </wpt>
                                                                                                                            
                <wpt lat="54.7231705542432" lon="-123.359565572407">
                                                            <ele>0</ele>
                    <name><![CDATA[CARP6-Z3-395]]></name>
                    <cmt><![CDATA[Waypoint no: 18]]></cmt>
                    <desc><![CDATA[This is waypoint no: 18]]></desc>
                </wpt>
                                                                                                                            
                <wpt lat="54.7277897061115" lon="-123.314920340626">
                                                            <ele>0</ele>
                    <name><![CDATA[CARP6-Z3-410]]></name>
                    <cmt><![CDATA[Waypoint no: 19]]></cmt>
                    <desc><![CDATA[This is waypoint no: 19]]></desc>
                </wpt>
                                                                                                                            
                <wpt lat="54.7171465066723" lon="-123.379030132854">
                                                            <ele>0</ele>
                    <name><![CDATA[CARP6-Z3-418]]></name>
                    <cmt><![CDATA[Waypoint no: 20]]></cmt>
                    <desc><![CDATA[This is waypoint no: 20]]></desc>
                </wpt>
                                                            
                    
    
</gpx>