<?xml version="1.0" encoding="UTF-8"?>
<kml xmlns="http://www.opengis.net/kml/2.2" xmlns:gx="http://www.google.com/kml/ext/2.2" xmlns:kml="http://www.opengis.net/kml/2.2" xmlns:atom="http://www.w3.org/2005/Atom">
<Document>
	<name>Carp_oc7_Z1.kml</name>
	<StyleMap id="msn_ylw-pushpin">
		<Pair>
			<key>normal</key>
			<styleUrl>#sn_ylw-pushpin0</styleUrl>
		</Pair>
		<Pair>
			<key>highlight</key>
			<styleUrl>#sh_ylw-pushpin</styleUrl>
		</Pair>
	</StyleMap>
	<StyleMap id="msn_ylw-pushpin0">
		<Pair>
			<key>normal</key>
			<styleUrl>#sn_ylw-pushpin</styleUrl>
		</Pair>
		<Pair>
			<key>highlight</key>
			<styleUrl>#sh_ylw-pushpin0</styleUrl>
		</Pair>
	</StyleMap>
	<Style id="sh_ylw-pushpin">
		<IconStyle>
			<color>ff66ff66</color>
			<scale>1.2</scale>
		</IconStyle>
	</Style>
	<Style id="sh_ylw-pushpin0">
		<IconStyle>
			<color>ff66ff66</color>
			<scale>1.2</scale>
		</IconStyle>
	</Style>
	<Style id="sn_ylw-pushpin">
		<IconStyle>
			<color>ff66ff66</color>
		</IconStyle>
	</Style>
	<Style id="sn_ylw-pushpin0">
		<IconStyle>
			<color>ff66ff66</color>
		</IconStyle>
	</Style>
	<Folder>
		<name>Carp_oc7_Z1</name>
		<Placemark>
			<name>CARP7-Z1-2</name>
			<styleUrl>#msn_ylw-pushpin</styleUrl>
			<Point>
				<coordinates>-123.330866802254,54.7881571949876,0</coordinates>
			</Point>
		</Placemark>
		<Placemark>
			<name>CARP7-Z1-4</name>
			<styleUrl>#msn_ylw-pushpin</styleUrl>
			<Point>
				<coordinates>-123.318455617327,54.78320383401821,0</coordinates>
			</Point>
		</Placemark>
		<Placemark>
			<name>CARP7-Z1-7</name>
			<styleUrl>#msn_ylw-pushpin</styleUrl>
			<Point>
				<coordinates>-123.342546227353,54.7781493753391,0</coordinates>
			</Point>
		</Placemark>
		<Placemark>
			<name>CARP7-Z1-14</name>
			<styleUrl>#msn_ylw-pushpin</styleUrl>
			<Point>
				<coordinates>-123.348385599696,54.8093993323483,0</coordinates>
			</Point>
		</Placemark>
		<Placemark>
			<name>CARP7-Z1-16</name>
			<styleUrl>#msn_ylw-pushpin</styleUrl>
			<Point>
				<coordinates>-123.369908878225,54.7856719441269,0</coordinates>
			</Point>
		</Placemark>
		<Placemark>
			<name>CARP7-Z1-31</name>
			<styleUrl>#msn_ylw-pushpin</styleUrl>
			<Point>
				<coordinates>-123.324009667204,54.8049416617466,0</coordinates>
			</Point>
		</Placemark>
		<Placemark>
			<name>CARP7-Z1-61</name>
			<styleUrl>#msn_ylw-pushpin0</styleUrl>
			<Point>
				<coordinates>-123.3312721267964,54.79227490288025,0</coordinates>
			</Point>
		</Placemark>
		<Placemark>
			<name>CARP7-Z1-126</name>
			<styleUrl>#msn_ylw-pushpin</styleUrl>
			<Point>
				<coordinates>-123.338059133897,54.7995776833277,0</coordinates>
			</Point>
		</Placemark>
		<Placemark>
			<name>CARP7-Z1-137</name>
			<styleUrl>#msn_ylw-pushpin</styleUrl>
			<Point>
				<coordinates>-123.338136049617,54.79479893607021,0</coordinates>
			</Point>
		</Placemark>
		<Placemark>
			<name>CARP7-Z1-148</name>
			<styleUrl>#msn_ylw-pushpin0</styleUrl>
			<Point>
				<coordinates>-123.3624086482153,54.79378708320529,0</coordinates>
			</Point>
		</Placemark>
		<Placemark>
			<name>CARP7-Z1-150</name>
			<styleUrl>#msn_ylw-pushpin</styleUrl>
			<Point>
				<coordinates>-123.368807543065,54.7895175795567,0</coordinates>
			</Point>
		</Placemark>
		<Placemark>
			<name>CARP7-Z1-175</name>
			<styleUrl>#msn_ylw-pushpin</styleUrl>
			<Point>
				<coordinates>-123.309439594719,54.78063173984701,0</coordinates>
			</Point>
		</Placemark>
		<Placemark>
			<name>CARP7-Z1-187</name>
			<styleUrl>#msn_ylw-pushpin</styleUrl>
			<Point>
				<coordinates>-123.326578433564,54.7931464423909,0</coordinates>
			</Point>
		</Placemark>
		<Placemark>
			<name>CARP7-Z1-209</name>
			<styleUrl>#msn_ylw-pushpin</styleUrl>
			<Point>
				<coordinates>-123.365154033711,54.79846593869849,0</coordinates>
			</Point>
		</Placemark>
		<Placemark>
			<name>CARP7-Z1-222</name>
			<styleUrl>#msn_ylw-pushpin</styleUrl>
			<Point>
				<coordinates>-123.333336361795,54.80103497761421,0</coordinates>
			</Point>
		</Placemark>
		<Placemark>
			<name>CARP7-Z1-227</name>
			<styleUrl>#msn_ylw-pushpin</styleUrl>
			<Point>
				<coordinates>-123.328124084771,54.80908512703179,0</coordinates>
			</Point>
		</Placemark>
		<Placemark>
			<name>CARP7-Z1-235</name>
			<styleUrl>#msn_ylw-pushpin</styleUrl>
			<Point>
				<coordinates>-123.352088419295,54.80368999309199,0</coordinates>
			</Point>
		</Placemark>
		<Placemark>
			<name>CARP7-Z1-236</name>
			<styleUrl>#msn_ylw-pushpin</styleUrl>
			<Point>
				<coordinates>-123.344570869683,54.7777630733148,0</coordinates>
			</Point>
		</Placemark>
		<Placemark>
			<name>CARP7-Z1-244</name>
			<styleUrl>#msn_ylw-pushpin</styleUrl>
			<Point>
				<coordinates>-123.32362823913,54.7829451226719,0</coordinates>
			</Point>
		</Placemark>
		<Placemark>
			<name>CARP7-Z1-331</name>
			<styleUrl>#msn_ylw-pushpin0</styleUrl>
			<Point>
				<coordinates>-123.3568067618838,54.80151506001652,0</coordinates>
			</Point>
		</Placemark>
	</Folder>
</Document>
</kml>
