<?xml version="1.0" standalone="yes"?>
<gpx xmlns="http://www.topografix.com/GPX/1/1" creator="KML2GPX.COM" version="1.1" xmlns:xsi="http://www.w3.org/2001/XMLSchema-instance" xsi:schemaLocation="http://www.topografix.com/GPX/1/1 http://www.topografix.com/GPX/1/1/gpx.xsd">
    <metadata>
        <name><![CDATA[Carp_oc7_Z2.kml]]></name>
        <desc><![CDATA[Converted from a KML file KML2GPX.COM]]></desc>
                </metadata>

                                                                                
                <wpt lat="54.7625073228555" lon="-123.365559241833">
                                                            <ele>0</ele>
                    <name><![CDATA[CARP7-Z2-15]]></name>
                    <cmt><![CDATA[Waypoint no: 1]]></cmt>
                    <desc><![CDATA[This is waypoint no: 1]]></desc>
                </wpt>
                                                                                                                            
                <wpt lat="54.7626811740035" lon="-123.37228698004">
                                                            <ele>0</ele>
                    <name><![CDATA[CARP7-Z2-21]]></name>
                    <cmt><![CDATA[Waypoint no: 2]]></cmt>
                    <desc><![CDATA[This is waypoint no: 2]]></desc>
                </wpt>
                                                                                                                            
                <wpt lat="54.7582353851276" lon="-123.39377677291">
                                                            <ele>0</ele>
                    <name><![CDATA[CARP7-Z2-60]]></name>
                    <cmt><![CDATA[Waypoint no: 3]]></cmt>
                    <desc><![CDATA[This is waypoint no: 3]]></desc>
                </wpt>
                                                                                                                            
                <wpt lat="54.78449086927" lon="-123.385090752155">
                                                            <ele>0</ele>
                    <name><![CDATA[CARP7-Z2-65]]></name>
                    <cmt><![CDATA[Waypoint no: 4]]></cmt>
                    <desc><![CDATA[This is waypoint no: 4]]></desc>
                </wpt>
                                                                                                                            
                <wpt lat="54.7597501924959" lon="-123.372896336616">
                                                            <ele>0</ele>
                    <name><![CDATA[CARP7-Z2-103]]></name>
                    <cmt><![CDATA[Waypoint no: 5]]></cmt>
                    <desc><![CDATA[This is waypoint no: 5]]></desc>
                </wpt>
                                                                                                                            
                <wpt lat="54.7839383880635" lon="-123.376932522405">
                                                            <ele>0</ele>
                    <name><![CDATA[CARP7-Z2-113]]></name>
                    <cmt><![CDATA[Waypoint no: 6]]></cmt>
                    <desc><![CDATA[This is waypoint no: 6]]></desc>
                </wpt>
                                                                                                                            
                <wpt lat="54.775874257878" lon="-123.425825773328">
                                                            <ele>0</ele>
                    <name><![CDATA[CARP7-Z2-123]]></name>
                    <cmt><![CDATA[Waypoint no: 7]]></cmt>
                    <desc><![CDATA[This is waypoint no: 7]]></desc>
                </wpt>
                                                                                                                            
                <wpt lat="54.7695146037684" lon="-123.410629189008">
                                                            <ele>0</ele>
                    <name><![CDATA[CARP7-Z2-139]]></name>
                    <cmt><![CDATA[Waypoint no: 8]]></cmt>
                    <desc><![CDATA[This is waypoint no: 8]]></desc>
                </wpt>
                                                                                                                            
                <wpt lat="54.75575250381829" lon="-123.40753376251">
                                                            <ele>0</ele>
                    <name><![CDATA[CARP7-Z2-152]]></name>
                    <cmt><![CDATA[Waypoint no: 9]]></cmt>
                    <desc><![CDATA[This is waypoint no: 9]]></desc>
                </wpt>
                                                                                                                            
                <wpt lat="54.772125054906" lon="-123.401317809778">
                                                            <ele>0</ele>
                    <name><![CDATA[CARP7-Z2-172]]></name>
                    <cmt><![CDATA[Waypoint no: 10]]></cmt>
                    <desc><![CDATA[This is waypoint no: 10]]></desc>
                </wpt>
                                                                                                                            
                <wpt lat="54.7649679715915" lon="-123.372551746853">
                                                            <ele>0</ele>
                    <name><![CDATA[CARP7-Z2-186]]></name>
                    <cmt><![CDATA[Waypoint no: 11]]></cmt>
                    <desc><![CDATA[This is waypoint no: 11]]></desc>
                </wpt>
                                                                                                                            
                <wpt lat="54.7795568516197" lon="-123.392548915534">
                                                            <ele>0</ele>
                    <name><![CDATA[CARP7-Z2-192]]></name>
                    <cmt><![CDATA[Waypoint no: 12]]></cmt>
                    <desc><![CDATA[This is waypoint no: 12]]></desc>
                </wpt>
                                                                                                                            
                <wpt lat="54.7619669419195" lon="-123.403098914884">
                                                            <ele>0</ele>
                    <name><![CDATA[CARP7-Z2-218]]></name>
                    <cmt><![CDATA[Waypoint no: 13]]></cmt>
                    <desc><![CDATA[This is waypoint no: 13]]></desc>
                </wpt>
                                                                                                                            
                <wpt lat="54.7757179537187" lon="-123.389377709086">
                                                            <ele>0</ele>
                    <name><![CDATA[CARP7-Z2-239]]></name>
                    <cmt><![CDATA[Waypoint no: 14]]></cmt>
                    <desc><![CDATA[This is waypoint no: 14]]></desc>
                </wpt>
                                                                                                                            
                <wpt lat="54.75946648463471" lon="-123.382584741965">
                                                            <ele>0</ele>
                    <name><![CDATA[CARP7-Z2-259]]></name>
                    <cmt><![CDATA[Waypoint no: 15]]></cmt>
                    <desc><![CDATA[This is waypoint no: 15]]></desc>
                </wpt>
                                                                                                                            
                <wpt lat="54.78904054557739" lon="-123.385695687698">
                                                            <ele>0</ele>
                    <name><![CDATA[CARP7-Z2-275]]></name>
                    <cmt><![CDATA[Waypoint no: 16]]></cmt>
                    <desc><![CDATA[This is waypoint no: 16]]></desc>
                </wpt>
                                                                                                                            
                <wpt lat="54.77845875014251" lon="-123.404962942838">
                                                            <ele>0</ele>
                    <name><![CDATA[CARP7-Z2-282]]></name>
                    <cmt><![CDATA[Waypoint no: 17]]></cmt>
                    <desc><![CDATA[This is waypoint no: 17]]></desc>
                </wpt>
                                                                                                                            
                <wpt lat="54.76356156044779" lon="-123.393298944861">
                                                            <ele>0</ele>
                    <name><![CDATA[CARP7-Z2-305]]></name>
                    <cmt><![CDATA[Waypoint no: 18]]></cmt>
                    <desc><![CDATA[This is waypoint no: 18]]></desc>
                </wpt>
                                                                                                                            
                <wpt lat="54.77091355352481" lon="-123.365964104305">
                                                            <ele>0</ele>
                    <name><![CDATA[CARP7-Z2-313]]></name>
                    <cmt><![CDATA[Waypoint no: 19]]></cmt>
                    <desc><![CDATA[This is waypoint no: 19]]></desc>
                </wpt>
                                                                                                                            
                <wpt lat="54.7748967650242" lon="-123.425837070416">
                                                            <ele>0</ele>
                    <name><![CDATA[CARP7-Z2-326]]></name>
                    <cmt><![CDATA[Waypoint no: 20]]></cmt>
                    <desc><![CDATA[This is waypoint no: 20]]></desc>
                </wpt>
                                                            
                    
    
</gpx>