<?xml version="1.0"?>
<gpx version="1.1" creator="GDAL 3.4.2" xmlns:xsi="http://www.w3.org/2001/XMLSchema-instance" xmlns="http://www.topografix.com/GPX/1/1" xsi:schemaLocation="http://www.topografix.com/GPX/1/1 http://www.topografix.com/GPX/1/1/gpx.xsd">
<metadata><bounds minlat="54.710403785672540" minlon="-123.427992333577109" maxlat="54.819674779196070" maxlon="-123.242416364713094"/></metadata>              
<wpt lat="54.773288783244354" lon="-123.26416315714296">
  <name>CARP7-1</name>
</wpt>
<wpt lat="54.788157194987647" lon="-123.33086680225378">
  <name>CARP7-2</name>
</wpt>
<wpt lat="54.802112707968917" lon="-123.368490373545271">
  <name>CARP7-3</name>
</wpt>
<wpt lat="54.783203834018202" lon="-123.318455617327288">
  <name>CARP7-4</name>
</wpt>
<wpt lat="54.795413167231054" lon="-123.340322185445459">
  <name>CARP7-5</name>
</wpt>
<wpt lat="54.744269384383117" lon="-123.370320896106023">
  <name>CARP7-6</name>
</wpt>
<wpt lat="54.77814937533909" lon="-123.342546227352656">
  <name>CARP7-7</name>
</wpt>
<wpt lat="54.712467112769957" lon="-123.380133157249077">
  <name>CARP7-8</name>
</wpt>
<wpt lat="54.776784894326411" lon="-123.34582512276782">
  <name>CARP7-9</name>
</wpt>
<wpt lat="54.779998768180342" lon="-123.311862700963459">
  <name>CARP7-10</name>
</wpt>
<wpt lat="54.779862751538033" lon="-123.314954407580871">
  <name>CARP7-11</name>
</wpt>
<wpt lat="54.762781586636095" lon="-123.364002793574741">
  <name>CARP7-12</name>
</wpt>
<wpt lat="54.810980260884371" lon="-123.351626878630782">
  <name>CARP7-13</name>
</wpt>
<wpt lat="54.809399332348271" lon="-123.348385599696385">
  <name>CARP7-14</name>
</wpt>
<wpt lat="54.76250732285547" lon="-123.365559241832997">
  <name>CARP7-15</name>
</wpt>
<wpt lat="54.785671944126896" lon="-123.369908878224749">
  <name>CARP7-16</name>
</wpt>
<wpt lat="54.763060461457442" lon="-123.394845717090874">
  <name>CARP7-17</name>
</wpt>
<wpt lat="54.7723920956714" lon="-123.339362462152138">
  <name>CARP7-18</name>
</wpt>
<wpt lat="54.728066957422996" lon="-123.373506946848252">
  <name>CARP7-19</name>
</wpt>
<wpt lat="54.798285677025603" lon="-123.326886299926883">
  <name>CARP7-20</name>
</wpt>
<wpt lat="54.762681174003468" lon="-123.372286980039846">
  <name>CARP7-21</name>
</wpt>
<wpt lat="54.762996845281563" lon="-123.36067788044231">
  <name>CARP7-22</name>
</wpt>
<wpt lat="54.714423645299881" lon="-123.371538550198281">
  <name>CARP7-23</name>
</wpt>
<wpt lat="54.778304403207002" lon="-123.383938832788886">
  <name>CARP7-24</name>
</wpt>
<wpt lat="54.805779099705546" lon="-123.322629239570503">
  <name>CARP7-25</name>
</wpt>
<wpt lat="54.81967477919607" lon="-123.346529601506674">
  <name>CARP7-26</name>
</wpt>
<wpt lat="54.725390835116173" lon="-123.329817611620641">
  <name>CARP7-27</name>
</wpt>
<wpt lat="54.71712994654613" lon="-123.380186900561142">
  <name>CARP7-28</name>
</wpt>
<wpt lat="54.80668818550766" lon="-123.360161185232158">
  <name>CARP7-29</name>
</wpt>
<wpt lat="54.715151293776735" lon="-123.380312612837912">
  <name>CARP7-30</name>
</wpt>
<wpt lat="54.804941661746625" lon="-123.324009667203882">
  <name>CARP7-31</name>
</wpt>
<wpt lat="54.797469576049807" lon="-123.369700351490579">
  <name>CARP7-32</name>
</wpt>
<wpt lat="54.759345301165169" lon="-123.264683924800735">
  <name>CARP7-33</name>
</wpt>
<wpt lat="54.758489653213637" lon="-123.361692215623577">
  <name>CARP7-34</name>
</wpt>
<wpt lat="54.761463137175276" lon="-123.398049392584724">
  <name>CARP7-35</name>
</wpt>
<wpt lat="54.806515222230665" lon="-123.339524055026956">
  <name>CARP7-36</name>
</wpt>
<wpt lat="54.757800566863637" lon="-123.389477340194219">
  <name>CARP7-37</name>
</wpt>
<wpt lat="54.758050529504011" lon="-123.363985741543203">
  <name>CARP7-38</name>
</wpt>
<wpt lat="54.793508433835555" lon="-123.377021610965642">
  <name>CARP7-39</name>
</wpt>
<wpt lat="54.75759908311246" lon="-123.355841837059685">
  <name>CARP7-40</name>
</wpt>
<wpt lat="54.764247309426928" lon="-123.273765197765456">
  <name>CARP7-41</name>
</wpt>
<wpt lat="54.715671862059644" lon="-123.371507061139738">
  <name>CARP7-42</name>
</wpt>
<wpt lat="54.720355995466669" lon="-123.36690967115166">
  <name>CARP7-43</name>
</wpt>
<wpt lat="54.784568217825132" lon="-123.416141039373798">
  <name>CARP7-44</name>
</wpt>
<wpt lat="54.80283455926498" lon="-123.35558539468532">
  <name>CARP7-45</name>
</wpt>
<wpt lat="54.781599665547532" lon="-123.387836485694791">
  <name>CARP7-46</name>
</wpt>
<wpt lat="54.754440686437981" lon="-123.355715434481937">
  <name>CARP7-47</name>
</wpt>
<wpt lat="54.78431236212711" lon="-123.374162330418358">
  <name>CARP7-48</name>
</wpt>
<wpt lat="54.738881631844315" lon="-123.282664788411964">
  <name>CARP7-49</name>
</wpt>
<wpt lat="54.724287930799463" lon="-123.339736765707116">
  <name>CARP7-50</name>
</wpt>
<wpt lat="54.779455894911059" lon="-123.400682187413651">
  <name>CARP7-51</name>
</wpt>
<wpt lat="54.793415364640069" lon="-123.337597490791708">
  <name>CARP7-52</name>
</wpt>
<wpt lat="54.763502898925744" lon="-123.356900531222905">
  <name>CARP7-53</name>
</wpt>
<wpt lat="54.79734161290763" lon="-123.374509336956251">
  <name>CARP7-54</name>
</wpt>
<wpt lat="54.763409398109154" lon="-123.40248429565429">
  <name>CARP7-55</name>
</wpt>
<wpt lat="54.800758498042462" lon="-123.366522491415679">
  <name>CARP7-56</name>
</wpt>
<wpt lat="54.784686039565429" lon="-123.376315501016023">
  <name>CARP7-57</name>
</wpt>
<wpt lat="54.799708754299679" lon="-123.338702896911514">
  <name>CARP7-58</name>
</wpt>
<wpt lat="54.721042084091067" lon="-123.357138843821005">
  <name>CARP7-59</name>
</wpt>
<wpt lat="54.75823538512757" lon="-123.393776772909789">
  <name>CARP7-60</name>
</wpt>
<wpt lat="54.795125489080725" lon="-123.365692244432068">
  <name>CARP7-61</name>
</wpt>
<wpt lat="54.769535180898757" lon="-123.329803153414204">
  <name>CARP7-62</name>
</wpt>
<wpt lat="54.769902176682471" lon="-123.32906785745142">
  <name>CARP7-63</name>
</wpt>
<wpt lat="54.778075327730299" lon="-123.258341012348822">
  <name>CARP7-64</name>
</wpt>
<wpt lat="54.784490869270009" lon="-123.385090752154838">
  <name>CARP7-65</name>
</wpt>
<wpt lat="54.717901283617763" lon="-123.37055239820117">
  <name>CARP7-66</name>
</wpt>
<wpt lat="54.799106206832519" lon="-123.369614908419535">
  <name>CARP7-67</name>
</wpt>
<wpt lat="54.784824315498355" lon="-123.312419802258034">
  <name>CARP7-68</name>
</wpt>
<wpt lat="54.759519252262457" lon="-123.373191949446706">
  <name>CARP7-69</name>
</wpt>
<wpt lat="54.799969047016475" lon="-123.33167174601958">
  <name>CARP7-70</name>
</wpt>
<wpt lat="54.788010602592777" lon="-123.401006414806702">
  <name>CARP7-71</name>
</wpt>
<wpt lat="54.790595937311842" lon="-123.386875791647938">
  <name>CARP7-72</name>
</wpt>
<wpt lat="54.787202221827577" lon="-123.376960703970312">
  <name>CARP7-73</name>
</wpt>
<wpt lat="54.762125076105391" lon="-123.288056533627">
  <name>CARP7-74</name>
</wpt>
<wpt lat="54.784606398240335" lon="-123.312252675291631">
  <name>CARP7-75</name>
</wpt>
<wpt lat="54.751845310055316" lon="-123.408361059687905">
  <name>CARP7-76</name>
</wpt>
<wpt lat="54.787335570381728" lon="-123.406119632523058">
  <name>CARP7-77</name>
</wpt>
<wpt lat="54.777895456220634" lon="-123.247545004169154">
  <name>CARP7-78</name>
</wpt>
<wpt lat="54.783578526507235" lon="-123.413781276591337">
  <name>CARP7-79</name>
</wpt>
<wpt lat="54.778006063854122" lon="-123.382552684737362">
  <name>CARP7-80</name>
</wpt>
<wpt lat="54.769082071614918" lon="-123.335406928810471">
  <name>CARP7-81</name>
</wpt>
<wpt lat="54.76305193699995" lon="-123.355759046626062">
  <name>CARP7-82</name>
</wpt>
<wpt lat="54.761140070046039" lon="-123.397842997710043">
  <name>CARP7-83</name>
</wpt>
<wpt lat="54.756227587649335" lon="-123.276931318916567">
  <name>CARP7-84</name>
</wpt>
<wpt lat="54.72313477380326" lon="-123.373523180626975">
  <name>CARP7-85</name>
</wpt>
<wpt lat="54.745824700577252" lon="-123.276668827798972">
  <name>CARP7-86</name>
</wpt>
<wpt lat="54.765289708886243" lon="-123.273731328076522">
  <name>CARP7-87</name>
</wpt>
<wpt lat="54.762596812698689" lon="-123.368551139723579">
  <name>CARP7-88</name>
</wpt>
<wpt lat="54.766456575122916" lon="-123.355835517097077">
  <name>CARP7-89</name>
</wpt>
<wpt lat="54.817009259441903" lon="-123.350533631260291">
  <name>CARP7-90</name>
</wpt>
<wpt lat="54.807491874715801" lon="-123.323606780943479">
  <name>CARP7-91</name>
</wpt>
<wpt lat="54.799635805739591" lon="-123.360977260194332">
  <name>CARP7-92</name>
</wpt>
<wpt lat="54.773625420611864" lon="-123.407523305117692">
  <name>CARP7-93</name>
</wpt>
<wpt lat="54.760515887200349" lon="-123.262036150724882">
  <name>CARP7-94</name>
</wpt>
<wpt lat="54.774084457685056" lon="-123.387679910465764">
  <name>CARP7-95</name>
</wpt>
<wpt lat="54.777565383006667" lon="-123.397421925442842">
  <name>CARP7-96</name>
</wpt>
<wpt lat="54.715621557406791" lon="-123.367912048613249">
  <name>CARP7-97</name>
</wpt>
<wpt lat="54.780955318523539" lon="-123.425987587318232">
  <name>CARP7-98</name>
</wpt>
<wpt lat="54.766859622204045" lon="-123.267455299073021">
  <name>CARP7-99</name>
</wpt>
<wpt lat="54.752991171335772" lon="-123.35930070954177">
  <name>CARP7-100</name>
</wpt>
<wpt lat="54.718128331726206" lon="-123.361632220656972">
  <name>CARP7-101</name>
</wpt>
<wpt lat="54.770154514033905" lon="-123.362009869994722">
  <name>CARP7-102</name>
</wpt>
<wpt lat="54.759750192495886" lon="-123.372896336615739">
  <name>CARP7-103</name>
</wpt>
<wpt lat="54.763415525399175" lon="-123.410560200480361">
  <name>CARP7-104</name>
</wpt>
<wpt lat="54.76946758802903" lon="-123.276203244005316">
  <name>CARP7-105</name>
</wpt>
<wpt lat="54.805591052003919" lon="-123.357726643489599">
  <name>CARP7-106</name>
</wpt>
<wpt lat="54.784857919512739" lon="-123.312516275966857">
  <name>CARP7-107</name>
</wpt>
<wpt lat="54.725203627050448" lon="-123.373640629464902">
  <name>CARP7-108</name>
</wpt>
<wpt lat="54.733918922864241" lon="-123.288611946736367">
  <name>CARP7-109</name>
</wpt>
<wpt lat="54.770616087664628" lon="-123.340706618855606">
  <name>CARP7-110</name>
</wpt>
<wpt lat="54.75319164850594" lon="-123.408069452484312">
  <name>CARP7-111</name>
</wpt>
<wpt lat="54.774850428318146" lon="-123.400582393958771">
  <name>CARP7-112</name>
</wpt>
<wpt lat="54.783938388063454" lon="-123.376932522405255">
  <name>CARP7-113</name>
</wpt>
<wpt lat="54.781076559112783" lon="-123.331951188172539">
  <name>CARP7-114</name>
</wpt>
<wpt lat="54.727560741092326" lon="-123.310814089045408">
  <name>CARP7-115</name>
</wpt>
<wpt lat="54.744084148149255" lon="-123.376799188986823">
  <name>CARP7-116</name>
</wpt>
<wpt lat="54.760928031840137" lon="-123.367237303927467">
  <name>CARP7-117</name>
</wpt>
<wpt lat="54.731532808136841" lon="-123.293042003871122">
  <name>CARP7-118</name>
</wpt>
<wpt lat="54.796056853278337" lon="-123.33862563129253">
  <name>CARP7-119</name>
</wpt>
<wpt lat="54.759853481771657" lon="-123.409844462987138">
  <name>CARP7-120</name>
</wpt>
<wpt lat="54.732166897698647" lon="-123.295198924104966">
  <name>CARP7-121</name>
</wpt>
<wpt lat="54.787682669721988" lon="-123.315875906053364">
  <name>CARP7-122</name>
</wpt>
<wpt lat="54.775874257878037" lon="-123.425825773328299">
  <name>CARP7-123</name>
</wpt>
<wpt lat="54.779866056395143" lon="-123.397752466847251">
  <name>CARP7-124</name>
</wpt>
<wpt lat="54.759482884473861" lon="-123.369530676296137">
  <name>CARP7-125</name>
</wpt>
<wpt lat="54.799577683327747" lon="-123.338059133896621">
  <name>CARP7-126</name>
</wpt>
<wpt lat="54.79734592229071" lon="-123.337221784055018">
  <name>CARP7-127</name>
</wpt>
<wpt lat="54.780504190717522" lon="-123.333558980908663">
  <name>CARP7-128</name>
</wpt>
<wpt lat="54.779042855404725" lon="-123.257966837314527">
  <name>CARP7-129</name>
</wpt>
<wpt lat="54.755518756698649" lon="-123.277301261300906">
  <name>CARP7-130</name>
</wpt>
<wpt lat="54.76947560992236" lon="-123.40605221096807">
  <name>CARP7-131</name>
</wpt>
<wpt lat="54.727188803211206" lon="-123.310707512043237">
  <name>CARP7-132</name>
</wpt>
<wpt lat="54.793115950076881" lon="-123.381480987797843">
  <name>CARP7-133</name>
</wpt>
<wpt lat="54.75515452504024" lon="-123.277563170640263">
  <name>CARP7-134</name>
</wpt>
<wpt lat="54.787479659896427" lon="-123.391890109515515">
  <name>CARP7-135</name>
</wpt>
<wpt lat="54.72724166330805" lon="-123.376908023656114">
  <name>CARP7-136</name>
</wpt>
<wpt lat="54.794798936070187" lon="-123.338136049617248">
  <name>CARP7-137</name>
</wpt>
<wpt lat="54.757299382434603" lon="-123.353509350902542">
  <name>CARP7-138</name>
</wpt>
<wpt lat="54.769514603768442" lon="-123.410629189007636">
  <name>CARP7-139</name>
</wpt>
<wpt lat="54.717352898986377" lon="-123.377390574676028">
  <name>CARP7-140</name>
</wpt>
<wpt lat="54.787742602009487" lon="-123.407328796810262">
  <name>CARP7-141</name>
</wpt>
<wpt lat="54.729175052156322" lon="-123.380730131291244">
  <name>CARP7-142</name>
</wpt>
<wpt lat="54.810205641986236" lon="-123.338311274087701">
  <name>CARP7-143</name>
</wpt>
<wpt lat="54.805721577657899" lon="-123.340317287874839">
  <name>CARP7-144</name>
</wpt>
<wpt lat="54.769459207850815" lon="-123.361848265348669">
  <name>CARP7-145</name>
</wpt>
<wpt lat="54.791243886120803" lon="-123.374675890152346">
  <name>CARP7-146</name>
</wpt>
<wpt lat="54.769709474168586" lon="-123.41586426950613">
  <name>CARP7-147</name>
</wpt>
<wpt lat="54.79035230768433" lon="-123.375739114352896">
  <name>CARP7-148</name>
</wpt>
<wpt lat="54.727102279295003" lon="-123.314963341454032">
  <name>CARP7-149</name>
</wpt>
<wpt lat="54.789517579556701" lon="-123.368807543064747">
  <name>CARP7-150</name>
</wpt>
<wpt lat="54.804085609073894" lon="-123.348168537210029">
  <name>CARP7-151</name>
</wpt>
<wpt lat="54.755752503818314" lon="-123.407533762510283">
  <name>CARP7-152</name>
</wpt>
<wpt lat="54.75970315806601" lon="-123.408647748797833">
  <name>CARP7-153</name>
</wpt>
<wpt lat="54.75853251780898" lon="-123.398214066499307">
  <name>CARP7-154</name>
</wpt>
<wpt lat="54.785436941356167" lon="-123.31136858736923">
  <name>CARP7-155</name>
</wpt>
<wpt lat="54.795198049218286" lon="-123.374165845811675">
  <name>CARP7-156</name>
</wpt>
<wpt lat="54.786661295808045" lon="-123.381363434550536">
  <name>CARP7-157</name>
</wpt>
<wpt lat="54.799236664926575" lon="-123.327405375898721">
  <name>CARP7-158</name>
</wpt>
<wpt lat="54.790764970756214" lon="-123.334022553355609">
  <name>CARP7-159</name>
</wpt>
<wpt lat="54.77080124815437" lon="-123.267256197408756">
  <name>CARP7-160</name>
</wpt>
<wpt lat="54.720321968866436" lon="-123.371136280023293">
  <name>CARP7-161</name>
</wpt>
<wpt lat="54.73023109842503" lon="-123.298946150077199">
  <name>CARP7-162</name>
</wpt>
<wpt lat="54.809240798774027" lon="-123.351644135630295">
  <name>CARP7-163</name>
</wpt>
<wpt lat="54.808554818066987" lon="-123.350074768613354">
  <name>CARP7-164</name>
</wpt>
<wpt lat="54.724060690548484" lon="-123.345621472162279">
  <name>CARP7-165</name>
</wpt>
<wpt lat="54.78766186587211" lon="-123.312982801195403">
  <name>CARP7-166</name>
</wpt>
<wpt lat="54.727171542753112" lon="-123.327075011368891">
  <name>CARP7-167</name>
</wpt>
<wpt lat="54.750875910877376" lon="-123.364036668120946">
  <name>CARP7-168</name>
</wpt>
<wpt lat="54.812514595151065" lon="-123.35136395495374">
  <name>CARP7-169</name>
</wpt>
<wpt lat="54.729133804473676" lon="-123.312259344277408">
  <name>CARP7-170</name>
</wpt>
<wpt lat="54.780061390969216" lon="-123.404211495363896">
  <name>CARP7-171</name>
</wpt>
<wpt lat="54.772125054905999" lon="-123.401317809777936">
  <name>CARP7-172</name>
</wpt>
<wpt lat="54.813073583264398" lon="-123.348706533423851">
  <name>CARP7-173</name>
</wpt>
<wpt lat="54.757988985721049" lon="-123.388063020160885">
  <name>CARP7-174</name>
</wpt>
<wpt lat="54.780631739846974" lon="-123.309439594718569">
  <name>CARP7-175</name>
</wpt>
<wpt lat="54.728996116716651" lon="-123.378695366282102">
  <name>CARP7-176</name>
</wpt>
<wpt lat="54.780861108657831" lon="-123.318507318486184">
  <name>CARP7-177</name>
</wpt>
<wpt lat="54.772328888832327" lon="-123.417786754467329">
  <name>CARP7-178</name>
</wpt>
<wpt lat="54.78935858264115" lon="-123.342082067438795">
  <name>CARP7-179</name>
</wpt>
<wpt lat="54.763944278890193" lon="-123.320067510473137">
  <name>CARP7-180</name>
</wpt>
<wpt lat="54.718691009065843" lon="-123.370249085199475">
  <name>CARP7-181</name>
</wpt>
<wpt lat="54.712107365999891" lon="-123.379601122960281">
  <name>CARP7-182</name>
</wpt>
<wpt lat="54.78262054635718" lon="-123.386662669675289">
  <name>CARP7-183</name>
</wpt>
<wpt lat="54.762390558618804" lon="-123.356579526299257">
  <name>CARP7-184</name>
</wpt>
<wpt lat="54.758054872643292" lon="-123.384368931042317">
  <name>CARP7-185</name>
</wpt>
<wpt lat="54.764967971591489" lon="-123.372551746853333">
  <name>CARP7-186</name>
</wpt>
<wpt lat="54.793146442390906" lon="-123.326578433564251">
  <name>CARP7-187</name>
</wpt>
<wpt lat="54.77516256669827" lon="-123.404586062436636">
  <name>CARP7-188</name>
</wpt>
<wpt lat="54.733687953920381" lon="-123.291277656647821">
  <name>CARP7-189</name>
</wpt>
<wpt lat="54.783653915043651" lon="-123.243594934948163">
  <name>CARP7-190</name>
</wpt>
<wpt lat="54.793636915428635" lon="-123.375863540284954">
  <name>CARP7-191</name>
</wpt>
<wpt lat="54.779556851619738" lon="-123.392548915534462">
  <name>CARP7-192</name>
</wpt>
<wpt lat="54.80900129036835" lon="-123.339993638846792">
  <name>CARP7-193</name>
</wpt>
<wpt lat="54.72115829600282" lon="-123.356591988474705">
  <name>CARP7-194</name>
</wpt>
<wpt lat="54.745416206065315" lon="-123.37390278074875">
  <name>CARP7-195</name>
</wpt>
<wpt lat="54.759444429840272" lon="-123.384204854396714">
  <name>CARP7-196</name>
</wpt>
<wpt lat="54.804819966438274" lon="-123.323261965077407">
  <name>CARP7-197</name>
</wpt>
<wpt lat="54.753422822202218" lon="-123.39388447491659">
  <name>CARP7-198</name>
</wpt>
<wpt lat="54.795710582399906" lon="-123.323305331688815">
  <name>CARP7-199</name>
</wpt>
<wpt lat="54.80189544880573" lon="-123.368430617635042">
  <name>CARP7-200</name>
</wpt>
<wpt lat="54.783201808421069" lon="-123.417752885172234">
  <name>CARP7-201</name>
</wpt>
<wpt lat="54.715039391172937" lon="-123.376189151649427">
  <name>CARP7-202</name>
</wpt>
<wpt lat="54.775298476950276" lon="-123.406842848765592">
  <name>CARP7-203</name>
</wpt>
<wpt lat="54.762817502910437" lon="-123.295159970343803">
  <name>CARP7-204</name>
</wpt>
<wpt lat="54.770108301182745" lon="-123.400489370442088">
  <name>CARP7-205</name>
</wpt>
<wpt lat="54.792572781660773" lon="-123.382068893188588">
  <name>CARP7-206</name>
</wpt>
<wpt lat="54.781556376971778" lon="-123.334668879520393">
  <name>CARP7-207</name>
</wpt>
<wpt lat="54.770348132897773" lon="-123.358292812910477">
  <name>CARP7-208</name>
</wpt>
<wpt lat="54.798465938698527" lon="-123.36515403371078">
  <name>CARP7-209</name>
</wpt>
<wpt lat="54.755073208757821" lon="-123.409130063255645">
  <name>CARP7-210</name>
</wpt>
<wpt lat="54.770329563415565" lon="-123.337348866912905">
  <name>CARP7-211</name>
</wpt>
<wpt lat="54.796758936385608" lon="-123.36965123509863">
  <name>CARP7-212</name>
</wpt>
<wpt lat="54.785425343327333" lon="-123.312673792061915">
  <name>CARP7-213</name>
</wpt>
<wpt lat="54.813823545643451" lon="-123.347380265733662">
  <name>CARP7-214</name>
</wpt>
<wpt lat="54.777376400878353" lon="-123.394276934678388">
  <name>CARP7-215</name>
</wpt>
<wpt lat="54.76920016648117" lon="-123.274749557999399">
  <name>CARP7-216</name>
</wpt>
<wpt lat="54.804537592181958" lon="-123.323420324674316">
  <name>CARP7-217</name>
</wpt>
<wpt lat="54.761966941919489" lon="-123.4030989148836">
  <name>CARP7-218</name>
</wpt>
<wpt lat="54.722784997432143" lon="-123.344849682797943">
  <name>CARP7-219</name>
</wpt>
<wpt lat="54.794895735840193" lon="-123.371665186318751">
  <name>CARP7-220</name>
</wpt>
<wpt lat="54.720811988267528" lon="-123.356410114622577">
  <name>CARP7-221</name>
</wpt>
<wpt lat="54.801034977614201" lon="-123.33333636179475">
  <name>CARP7-222</name>
</wpt>
<wpt lat="54.76459528256607" lon="-123.360488930862886">
  <name>CARP7-223</name>
</wpt>
<wpt lat="54.798798704294789" lon="-123.373112964836054">
  <name>CARP7-224</name>
</wpt>
<wpt lat="54.780779329596619" lon="-123.32317173523397">
  <name>CARP7-225</name>
</wpt>
<wpt lat="54.811288347032203" lon="-123.338756373773961">
  <name>CARP7-226</name>
</wpt>
<wpt lat="54.809085127031835" lon="-123.328124084771204">
  <name>CARP7-227</name>
</wpt>
<wpt lat="54.794033955478" lon="-123.334294121832698">
  <name>CARP7-228</name>
</wpt>
<wpt lat="54.793412389443034" lon="-123.3707050272278">
  <name>CARP7-229</name>
</wpt>
<wpt lat="54.7268239107431" lon="-123.309703434450171">
  <name>CARP7-230</name>
</wpt>
<wpt lat="54.787332588305944" lon="-123.381115952873699">
  <name>CARP7-231</name>
</wpt>
<wpt lat="54.774763853308407" lon="-123.427992333577109">
  <name>CARP7-232</name>
</wpt>
<wpt lat="54.80597886439562" lon="-123.36194994351122">
  <name>CARP7-233</name>
</wpt>
<wpt lat="54.790392438684556" lon="-123.386764430630194">
  <name>CARP7-234</name>
</wpt>
<wpt lat="54.803689993091957" lon="-123.35208841929547">
  <name>CARP7-235</name>
</wpt>
<wpt lat="54.777763073314752" lon="-123.344570869683125">
  <name>CARP7-236</name>
</wpt>
<wpt lat="54.786589217124757" lon="-123.40336016971699">
  <name>CARP7-237</name>
</wpt>
<wpt lat="54.723713959048823" lon="-123.346591902450527">
  <name>CARP7-238</name>
</wpt>
<wpt lat="54.77571795371874" lon="-123.389377709085878">
  <name>CARP7-239</name>
</wpt>
<wpt lat="54.720352640207565" lon="-123.370254847713952">
  <name>CARP7-240</name>
</wpt>
<wpt lat="54.744055210419425" lon="-123.27661637122543">
  <name>CARP7-241</name>
</wpt>
<wpt lat="54.795440371701233" lon="-123.33641751383044">
  <name>CARP7-242</name>
</wpt>
<wpt lat="54.805547599301569" lon="-123.365567552750548">
  <name>CARP7-243</name>
</wpt>
<wpt lat="54.782945122671912" lon="-123.323628239130102">
  <name>CARP7-244</name>
</wpt>
<wpt lat="54.77289724957965" lon="-123.266057635006931">
  <name>CARP7-245</name>
</wpt>
<wpt lat="54.753911942060107" lon="-123.277978241336626">
  <name>CARP7-246</name>
</wpt>
<wpt lat="54.77182732044372" lon="-123.342092783054284">
  <name>CARP7-247</name>
</wpt>
<wpt lat="54.758210567092043" lon="-123.270823485259726">
  <name>CARP7-248</name>
</wpt>
<wpt lat="54.741294480867069" lon="-123.371563413811415">
  <name>CARP7-249</name>
</wpt>
<wpt lat="54.779192209887697" lon="-123.427340620657873">
  <name>CARP7-250</name>
</wpt>
<wpt lat="54.753007322079647" lon="-123.407902663688816">
  <name>CARP7-251</name>
</wpt>
<wpt lat="54.718089376831678" lon="-123.347342925898388">
  <name>CARP7-252</name>
</wpt>
<wpt lat="54.791550736756328" lon="-123.343379193750195">
  <name>CARP7-253</name>
</wpt>
<wpt lat="54.786883053515261" lon="-123.375900320484135">
  <name>CARP7-254</name>
</wpt>
<wpt lat="54.76814763868154" lon="-123.322068011829487">
  <name>CARP7-255</name>
</wpt>
<wpt lat="54.752929547458265" lon="-123.409301176420342">
  <name>CARP7-256</name>
</wpt>
<wpt lat="54.812883795338372" lon="-123.342572811489035">
  <name>CARP7-257</name>
</wpt>
<wpt lat="54.72086756951434" lon="-123.376433082531761">
  <name>CARP7-258</name>
</wpt>
<wpt lat="54.759466484634736" lon="-123.382584741965033">
  <name>CARP7-259</name>
</wpt>
<wpt lat="54.7632986743955" lon="-123.274626077790629">
  <name>CARP7-260</name>
</wpt>
<wpt lat="54.779268930125447" lon="-123.244388330361375">
  <name>CARP7-261</name>
</wpt>
<wpt lat="54.721035426740606" lon="-123.35740531864262">
  <name>CARP7-262</name>
</wpt>
<wpt lat="54.768904747921326" lon="-123.27049291676839">
  <name>CARP7-263</name>
</wpt>
<wpt lat="54.733030189620905" lon="-123.289506390967674">
  <name>CARP7-264</name>
</wpt>
<wpt lat="54.7172936110615" lon="-123.379160914105725">
  <name>CARP7-265</name>
</wpt>
<wpt lat="54.761499124451944" lon="-123.353961561979844">
  <name>CARP7-266</name>
</wpt>
<wpt lat="54.776217442880736" lon="-123.402199232022667">
  <name>CARP7-267</name>
</wpt>
<wpt lat="54.784451273761221" lon="-123.251191152879841">
  <name>CARP7-268</name>
</wpt>
<wpt lat="54.757330057739615" lon="-123.356839863765302">
  <name>CARP7-269</name>
</wpt>
<wpt lat="54.787198019807349" lon="-123.376853132890957">
  <name>CARP7-270</name>
</wpt>
<wpt lat="54.784492307814382" lon="-123.311863034233326">
  <name>CARP7-271</name>
</wpt>
<wpt lat="54.71040378567254" lon="-123.37218090373014">
  <name>CARP7-272</name>
</wpt>
<wpt lat="54.805672433853999" lon="-123.348309026697621">
  <name>CARP7-273</name>
</wpt>
<wpt lat="54.729722737673768" lon="-123.297979097690941">
  <name>CARP7-274</name>
</wpt>
<wpt lat="54.789040545577414" lon="-123.385695687697535">
  <name>CARP7-275</name>
</wpt>
<wpt lat="54.77929239508493" lon="-123.404191092736099">
  <name>CARP7-276</name>
</wpt>
<wpt lat="54.759204334943256" lon="-123.268059625225447">
  <name>CARP7-277</name>
</wpt>
<wpt lat="54.725882607915565" lon="-123.377102403836687">
  <name>CARP7-278</name>
</wpt>
<wpt lat="54.724345430413905" lon="-123.344593495583325">
  <name>CARP7-279</name>
</wpt>
<wpt lat="54.776492799351978" lon="-123.244695103182238">
  <name>CARP7-280</name>
</wpt>
<wpt lat="54.77000107702618" lon="-123.403407850589204">
  <name>CARP7-281</name>
</wpt>
<wpt lat="54.778458750142484" lon="-123.404962942838168">
  <name>CARP7-282</name>
</wpt>
<wpt lat="54.725704718903494" lon="-123.320190087623814">
  <name>CARP7-283</name>
</wpt>
<wpt lat="54.728379613772013" lon="-123.376898389198558">
  <name>CARP7-284</name>
</wpt>
<wpt lat="54.728618120846392" lon="-123.312422960882799">
  <name>CARP7-285</name>
</wpt>
<wpt lat="54.764545845088875" lon="-123.395632962327085">
  <name>CARP7-286</name>
</wpt>
<wpt lat="54.797945977525899" lon="-123.336961092052135">
  <name>CARP7-287</name>
</wpt>
<wpt lat="54.780836393325167" lon="-123.309299327702618">
  <name>CARP7-288</name>
</wpt>
<wpt lat="54.764216066800962" lon="-123.394252692314254">
  <name>CARP7-289</name>
</wpt>
<wpt lat="54.780791486329385" lon="-123.423996594830612">
  <name>CARP7-290</name>
</wpt>
<wpt lat="54.790869540516411" lon="-123.368033950253547">
  <name>CARP7-291</name>
</wpt>
<wpt lat="54.760873788278118" lon="-123.361489768876694">
  <name>CARP7-292</name>
</wpt>
<wpt lat="54.775056010561848" lon="-123.261919948498331">
  <name>CARP7-293</name>
</wpt>
<wpt lat="54.816324850419569" lon="-123.34733967949272">
  <name>CARP7-294</name>
</wpt>
<wpt lat="54.808371411415905" lon="-123.340297998567962">
  <name>CARP7-295</name>
</wpt>
<wpt lat="54.798057170581131" lon="-123.340045795888784">
  <name>CARP7-296</name>
</wpt>
<wpt lat="54.80733315098999" lon="-123.340444812437823">
  <name>CARP7-297</name>
</wpt>
<wpt lat="54.80352614452223" lon="-123.354238146877478">
  <name>CARP7-298</name>
</wpt>
<wpt lat="54.715233708472581" lon="-123.374464586679736">
  <name>CARP7-299</name>
</wpt>
<wpt lat="54.75832696562555" lon="-123.352447279756262">
  <name>CARP7-300</name>
</wpt>
<wpt lat="54.760073348783955" lon="-123.368429364809856">
  <name>CARP7-301</name>
</wpt>
<wpt lat="54.797798789655104" lon="-123.336419712116353">
  <name>CARP7-302</name>
</wpt>
<wpt lat="54.746798020087624" lon="-123.40903209503972">
  <name>CARP7-303</name>
</wpt>
<wpt lat="54.80619034293089" lon="-123.324250038364852">
  <name>CARP7-304</name>
</wpt>
<wpt lat="54.763561560447826" lon="-123.393298944861385">
  <name>CARP7-305</name>
</wpt>
<wpt lat="54.789507690989872" lon="-123.401727796052">
  <name>CARP7-306</name>
</wpt>
<wpt lat="54.727842513355107" lon="-123.313896201244916">
  <name>CARP7-307</name>
</wpt>
<wpt lat="54.762657878228559" lon="-123.366543877180874">
  <name>CARP7-308</name>
</wpt>
<wpt lat="54.768234922099737" lon="-123.4046305766324">
  <name>CARP7-309</name>
</wpt>
<wpt lat="54.774637117741449" lon="-123.406354944598291">
  <name>CARP7-310</name>
</wpt>
<wpt lat="54.71427305722171" lon="-123.364432287995314">
  <name>CARP7-311</name>
</wpt>
<wpt lat="54.809872926241852" lon="-123.350743938161457">
  <name>CARP7-312</name>
</wpt>
<wpt lat="54.786847109853319" lon="-123.378471044629975">
  <name>CARP7-313</name>
</wpt>
<wpt lat="54.718484325346964" lon="-123.367307238221798">
  <name>CARP7-314</name>
</wpt>
<wpt lat="54.788958134475457" lon="-123.398836432152819">
  <name>CARP7-315</name>
</wpt>
<wpt lat="54.714876040982034" lon="-123.372761184697282">
  <name>CARP7-316</name>
</wpt>
<wpt lat="54.740730848887033" lon="-123.281274819002959">
  <name>CARP7-317</name>
</wpt>
<wpt lat="54.755616109122435" lon="-123.366401435727767">
  <name>CARP7-318</name>
</wpt>
<wpt lat="54.7252374396639" lon="-123.326715723293447">
  <name>CARP7-319</name>
</wpt>
<wpt lat="54.757479282541787" lon="-123.2745851686945">
  <name>CARP7-320</name>
</wpt>
<wpt lat="54.770468617066037" lon="-123.361080115653721">
  <name>CARP7-321</name>
</wpt>
<wpt lat="54.72632067601689" lon="-123.313030486224747">
  <name>CARP7-322</name>
</wpt>
<wpt lat="54.790420490659869" lon="-123.36754118190386">
  <name>CARP7-323</name>
</wpt>
<wpt lat="54.777712594708106" lon="-123.24633940279773">
  <name>CARP7-324</name>
</wpt>
<wpt lat="54.725787249405329" lon="-123.336183017076152">
  <name>CARP7-325</name>
</wpt>
<wpt lat="54.774896765024238" lon="-123.42583707041571">
  <name>CARP7-326</name>
</wpt>
<wpt lat="54.789406989661742" lon="-123.339812334126506">
  <name>CARP7-327</name>
</wpt>
<wpt lat="54.762670251091144" lon="-123.288789397979954">
  <name>CARP7-328</name>
</wpt>
<wpt lat="54.807413728337025" lon="-123.325637540631575">
  <name>CARP7-329</name>
</wpt>
<wpt lat="54.752894398311504" lon="-123.39452951858749">
  <name>CARP7-330</name>
</wpt>
<wpt lat="54.802817600247273" lon="-123.361655878004697">
  <name>CARP7-331</name>
</wpt>
<wpt lat="54.784749340336724" lon="-123.242416364713094">
  <name>CARP7-332</name>
</wpt>
<wpt lat="54.750981995401702" lon="-123.280163057825703">
  <name>CARP7-333</name>
</wpt>
</gpx>
