<?xml version="1.0" encoding="UTF-8"?>
<kml xmlns="http://www.opengis.net/kml/2.2" xmlns:gx="http://www.google.com/kml/ext/2.2" xmlns:kml="http://www.opengis.net/kml/2.2" xmlns:atom="http://www.w3.org/2005/Atom">
<Document>
	<name>Carp_oc4_Z1.kml</name>
	<Style id="default">
		<IconStyle>
			<color>ff6666fd</color>
		</IconStyle>
	</Style>
	<StyleMap id="default0">
		<Pair>
			<key>normal</key>
			<styleUrl>#default</styleUrl>
		</Pair>
		<Pair>
			<key>highlight</key>
			<styleUrl>#hl</styleUrl>
		</Pair>
	</StyleMap>
	<Style id="hl">
		<IconStyle>
			<color>ff6666fd</color>
			<scale>1.2</scale>
		</IconStyle>
	</Style>
	<Folder>
		<name>Carp_oc4_Z1</name>
		<Placemark>
			<name>CARP4-Z1-21</name>
			<styleUrl>#default0</styleUrl>
			<Point>
				<coordinates>-123.365559241833,54.7971319770987,0</coordinates>
			</Point>
		</Placemark>
		<Placemark>
			<name>CARP4-Z1-44</name>
			<styleUrl>#default0</styleUrl>
			<Point>
				<coordinates>-123.324824813465,54.7921743224648,0</coordinates>
			</Point>
		</Placemark>
		<Placemark>
			<name>CARP4-Z1-52</name>
			<styleUrl>#default0</styleUrl>
			<Point>
				<coordinates>-123.341491140915,54.8103770837872,0</coordinates>
			</Point>
		</Placemark>
		<Placemark>
			<name>CARP4-Z1-68</name>
			<styleUrl>#default0</styleUrl>
			<Point>
				<coordinates>-123.350837856728,54.801376067304,0</coordinates>
			</Point>
		</Placemark>
		<Placemark>
			<name>CARP4-Z1-71</name>
			<styleUrl>#default0</styleUrl>
			<Point>
				<coordinates>-123.345583399667,54.8182323711298,0</coordinates>
			</Point>
		</Placemark>
		<Placemark>
			<name>CARP4-Z1-85</name>
			<styleUrl>#default0</styleUrl>
			<Point>
				<coordinates>-123.34291193363,54.7942491510797,0</coordinates>
			</Point>
		</Placemark>
		<Placemark>
			<name>CARP4-Z1-91</name>
			<styleUrl>#default0</styleUrl>
			<Point>
				<coordinates>-123.363662959078,54.79048496417499,0</coordinates>
			</Point>
		</Placemark>
		<Placemark>
			<name>CARP4-Z1-93</name>
			<styleUrl>#default0</styleUrl>
			<Point>
				<coordinates>-123.329372977838,54.8021127079689,0</coordinates>
			</Point>
		</Placemark>
		<Placemark>
			<name>CARP4-Z1-95</name>
			<styleUrl>#default0</styleUrl>
			<Point>
				<coordinates>-123.342780908814,54.8215613424824,0</coordinates>
			</Point>
		</Placemark>
		<Placemark>
			<name>CARP4-Z1-100</name>
			<styleUrl>#default0</styleUrl>
			<Point>
				<coordinates>-123.371461382206,54.7916567167035,0</coordinates>
			</Point>
		</Placemark>
		<Placemark>
			<name>CARP4-Z1-115</name>
			<styleUrl>#default0</styleUrl>
			<Point>
				<coordinates>-123.35053363126,54.8093993323483,0</coordinates>
			</Point>
		</Placemark>
		<Placemark>
			<name>CARP4-Z1-128</name>
			<styleUrl>#default0</styleUrl>
			<Point>
				<coordinates>-123.340706618856,54.8151042412944,0</coordinates>
			</Point>
		</Placemark>
		<Placemark>
			<name>CARP4-Z1-144</name>
			<styleUrl>#default0</styleUrl>
			<Point>
				<coordinates>-123.310707512043,54.7843123621271,0</coordinates>
			</Point>
		</Placemark>
		<Placemark>
			<name>CARP4-Z1-153</name>
			<styleUrl>#default0</styleUrl>
			<Point>
				<coordinates>-123.31565168531,54.7829112691811,0</coordinates>
			</Point>
		</Placemark>
		<Placemark>
			<name>CARP4-Z1-160</name>
			<styleUrl>#default0</styleUrl>
			<Point>
				<coordinates>-123.354931702626,54.8055910520039,0</coordinates>
			</Point>
		</Placemark>
		<Placemark>
			<name>CARP4-Z1-169</name>
			<styleUrl>#default0</styleUrl>
			<Point>
				<coordinates>-123.333769476237,54.79590708334629,0</coordinates>
			</Point>
		</Placemark>
		<Placemark>
			<name>CARP4-Z1-176</name>
			<styleUrl>#default0</styleUrl>
			<Point>
				<coordinates>-123.336164385645,54.79411750453539,0</coordinates>
			</Point>
		</Placemark>
		<Placemark>
			<name>CARP4-Z1-179</name>
			<styleUrl>#default0</styleUrl>
			<Point>
				<coordinates>-123.33693194831,54.7970983903743,0</coordinates>
			</Point>
		</Placemark>
		<Placemark>
			<name>CARP4-Z1-180</name>
			<styleUrl>#default0</styleUrl>
			<Point>
				<coordinates>-123.34995634609,54.8150869401608,0</coordinates>
			</Point>
		</Placemark>
		<Placemark>
			<name>CARP4-Z1-201</name>
			<styleUrl>#default0</styleUrl>
			<Point>
				<coordinates>-123.324488093965,54.7918328219131,0</coordinates>
			</Point>
		</Placemark>
	</Folder>
</Document>
</kml>
