<?xml version="1.0" encoding="UTF-8"?>
<kml xmlns="http://www.opengis.net/kml/2.2" xmlns:gx="http://www.google.com/kml/ext/2.2" xmlns:kml="http://www.opengis.net/kml/2.2" xmlns:atom="http://www.w3.org/2005/Atom">
<Document>
	<name>Carp_oc5_Z1.kml</name>
	<StyleMap id="msn_ylw-pushpin">
		<Pair>
			<key>normal</key>
			<styleUrl>#sn_ylw-pushpin</styleUrl>
		</Pair>
		<Pair>
			<key>highlight</key>
			<styleUrl>#sh_ylw-pushpin</styleUrl>
		</Pair>
	</StyleMap>
	<Style id="sh_ylw-pushpin">
		<IconStyle>
			<color>ff66ff66</color>
			<scale>1.2</scale>
		</IconStyle>
		<BalloonStyle>
		</BalloonStyle>
	</Style>
	<Style id="sn_ylw-pushpin">
		<IconStyle>
			<color>ff66ff66</color>
		</IconStyle>
		<BalloonStyle>
		</BalloonStyle>
	</Style>
	<Folder>
		<name>Carp_oc5_Z1</name>
		<Placemark>
			<name>CARP5-Z1-21</name>
			<styleUrl>#msn_ylw-pushpin</styleUrl>
			<Point>
				<coordinates>-123.365559241833,54.7971319770987,0</coordinates>
			</Point>
		</Placemark>
		<Placemark>
			<name>CARP5-Z1-52</name>
			<styleUrl>#msn_ylw-pushpin</styleUrl>
			<Point>
				<coordinates>-123.341491140915,54.8103770837872,0</coordinates>
			</Point>
		</Placemark>
		<Placemark>
			<name>CARP5-Z1-57</name>
			<styleUrl>#msn_ylw-pushpin</styleUrl>
			<Point>
				<coordinates>-123.363591535265,54.790266946779,0</coordinates>
			</Point>
		</Placemark>
		<Placemark>
			<name>CARP5-Z1-68</name>
			<styleUrl>#msn_ylw-pushpin</styleUrl>
			<Point>
				<coordinates>-123.350837856728,54.801376067304,0</coordinates>
			</Point>
		</Placemark>
		<Placemark>
			<name>CARP5-Z1-71</name>
			<styleUrl>#msn_ylw-pushpin</styleUrl>
			<Point>
				<coordinates>-123.345583399667,54.8182323711298,0</coordinates>
			</Point>
		</Placemark>
		<Placemark>
			<name>CARP5-Z1-75</name>
			<styleUrl>#msn_ylw-pushpin</styleUrl>
			<Point>
				<coordinates>-123.36961490842,54.7903558727733,0</coordinates>
			</Point>
		</Placemark>
		<Placemark>
			<name>CARP5-Z1-113</name>
			<styleUrl>#msn_ylw-pushpin</styleUrl>
			<Point>
				<coordinates>-123.327311286627,54.8108805051951,0</coordinates>
			</Point>
		</Placemark>
		<Placemark>
			<name>CARP5-Z1-115</name>
			<styleUrl>#msn_ylw-pushpin</styleUrl>
			<Point>
				<coordinates>-123.35053363126,54.8093993323483,0</coordinates>
			</Point>
		</Placemark>
		<Placemark>
			<name>CARP5-Z1-130</name>
			<styleUrl>#msn_ylw-pushpin</styleUrl>
			<Point>
				<coordinates>-123.335602467471,54.7937194097954,0</coordinates>
			</Point>
		</Placemark>
		<Placemark>
			<name>CARP5-Z1-153</name>
			<styleUrl>#msn_ylw-pushpin</styleUrl>
			<Point>
				<coordinates>-123.31565168531,54.7829112691811,0</coordinates>
			</Point>
		</Placemark>
		<Placemark>
			<name>CARP5-Z1-160</name>
			<styleUrl>#msn_ylw-pushpin</styleUrl>
			<Point>
				<coordinates>-123.354931702626,54.8055910520039,0</coordinates>
			</Point>
		</Placemark>
		<Placemark>
			<name>CARP5-Z1-163</name>
			<styleUrl>#msn_ylw-pushpin</styleUrl>
			<Point>
				<coordinates>-123.325095551831,54.7972167275427,0</coordinates>
			</Point>
		</Placemark>
		<Placemark>
			<name>CARP5-Z1-174</name>
			<styleUrl>#msn_ylw-pushpin</styleUrl>
			<Point>
				<coordinates>-123.360828044777,54.7932762138631,0</coordinates>
			</Point>
		</Placemark>
		<Placemark>
			<name>CARP5-Z1-179</name>
			<styleUrl>#msn_ylw-pushpin</styleUrl>
			<Point>
				<coordinates>-123.33693194831,54.7970983903743,0</coordinates>
			</Point>
		</Placemark>
		<Placemark>
			<name>CARP5-Z1-184</name>
			<styleUrl>#msn_ylw-pushpin</styleUrl>
			<Point>
				<coordinates>-123.31824921392,54.7790428554047,0</coordinates>
			</Point>
		</Placemark>
		<Placemark>
			<name>CARP5-Z1-188</name>
			<styleUrl>#msn_ylw-pushpin</styleUrl>
			<Point>
				<coordinates>-123.342552441068,54.79479893607021,0</coordinates>
			</Point>
		</Placemark>
		<Placemark>
			<name>CARP5-Z1-198</name>
			<styleUrl>#msn_ylw-pushpin</styleUrl>
			<Point>
				<coordinates>-123.329424815963,54.8004772604503,0</coordinates>
			</Point>
		</Placemark>
		<Placemark>
			<name>CARP5-Z1-201</name>
			<styleUrl>#msn_ylw-pushpin</styleUrl>
			<Point>
				<coordinates>-123.324488093965,54.7918328219131,0</coordinates>
			</Point>
		</Placemark>
		<Placemark>
			<name>CARP5-Z1-208</name>
			<styleUrl>#msn_ylw-pushpin</styleUrl>
			<Point>
				<coordinates>-123.369031471497,54.7918741590488,0</coordinates>
			</Point>
		</Placemark>
		<Placemark>
			<name>CARP5-Z1-214</name>
			<styleUrl>#msn_ylw-pushpin</styleUrl>
			<Point>
				<coordinates>-123.343348179085,54.79150248643491,0</coordinates>
			</Point>
		</Placemark>
	</Folder>
</Document>
</kml>
