<?xml version="1.0" encoding="UTF-8"?>
<kml xmlns="http://www.opengis.net/kml/2.2" xmlns:gx="http://www.google.com/kml/ext/2.2" xmlns:kml="http://www.opengis.net/kml/2.2" xmlns:atom="http://www.w3.org/2005/Atom">
<Document>
	<name>carp_occ3_z1.kml</name>
	<Style id="sh_ylw-pushpin">
		<IconStyle>
			<color>ffffff66</color>
			<scale>1.2</scale>
		</IconStyle>
		<BalloonStyle>
		</BalloonStyle>
	</Style>
	<StyleMap id="msn_ylw-pushpin">
		<Pair>
			<key>normal</key>
			<styleUrl>#sn_ylw-pushpin</styleUrl>
		</Pair>
		<Pair>
			<key>highlight</key>
			<styleUrl>#sh_ylw-pushpin</styleUrl>
		</Pair>
	</StyleMap>
	<Style id="sn_ylw-pushpin">
		<IconStyle>
			<color>ffffff66</color>
		</IconStyle>
		<BalloonStyle>
		</BalloonStyle>
	</Style>
	<Folder>
		<name>carp_occ3_z1</name>
		<Placemark>
			<name>CARP3-Z1-2</name>
			<styleUrl>#msn_ylw-pushpin</styleUrl>
			<Point>
				<coordinates>-123.330866802254,54.8114912814967,0</coordinates>
			</Point>
		</Placemark>
		<Placemark>
			<name>CARP3-Z1-11</name>
			<styleUrl>#msn_ylw-pushpin</styleUrl>
			<Point>
				<coordinates>-123.345825122768,54.81000995394,0</coordinates>
			</Point>
		</Placemark>
		<Placemark>
			<name>CARP3-Z1-41</name>
			<styleUrl>#msn_ylw-pushpin</styleUrl>
			<Point>
				<coordinates>-123.354116688299,54.79963580573959,0</coordinates>
			</Point>
		</Placemark>
		<Placemark>
			<name>CARP3-Z1-104</name>
			<styleUrl>#msn_ylw-pushpin</styleUrl>
			<Point>
				<coordinates>-123.320598610722,54.78302607770821,0</coordinates>
			</Point>
		</Placemark>
		<Placemark>
			<name>CARP3-Z1-145</name>
			<styleUrl>#msn_ylw-pushpin</styleUrl>
			<Point>
				<coordinates>-123.335314629596,54.8002517624098,0</coordinates>
			</Point>
		</Placemark>
		<Placemark>
			<name>CARP3-Z1-212</name>
			<styleUrl>#msn_ylw-pushpin</styleUrl>
			<Point>
				<coordinates>-123.316070956493,54.78935153010219,0</coordinates>
			</Point>
		</Placemark>
		<Placemark>
			<name>CARP3-Z1-241</name>
			<styleUrl>#msn_ylw-pushpin</styleUrl>
			<Point>
				<coordinates>-123.327258801348,54.7959522825622,0</coordinates>
			</Point>
		</Placemark>
		<Placemark>
			<name>CARP3-Z1-246</name>
			<styleUrl>#msn_ylw-pushpin</styleUrl>
			<Point>
				<coordinates>-123.346959254904,54.8084453151829,0</coordinates>
			</Point>
		</Placemark>
		<Placemark>
			<name>CARP3-Z1-268</name>
			<styleUrl>#msn_ylw-pushpin</styleUrl>
			<Point>
				<coordinates>-123.336522094189,54.7814375050776,0</coordinates>
			</Point>
		</Placemark>
		<Placemark>
			<name>CARP3-Z1-283</name>
			<styleUrl>#msn_ylw-pushpin</styleUrl>
			<Point>
				<coordinates>-123.366041775524,54.78597347258919,0</coordinates>
			</Point>
		</Placemark>
		<Placemark>
			<name>CARP3-Z1-286</name>
			<styleUrl>#msn_ylw-pushpin</styleUrl>
			<Point>
				<coordinates>-123.316000881951,54.7878371979075,0</coordinates>
			</Point>
		</Placemark>
		<Placemark>
			<name>CARP3-Z1-293</name>
			<styleUrl>#msn_ylw-pushpin</styleUrl>
			<Point>
				<coordinates>-123.350325068819,54.8155358383559,0</coordinates>
			</Point>
		</Placemark>
		<Placemark>
			<name>CARP3-Z1-300</name>
			<styleUrl>#msn_ylw-pushpin</styleUrl>
			<Point>
				<coordinates>-123.335327176358,54.793873875748,0</coordinates>
			</Point>
		</Placemark>
		<Placemark>
			<name>CARP3-Z1-330</name>
			<styleUrl>#msn_ylw-pushpin</styleUrl>
			<Point>
				<coordinates>-123.32704881914,54.8044405259287,0</coordinates>
			</Point>
		</Placemark>
		<Placemark>
			<name>CARP3-Z1-341</name>
			<styleUrl>#msn_ylw-pushpin</styleUrl>
			<Point>
				<coordinates>-123.360622224942,54.7938634745954,0</coordinates>
			</Point>
		</Placemark>
		<Placemark>
			<name>CARP3-Z1-344</name>
			<styleUrl>#msn_ylw-pushpin</styleUrl>
			<Point>
				<coordinates>-123.315077971895,54.7819450235,0</coordinates>
			</Point>
		</Placemark>
		<Placemark>
			<name>CARP3-Z1-348</name>
			<styleUrl>#msn_ylw-pushpin</styleUrl>
			<Point>
				<coordinates>-123.345511955112,54.8189276321065,0</coordinates>
			</Point>
		</Placemark>
		<Placemark>
			<name>CARP3-Z1-364</name>
			<styleUrl>#msn_ylw-pushpin</styleUrl>
			<Point>
				<coordinates>-123.366049622595,54.793769522929,0</coordinates>
			</Point>
		</Placemark>
		<Placemark>
			<name>CARP3-Z1-366</name>
			<styleUrl>#msn_ylw-pushpin</styleUrl>
			<Point>
				<coordinates>-123.338597326108,54.7969546850113,0</coordinates>
			</Point>
		</Placemark>
		<Placemark>
			<name>CARP3-Z1-372</name>
			<styleUrl>#msn_ylw-pushpin</styleUrl>
			<Point>
				<coordinates>-123.354013721472,54.80445186235261,0</coordinates>
			</Point>
		</Placemark>
		<Placemark>
			<name>CARP3-Z1-404</name>
			<styleUrl>#msn_ylw-pushpin</styleUrl>
			<Point>
				<coordinates>-123.338639348306,54.7939354620876,0</coordinates>
			</Point>
		</Placemark>
		<Placemark>
			<name>CARP3-Z1-417</name>
			<styleUrl>#msn_ylw-pushpin</styleUrl>
			<Point>
				<coordinates>-123.328242478063,54.7989498964524,0</coordinates>
			</Point>
		</Placemark>
	</Folder>
</Document>
</kml>
