<?xml version="1.0"?>
<gpx version="1.1" creator="GDAL 3.4.2" xmlns:xsi="http://www.w3.org/2001/XMLSchema-instance" xmlns="http://www.topografix.com/GPX/1/1" xsi:schemaLocation="http://www.topografix.com/GPX/1/1 http://www.topografix.com/GPX/1/1/gpx.xsd">
<metadata><bounds minlat="54.712423713826851" minlon="-123.427212240603012" maxlat="54.821561342482433" maxlon="-123.243253916153222"/></metadata>              
<wpt lat="54.774042068210804" lon="-123.421559098118479">
  <name>CARP4-1</name>
</wpt>
<wpt lat="54.788629466980545" lon="-123.33086680225378">
  <name>CARP4-2</name>
</wpt>
<wpt lat="54.779083372477402" lon="-123.326482152483308">
  <name>CARP4-3</name>
</wpt>
<wpt lat="54.761357935735923" lon="-123.302775690908348">
  <name>CARP4-4</name>
</wpt>
<wpt lat="54.748550809206478" lon="-123.41077707935321">
  <name>CARP4-5</name>
</wpt>
<wpt lat="54.762712892234063" lon="-123.368490373545271">
  <name>CARP4-6</name>
</wpt>
<wpt lat="54.785012131337268" lon="-123.243253916153222">
  <name>CARP4-7</name>
</wpt>
<wpt lat="54.77273147310828" lon="-123.249126335732186">
  <name>CARP4-8</name>
</wpt>
<wpt lat="54.724521319655203" lon="-123.340322185445459">
  <name>CARP4-9</name>
</wpt>
<wpt lat="54.767471957302831" lon="-123.403282739519753">
  <name>CARP4-10</name>
</wpt>
<wpt lat="54.758291934910972" lon="-123.386323765805031">
  <name>CARP4-11</name>
</wpt>
<wpt lat="54.783889227074582" lon="-123.380133157249077">
  <name>CARP4-12</name>
</wpt>
<wpt lat="54.76784419952623" lon="-123.324694244838838">
  <name>CARP4-13</name>
</wpt>
<wpt lat="54.770106853982689" lon="-123.359743062770946">
  <name>CARP4-14</name>
</wpt>
<wpt lat="54.786887811131521" lon="-123.412296424557113">
  <name>CARP4-15</name>
</wpt>
<wpt lat="54.789143702997848" lon="-123.378552357578812">
  <name>CARP4-16</name>
</wpt>
<wpt lat="54.772302569169511" lon="-123.409233917868278">
  <name>CARP4-17</name>
</wpt>
<wpt lat="54.771852068920651" lon="-123.262277379215604">
  <name>CARP4-18</name>
</wpt>
<wpt lat="54.776554793411165" lon="-123.39722104435549">
  <name>CARP4-19</name>
</wpt>
<wpt lat="54.786287068800505" lon="-123.405557678598527">
  <name>CARP4-20</name>
</wpt>
<wpt lat="54.797131977098729" lon="-123.365559241832997">
  <name>CARP4-21</name>
</wpt>
<wpt lat="54.809057838148625" lon="-123.342392753730181">
  <name>CARP4-22</name>
</wpt>
<wpt lat="54.770567662583197" lon="-123.250733334983195">
  <name>CARP4-23</name>
</wpt>
<wpt lat="54.788143158913584" lon="-123.373506946848252">
  <name>CARP4-24</name>
</wpt>
<wpt lat="54.811390630575367" lon="-123.326886299926883">
  <name>CARP4-25</name>
</wpt>
<wpt lat="54.752291347067903" lon="-123.371538550198281">
  <name>CARP4-26</name>
</wpt>
<wpt lat="54.75845867858353" lon="-123.386675657048343">
  <name>CARP4-27</name>
</wpt>
<wpt lat="54.781112705900526" lon="-123.383938832788886">
  <name>CARP4-28</name>
</wpt>
<wpt lat="54.764479687535953" lon="-123.356823977084346">
  <name>CARP4-29</name>
</wpt>
<wpt lat="54.799339552749167" lon="-123.322629239570503">
  <name>CARP4-30</name>
</wpt>
<wpt lat="54.803690627725935" lon="-123.346529601506674">
  <name>CARP4-31</name>
</wpt>
<wpt lat="54.749934691458023" lon="-123.363317272360689">
  <name>CARP4-32</name>
</wpt>
<wpt lat="54.762127764610653" lon="-123.290979611244325">
  <name>CARP4-33</name>
</wpt>
<wpt lat="54.781554685469509" lon="-123.380186900561142">
  <name>CARP4-34</name>
</wpt>
<wpt lat="54.719611300844015" lon="-123.360161185232158">
  <name>CARP4-35</name>
</wpt>
<wpt lat="54.764424294475127" lon="-123.369700351490579">
  <name>CARP4-36</name>
</wpt>
<wpt lat="54.767765558304475" lon="-123.322454123622805">
  <name>CARP4-37</name>
</wpt>
<wpt lat="54.762511058057072" lon="-123.361692215623577">
  <name>CARP4-38</name>
</wpt>
<wpt lat="54.776784718919792" lon="-123.398049392584724">
  <name>CARP4-39</name>
</wpt>
<wpt lat="54.761853723355678" lon="-123.30337603125632">
  <name>CARP4-40</name>
</wpt>
<wpt lat="54.780936412142751" lon="-123.377021610965642">
  <name>CARP4-41</name>
</wpt>
<wpt lat="54.760963287736196" lon="-123.355841837059685">
  <name>CARP4-42</name>
</wpt>
<wpt lat="54.805235855864183" lon="-123.3403128993547">
  <name>CARP4-43</name>
</wpt>
<wpt lat="54.792174322464817" lon="-123.324824813465085">
  <name>CARP4-44</name>
</wpt>
<wpt lat="54.76201414189741" lon="-123.298886944569873">
  <name>CARP4-45</name>
</wpt>
<wpt lat="54.718309126131444" lon="-123.349601830521479">
  <name>CARP4-46</name>
</wpt>
<wpt lat="54.785239136803007" lon="-123.397851438679865">
  <name>CARP4-47</name>
</wpt>
<wpt lat="54.742666953580581" lon="-123.371507061139738">
  <name>CARP4-48</name>
</wpt>
<wpt lat="54.718522442724954" lon="-123.381778776947613">
  <name>CARP4-49</name>
</wpt>
<wpt lat="54.725188733853479" lon="-123.379842070779659">
  <name>CARP4-50</name>
</wpt>
<wpt lat="54.807030369803684" lon="-123.354116688298831">
  <name>CARP4-51</name>
</wpt>
<wpt lat="54.810377083787181" lon="-123.341491140914599">
  <name>CARP4-52</name>
</wpt>
<wpt lat="54.75460607916871" lon="-123.36690967115166">
  <name>CARP4-53</name>
</wpt>
<wpt lat="54.781261007637475" lon="-123.387836485694791">
  <name>CARP4-54</name>
</wpt>
<wpt lat="54.770337672955314" lon="-123.411191139343913">
  <name>CARP4-55</name>
</wpt>
<wpt lat="54.774806916397132" lon="-123.419727501401255">
  <name>CARP4-56</name>
</wpt>
<wpt lat="54.790266946779028" lon="-123.363591535265215">
  <name>CARP4-57</name>
</wpt>
<wpt lat="54.795948151277898" lon="-123.374509336956251">
  <name>CARP4-58</name>
</wpt>
<wpt lat="54.770599113983721" lon="-123.410611311503018">
  <name>CARP4-59</name>
</wpt>
<wpt lat="54.717938960245498" lon="-123.366522491415679">
  <name>CARP4-60</name>
</wpt>
<wpt lat="54.72553777483386" lon="-123.337546140843955">
  <name>CARP4-61</name>
</wpt>
<wpt lat="54.752270809370273" lon="-123.407679740229838">
  <name>CARP4-62</name>
</wpt>
<wpt lat="54.788890010945956" lon="-123.333316407173385">
  <name>CARP4-63</name>
</wpt>
<wpt lat="54.726742089489093" lon="-123.313238234001844">
  <name>CARP4-64</name>
</wpt>
<wpt lat="54.784017168662082" lon="-123.369350354844499">
  <name>CARP4-65</name>
</wpt>
<wpt lat="54.7724720152966" lon="-123.393882535334924">
  <name>CARP4-66</name>
</wpt>
<wpt lat="54.720388843578903" lon="-123.361840939887756">
  <name>CARP4-67</name>
</wpt>
<wpt lat="54.801376067303977" lon="-123.350837856728305">
  <name>CARP4-68</name>
</wpt>
<wpt lat="54.773284684504361" lon="-123.390864075581391">
  <name>CARP4-69</name>
</wpt>
<wpt lat="54.761156237107592" lon="-123.372086477031758">
  <name>CARP4-70</name>
</wpt>
<wpt lat="54.81823237112976" lon="-123.345583399667134">
  <name>CARP4-71</name>
</wpt>
<wpt lat="54.76949334986989" lon="-123.414615264459286">
  <name>CARP4-72</name>
</wpt>
<wpt lat="54.722416621508813" lon="-123.366349339073437">
  <name>CARP4-73</name>
</wpt>
<wpt lat="54.777145295980453" lon="-123.42486013685766">
  <name>CARP4-74</name>
</wpt>
<wpt lat="54.790355872773283" lon="-123.369614908419535">
  <name>CARP4-75</name>
</wpt>
<wpt lat="54.71861087511158" lon="-123.373191949446706">
  <name>CARP4-76</name>
</wpt>
<wpt lat="54.774736675440401" lon="-123.411430910872909">
  <name>CARP4-77</name>
</wpt>
<wpt lat="54.726096024010801" lon="-123.376934303228637">
  <name>CARP4-78</name>
</wpt>
<wpt lat="54.780158861160814" lon="-123.402477570262931">
  <name>CARP4-79</name>
</wpt>
<wpt lat="54.71325334028753" lon="-123.36282644048579">
  <name>CARP4-80</name>
</wpt>
<wpt lat="54.790277681411659" lon="-123.33167174601958">
  <name>CARP4-81</name>
</wpt>
<wpt lat="54.717128319523333" lon="-123.364377952140245">
  <name>CARP4-82</name>
</wpt>
<wpt lat="54.780945721626566" lon="-123.384914822724085">
  <name>CARP4-83</name>
</wpt>
<wpt lat="54.774559449729907" lon="-123.406676623894583">
  <name>CARP4-84</name>
</wpt>
<wpt lat="54.794249151079661" lon="-123.342911933630063">
  <name>CARP4-85</name>
</wpt>
<wpt lat="54.774138637702428" lon="-123.412470095139255">
  <name>CARP4-86</name>
</wpt>
<wpt lat="54.74439441369492" lon="-123.277147036377158">
  <name>CARP4-87</name>
</wpt>
<wpt lat="54.798033271494447" lon="-123.372278736161348">
  <name>CARP4-88</name>
</wpt>
<wpt lat="54.774888521030441" lon="-123.408361059687905">
  <name>CARP4-89</name>
</wpt>
<wpt lat="54.773288783244354" lon="-123.416873182794347">
  <name>CARP4-90</name>
</wpt>
<wpt lat="54.790484964175029" lon="-123.363662959078098">
  <name>CARP4-91</name>
</wpt>
<wpt lat="54.721948933255675" lon="-123.361250625598174">
  <name>CARP4-92</name>
</wpt>
<wpt lat="54.802112707968917" lon="-123.329372977838318">
  <name>CARP4-93</name>
</wpt>
<wpt lat="54.750564426773288" lon="-123.365971814799408">
  <name>CARP4-94</name>
</wpt>
<wpt lat="54.821561342482433" lon="-123.342780908814419">
  <name>CARP4-95</name>
</wpt>
<wpt lat="54.765903669443283" lon="-123.355759046626062">
  <name>CARP4-96</name>
</wpt>
<wpt lat="54.783203834018202" lon="-123.397842997710043">
  <name>CARP4-97</name>
</wpt>
<wpt lat="54.776310289696518" lon="-123.418346473698307">
  <name>CARP4-98</name>
</wpt>
<wpt lat="54.759878158853759" lon="-123.373523180626975">
  <name>CARP4-99</name>
</wpt>
<wpt lat="54.7916567167035" lon="-123.371461382206022">
  <name>CARP4-100</name>
</wpt>
<wpt lat="54.738168327602445" lon="-123.373195199134315">
  <name>CARP4-101</name>
</wpt>
<wpt lat="54.784714225352481" lon="-123.253615539912019">
  <name>CARP4-102</name>
</wpt>
<wpt lat="54.77113594390687" lon="-123.422697532963383">
  <name>CARP4-103</name>
</wpt>
<wpt lat="54.712467112769957" lon="-123.364581363995725">
  <name>CARP4-104</name>
</wpt>
<wpt lat="54.712457809139885" lon="-123.378521963418592">
  <name>CARP4-105</name>
</wpt>
<wpt lat="54.7840546176092" lon="-123.414810009591378">
  <name>CARP4-106</name>
</wpt>
<wpt lat="54.759685592157574" lon="-123.357730024367214">
  <name>CARP4-107</name>
</wpt>
<wpt lat="54.727889774900774" lon="-123.323108995648155">
  <name>CARP4-108</name>
</wpt>
<wpt lat="54.726669332155367" lon="-123.330564474533674">
  <name>CARP4-109</name>
</wpt>
<wpt lat="54.779998768180342" lon="-123.427083910039769">
  <name>CARP4-110</name>
</wpt>
<wpt lat="54.762781586636095" lon="-123.355835517097077">
  <name>CARP4-111</name>
</wpt>
<wpt lat="54.750291730627431" lon="-123.277453177359291">
  <name>CARP4-112</name>
</wpt>
<wpt lat="54.810880505195065" lon="-123.327311286627335">
  <name>CARP4-113</name>
</wpt>
<wpt lat="54.810980260884371" lon="-123.32612901034021">
  <name>CARP4-114</name>
</wpt>
<wpt lat="54.809399332348271" lon="-123.350533631260291">
  <name>CARP4-115</name>
</wpt>
<wpt lat="54.763060461457442" lon="-123.360977260194332">
  <name>CARP4-116</name>
</wpt>
<wpt lat="54.766631631758059" lon="-123.320598610722342">
  <name>CARP4-117</name>
</wpt>
<wpt lat="54.7723920956714" lon="-123.247995920543758">
  <name>CARP4-118</name>
</wpt>
<wpt lat="54.792497237253457" lon="-123.334575854909744">
  <name>CARP4-119</name>
</wpt>
<wpt lat="54.777239367065711" lon="-123.387679910465764">
  <name>CARP4-120</name>
</wpt>
<wpt lat="54.745444899222782" lon="-123.370261960461519">
  <name>CARP4-121</name>
</wpt>
<wpt lat="54.757290200970708" lon="-123.367912048613249">
  <name>CARP4-122</name>
</wpt>
<wpt lat="54.768836296454943" lon="-123.361632220656972">
  <name>CARP4-123</name>
</wpt>
<wpt lat="54.726669745674542" lon="-123.378671208767017">
  <name>CARP4-124</name>
</wpt>
<wpt lat="54.714423645299881" lon="-123.362009869994722">
  <name>CARP4-125</name>
</wpt>
<wpt lat="54.722967526383499" lon="-123.351602385351541">
  <name>CARP4-126</name>
</wpt>
<wpt lat="54.792779424614167" lon="-123.357726643489599">
  <name>CARP4-127</name>
</wpt>
<wpt lat="54.815104241294442" lon="-123.340706618855606">
  <name>CARP4-128</name>
</wpt>
<wpt lat="54.725390835116173" lon="-123.323534350363261">
  <name>CARP4-129</name>
</wpt>
<wpt lat="54.793719409795358" lon="-123.335602467471446">
  <name>CARP4-130</name>
</wpt>
<wpt lat="54.755019199861934" lon="-123.36423831328726">
  <name>CARP4-131</name>
</wpt>
<wpt lat="54.763519420969651" lon="-123.408069452484312">
  <name>CARP4-132</name>
</wpt>
<wpt lat="54.761463137175276" lon="-123.399105515633877">
  <name>CARP4-133</name>
</wpt>
<wpt lat="54.806515222230665" lon="-123.349565823678205">
  <name>CARP4-134</name>
</wpt>
<wpt lat="54.757800566863637" lon="-123.271320799487526">
  <name>CARP4-135</name>
</wpt>
<wpt lat="54.758050529504011" lon="-123.367237303927467">
  <name>CARP4-136</name>
</wpt>
<wpt lat="54.773031943626506" lon="-123.425825773328299">
  <name>CARP4-137</name>
</wpt>
<wpt lat="54.754349449480685" lon="-123.369729353715201">
  <name>CARP4-138</name>
</wpt>
<wpt lat="54.766734543669521" lon="-123.403028583912359">
  <name>CARP4-139</name>
</wpt>
<wpt lat="54.719202888393703" lon="-123.352634948810959">
  <name>CARP4-140</name>
</wpt>
<wpt lat="54.730303753698358" lon="-123.301753340665314">
  <name>CARP4-141</name>
</wpt>
<wpt lat="54.754440686437981" lon="-123.278356384540416">
  <name>CARP4-142</name>
</wpt>
<wpt lat="54.800670801404159" lon="-123.367808836604112">
  <name>CARP4-143</name>
</wpt>
<wpt lat="54.78431236212711" lon="-123.310707512043237">
  <name>CARP4-144</name>
</wpt>
<wpt lat="54.777453094416138" lon="-123.427212240603012">
  <name>CARP4-145</name>
</wpt>
<wpt lat="54.730058841931388" lon="-123.307130333962334">
  <name>CARP4-146</name>
</wpt>
<wpt lat="54.724287930799463" lon="-123.338136049617248">
  <name>CARP4-147</name>
</wpt>
<wpt lat="54.773538730003295" lon="-123.410629189007636">
  <name>CARP4-148</name>
</wpt>
<wpt lat="54.793415364640069" lon="-123.377390574676028">
  <name>CARP4-149</name>
</wpt>
<wpt lat="54.763502898925744" lon="-123.362185690290104">
  <name>CARP4-150</name>
</wpt>
<wpt lat="54.754715479770503" lon="-123.361362635039384">
  <name>CARP4-151</name>
</wpt>
<wpt lat="54.759744811472828" lon="-123.380730131291244">
  <name>CARP4-152</name>
</wpt>
<wpt lat="54.782911269181149" lon="-123.315651685309888">
  <name>CARP4-153</name>
</wpt>
<wpt lat="54.788442686575102" lon="-123.38172508535888">
  <name>CARP4-154</name>
</wpt>
<wpt lat="54.765407132009194" lon="-123.274301941679212">
  <name>CARP4-155</name>
</wpt>
<wpt lat="54.766859622204045" lon="-123.252760205005742">
  <name>CARP4-156</name>
</wpt>
<wpt lat="54.713311763138599" lon="-123.363155678173086">
  <name>CARP4-157</name>
</wpt>
<wpt lat="54.763415525399175" lon="-123.407365285048229">
  <name>CARP4-158</name>
</wpt>
<wpt lat="54.76946758802903" lon="-123.269591945155994">
  <name>CARP4-159</name>
</wpt>
<wpt lat="54.805591052003919" lon="-123.354931702626118">
  <name>CARP4-160</name>
</wpt>
<wpt lat="54.805770429092306" lon="-123.350440475547146">
  <name>CARP4-161</name>
</wpt>
<wpt lat="54.725203627050448" lon="-123.315146598358638">
  <name>CARP4-162</name>
</wpt>
<wpt lat="54.797216727542697" lon="-123.325095551830628">
  <name>CARP4-163</name>
</wpt>
<wpt lat="54.727409921481652" lon="-123.376576706138977">
  <name>CARP4-164</name>
</wpt>
<wpt lat="54.75319164850594" lon="-123.369352028457911">
  <name>CARP4-165</name>
</wpt>
<wpt lat="54.771823536379721" lon="-123.26569880775935">
  <name>CARP4-166</name>
</wpt>
<wpt lat="54.757269666027213" lon="-123.406852490880993">
  <name>CARP4-167</name>
</wpt>
<wpt lat="54.719738824739004" lon="-123.361930316164717">
  <name>CARP4-168</name>
</wpt>
<wpt lat="54.795907083346343" lon="-123.333769476236839">
  <name>CARP4-169</name>
</wpt>
<wpt lat="54.761058312050288" lon="-123.409484603285577">
  <name>CARP4-170</name>
</wpt>
<wpt lat="54.72671547522382" lon="-123.325503708577344">
  <name>CARP4-171</name>
</wpt>
<wpt lat="54.778281225517667" lon="-123.424214719045821">
  <name>CARP4-172</name>
</wpt>
<wpt lat="54.796056853278337" lon="-123.37392295079654">
  <name>CARP4-173</name>
</wpt>
<wpt lat="54.793276213863059" lon="-123.360828044777179">
  <name>CARP4-174</name>
</wpt>
<wpt lat="54.775478709660014" lon="-123.246978012644661">
  <name>CARP4-175</name>
</wpt>
<wpt lat="54.7941175045354" lon="-123.336164385644722">
  <name>CARP4-176</name>
</wpt>
<wpt lat="54.819781142772804" lon="-123.346008317971993">
  <name>CARP4-177</name>
</wpt>
<wpt lat="54.759535434975405" lon="-123.39901138837952">
  <name>CARP4-178</name>
</wpt>
<wpt lat="54.797098390374316" lon="-123.336931948310337">
  <name>CARP4-179</name>
</wpt>
<wpt lat="54.815086940160796" lon="-123.349956346090039">
  <name>CARP4-180</name>
</wpt>
<wpt lat="54.728270683662458" lon="-123.317143133339599">
  <name>CARP4-181</name>
</wpt>
<wpt lat="54.724261098731134" lon="-123.344070281962715">
  <name>CARP4-182</name>
</wpt>
<wpt lat="54.785645832961322" lon="-123.388349993661677">
  <name>CARP4-183</name>
</wpt>
<wpt lat="54.779042855404725" lon="-123.318249213919557">
  <name>CARP4-184</name>
</wpt>
<wpt lat="54.797688926083843" lon="-123.367688262529668">
  <name>CARP4-185</name>
</wpt>
<wpt lat="54.783278738889109" lon="-123.420724009751027">
  <name>CARP4-186</name>
</wpt>
<wpt lat="54.72724166330805" lon="-123.380104055384805">
  <name>CARP4-187</name>
</wpt>
<wpt lat="54.794798936070187" lon="-123.34255244106798">
  <name>CARP4-188</name>
</wpt>
<wpt lat="54.769459207850815" lon="-123.425026839272562">
  <name>CARP4-189</name>
</wpt>
<wpt lat="54.712423713826851" lon="-123.370976766365672">
  <name>CARP4-190</name>
</wpt>
<wpt lat="54.802686039203607" lon="-123.367108289014496">
  <name>CARP4-191</name>
</wpt>
<wpt lat="54.730350432235845" lon="-123.300118013256011">
  <name>CARP4-192</name>
</wpt>
<wpt lat="54.789517579556701" lon="-123.383868207755981">
  <name>CARP4-193</name>
</wpt>
<wpt lat="54.755752503818314" lon="-123.364783989980197">
  <name>CARP4-194</name>
</wpt>
<wpt lat="54.790368872625208" lon="-123.383979919372237">
  <name>CARP4-195</name>
</wpt>
<wpt lat="54.795128287339793" lon="-123.369309523683455">
  <name>CARP4-196</name>
</wpt>
<wpt lat="54.727154205625936" lon="-123.328392292587409">
  <name>CARP4-197</name>
</wpt>
<wpt lat="54.800477260450286" lon="-123.329424815963435">
  <name>CARP4-198</name>
</wpt>
<wpt lat="54.819982565543668" lon="-123.346705595701025">
  <name>CARP4-199</name>
</wpt>
<wpt lat="54.785436941356167" lon="-123.378632502989092">
  <name>CARP4-200</name>
</wpt>
<wpt lat="54.791832821913069" lon="-123.324488093965314">
  <name>CARP4-201</name>
</wpt>
<wpt lat="54.722279661336948" lon="-123.380498121633423">
  <name>CARP4-202</name>
</wpt>
<wpt lat="54.757988985721049" lon="-123.27018538735139">
  <name>CARP4-203</name>
</wpt>
<wpt lat="54.780861108657831" lon="-123.397326764728064">
  <name>CARP4-204</name>
</wpt>
<wpt lat="54.792538774824415" lon="-123.317608562488331">
  <name>CARP4-205</name>
</wpt>
<wpt lat="54.770209383940546" lon="-123.273985041628734">
  <name>CARP4-206</name>
</wpt>
<wpt lat="54.761698301873544" lon="-123.368345401717875">
  <name>CARP4-207</name>
</wpt>
<wpt lat="54.791874159048803" lon="-123.369031471496939">
  <name>CARP4-208</name>
</wpt>
<wpt lat="54.718023265911121" lon="-123.350361601428418">
  <name>CARP4-209</name>
</wpt>
<wpt lat="54.762390558618804" lon="-123.375720199011923">
  <name>CARP4-210</name>
</wpt>
<wpt lat="54.793367760845193" lon="-123.368360465420025">
  <name>CARP4-211</name>
</wpt>
<wpt lat="54.713928559668325" lon="-123.366135705643558">
  <name>CARP4-212</name>
</wpt>
<wpt lat="54.772673224201256" lon="-123.268079009489739">
  <name>CARP4-213</name>
</wpt>
<wpt lat="54.791502486434887" lon="-123.34334817908487">
  <name>CARP4-214</name>
</wpt>
<wpt lat="54.793146442390906" lon="-123.381510985149873">
  <name>CARP4-215</name>
</wpt>
<wpt lat="54.763613276320235" lon="-123.260400663157">
  <name>CARP4-216</name>
</wpt>
<wpt lat="54.815776812534409" lon="-123.344926054241938">
  <name>CARP4-217</name>
</wpt>
<wpt lat="54.725618829430765" lon="-123.328894649228715">
  <name>CARP4-218</name>
</wpt>
<wpt lat="54.71745211340081" lon="-123.381828747299863">
  <name>CARP4-219</name>
</wpt>
<wpt lat="54.770637833013787" lon="-123.341602929153169">
  <name>CARP4-220</name>
</wpt>
<wpt lat="54.801182186123583" lon="-123.327656447972089">
  <name>CARP4-221</name>
</wpt>
<wpt lat="54.715965229046603" lon="-123.371405784423871">
  <name>CARP4-222</name>
</wpt>
<wpt lat="54.783201808421069" lon="-123.371438931780105">
  <name>CARP4-223</name>
</wpt>
<wpt lat="54.759474716883751" lon="-123.367231630944261">
  <name>CARP4-224</name>
</wpt>
<wpt lat="54.790891774547404" lon="-123.366891165352811">
  <name>CARP4-225</name>
</wpt>
<wpt lat="54.786020995409736" lon="-123.37185967852281">
  <name>CARP4-226</name>
</wpt>
<wpt lat="54.784215428961836" lon="-123.389435425468477">
  <name>CARP4-227</name>
</wpt>
<wpt lat="54.782459308248541" lon="-123.385473608396808">
  <name>CARP4-228</name>
</wpt>
<wpt lat="54.770329563415565" lon="-123.359207263223936">
  <name>CARP4-229</name>
</wpt>
</gpx>
