<?xml version="1.0" encoding="UTF-8"?>
<kml xmlns="http://www.opengis.net/kml/2.2" xmlns:gx="http://www.google.com/kml/ext/2.2" xmlns:kml="http://www.opengis.net/kml/2.2" xmlns:atom="http://www.w3.org/2005/Atom">
<Document>
	<name>carp_oc6_Z3.kml</name>
	<StyleMap id="msn_ylw-pushpin">
		<Pair>
			<key>normal</key>
			<styleUrl>#sn_ylw-pushpin0</styleUrl>
		</Pair>
		<Pair>
			<key>highlight</key>
			<styleUrl>#sh_ylw-pushpin</styleUrl>
		</Pair>
	</StyleMap>
	<StyleMap id="msn_ylw-pushpin0">
		<Pair>
			<key>normal</key>
			<styleUrl>#sn_ylw-pushpin</styleUrl>
		</Pair>
		<Pair>
			<key>highlight</key>
			<styleUrl>#sh_ylw-pushpin1</styleUrl>
		</Pair>
	</StyleMap>
	<StyleMap id="msn_ylw-pushpin00">
		<Pair>
			<key>normal</key>
			<styleUrl>#sn_ylw-pushpin1</styleUrl>
		</Pair>
		<Pair>
			<key>highlight</key>
			<styleUrl>#sh_ylw-pushpin0</styleUrl>
		</Pair>
	</StyleMap>
	<Style id="sh_ylw-pushpin">
		<IconStyle>
			<color>ff408010</color>
			<scale>1.2</scale>
		</IconStyle>
	</Style>
	<Style id="sh_ylw-pushpin1">
		<IconStyle>
			<color>ff408010</color>
			<scale>1.2</scale>
		</IconStyle>
	</Style>
	<Style id="sh_ylw-pushpin0">
		<IconStyle>
			<color>ff408010</color>
			<scale>1.2</scale>
		</IconStyle>
	</Style>
	<Style id="sn_ylw-pushpin">
		<IconStyle>
			<color>ff408010</color>
		</IconStyle>
	</Style>
	<Style id="sn_ylw-pushpin1">
		<IconStyle>
			<color>ff408010</color>
		</IconStyle>
	</Style>
	<Style id="sn_ylw-pushpin0">
		<IconStyle>
			<color>ff408010</color>
		</IconStyle>
	</Style>
	<Folder>
		<name>carp_oc6_Z3</name>
		<open>1</open>
		<Placemark>
			<name>CARP6-Z3-19</name>
			<styleUrl>#msn_ylw-pushpin</styleUrl>
			<Point>
				<coordinates>-123.370012740977,54.7518934540687,0</coordinates>
			</Point>
		</Placemark>
		<Placemark>
			<name>CARP6-Z3-39</name>
			<styleUrl>#msn_ylw-pushpin</styleUrl>
			<Point>
				<coordinates>-123.37984207078,54.7259649722696,0</coordinates>
			</Point>
		</Placemark>
		<Placemark>
			<name>CARP6-Z3-61</name>
			<styleUrl>#msn_ylw-pushpin</styleUrl>
			<Point>
				<coordinates>-123.329803153414,54.7267154752238,0</coordinates>
			</Point>
		</Placemark>
		<Placemark>
			<name>CARP6-Z3-71</name>
			<styleUrl>#msn_ylw-pushpin</styleUrl>
			<Point>
				<coordinates>-123.36961490842,54.72068908868989,0</coordinates>
			</Point>
		</Placemark>
		<Placemark>
			<name>CARP6-Z3-78</name>
			<styleUrl>#msn_ylw-pushpin</styleUrl>
			<Point>
				<coordinates>-123.379230014,54.7126937545699,0</coordinates>
			</Point>
		</Placemark>
		<Placemark>
			<name>CARP6-Z3-112</name>
			<styleUrl>#msn_ylw-pushpin00</styleUrl>
			<Point>
				<coordinates>-123.3319767577527,54.73942551160551,0</coordinates>
			</Point>
		</Placemark>
		<Placemark>
			<name>CARP6-Z3-122</name>
			<styleUrl>#msn_ylw-pushpin</styleUrl>
			<Point>
				<coordinates>-123.363257847226,54.7186910090658,0</coordinates>
			</Point>
		</Placemark>
		<Placemark>
			<name>CARP6-Z3-157</name>
			<styleUrl>#msn_ylw-pushpin</styleUrl>
			<Point>
				<coordinates>-123.356978864216,54.7636461919721,0</coordinates>
			</Point>
		</Placemark>
		<Placemark>
			<name>CARP6-Z3-160</name>
			<styleUrl>#msn_ylw-pushpin</styleUrl>
			<Point>
				<coordinates>-123.353925489979,54.7227849974321,0</coordinates>
			</Point>
		</Placemark>
		<Placemark>
			<name>CARP6-Z3-226</name>
			<styleUrl>#msn_ylw-pushpin</styleUrl>
			<Point>
				<coordinates>-123.373317807004,54.73486035017301,0</coordinates>
			</Point>
		</Placemark>
		<Placemark>
			<name>CARP6-Z3-254</name>
			<styleUrl>#msn_ylw-pushpin00</styleUrl>
			<Point>
				<coordinates>-123.3253730156543,54.74733996952415,0</coordinates>
			</Point>
		</Placemark>
		<Placemark>
			<name>CARP6-Z3-314</name>
			<styleUrl>#msn_ylw-pushpin</styleUrl>
			<Point>
				<coordinates>-123.371283193752,54.7118509087629,0</coordinates>
			</Point>
		</Placemark>
		<Placemark>
			<name>CARP6-Z3-352</name>
			<styleUrl>#msn_ylw-pushpin</styleUrl>
			<Point>
				<coordinates>-123.368459454056,54.75456720571881,0</coordinates>
			</Point>
		</Placemark>
		<Placemark>
			<name>CARP6-Z3-371</name>
			<styleUrl>#msn_ylw-pushpin00</styleUrl>
			<Point>
				<coordinates>-123.3531060101763,54.74073046427556,0</coordinates>
			</Point>
		</Placemark>
		<Placemark>
			<name>CARP6-Z3-388</name>
			<styleUrl>#msn_ylw-pushpin</styleUrl>
			<Point>
				<coordinates>-123.372695334097,54.7415319943771,0</coordinates>
			</Point>
		</Placemark>
		<Placemark>
			<name>CARP6-Z3-389</name>
			<styleUrl>#msn_ylw-pushpin00</styleUrl>
			<Point>
				<coordinates>-123.3222265865921,54.74672594142675,0</coordinates>
			</Point>
		</Placemark>
		<Placemark>
			<name>CARP6-Z3-395</name>
			<styleUrl>#msn_ylw-pushpin</styleUrl>
			<Point>
				<coordinates>-123.359565572407,54.7231705542432,0</coordinates>
			</Point>
		</Placemark>
		<Placemark>
			<name>CARP6-Z3-410</name>
			<styleUrl>#msn_ylw-pushpin</styleUrl>
			<Point>
				<coordinates>-123.314920340626,54.7277897061115,0</coordinates>
			</Point>
		</Placemark>
		<Placemark>
			<name>CARP6-Z3-418</name>
			<styleUrl>#msn_ylw-pushpin</styleUrl>
			<Point>
				<coordinates>-123.379030132854,54.7171465066723,0</coordinates>
			</Point>
		</Placemark>
		<Placemark>
			<name>CARP6-Z3-3</name>
			<LookAt>
				<longitude>-123.3046468140166</longitude>
				<latitude>54.74249029433134</latitude>
				<altitude>0</altitude>
				<heading>0.02355510305761127</heading>
				<tilt>17.65403536774157</tilt>
				<range>11635.24222630705</range>
				<gx:altitudeMode>relativeToSeaFloor</gx:altitudeMode>
			</LookAt>
			<styleUrl>#msn_ylw-pushpin0</styleUrl>
			<Point>
				<gx:drawOrder>1</gx:drawOrder>
				<coordinates>-123.3533483679271,54.76118363033864,0</coordinates>
			</Point>
		</Placemark>
	</Folder>
</Document>
</kml>
