<?xml version="1.0" standalone="yes"?>
<gpx xmlns="http://www.topografix.com/GPX/1/1" creator="KML2GPX.COM" version="1.1" xmlns:xsi="http://www.w3.org/2001/XMLSchema-instance" xsi:schemaLocation="http://www.topografix.com/GPX/1/1 http://www.topografix.com/GPX/1/1/gpx.xsd">
    <metadata>
        <name><![CDATA[carp_occ3_z3.kml]]></name>
        <desc><![CDATA[Converted from a KML file KML2GPX.COM]]></desc>
                </metadata>

                                                                                
                <wpt lat="54.76577110358979" lon="-123.357956302973">
                                                            <ele>0</ele>
                    <name><![CDATA[CARP3-Z3-9]]></name>
                    <cmt><![CDATA[Waypoint no: 1]]></cmt>
                    <desc><![CDATA[This is waypoint no: 1]]></desc>
                </wpt>
                                                                                                                            
                <wpt lat="54.71916052277311" lon="-123.378552357579">
                                                            <ele>0</ele>
                    <name><![CDATA[CARP3-Z3-10]]></name>
                    <cmt><![CDATA[Waypoint no: 2]]></cmt>
                    <desc><![CDATA[This is waypoint no: 2]]></desc>
                </wpt>
                                                                                                                            
                <wpt lat="54.76528970888621" lon="-123.363985741543">
                                                            <ele>0</ele>
                    <name><![CDATA[CARP3-Z3-34]]></name>
                    <cmt><![CDATA[Waypoint no: 3]]></cmt>
                    <desc><![CDATA[This is waypoint no: 3]]></desc>
                </wpt>
                                                                                                                            
                <wpt lat="54.7524388913308" lon="-123.366522491416">
                                                            <ele>0</ele>
                    <name><![CDATA[CARP3-Z3-50]]></name>
                    <cmt><![CDATA[Waypoint no: 4]]></cmt>
                    <desc><![CDATA[This is waypoint no: 4]]></desc>
                </wpt>
                                                                                                                            
                <wpt lat="54.7274099214817" lon="-123.376315501016">
                                                            <ele>0</ele>
                    <name><![CDATA[CARP3-Z3-51]]></name>
                    <cmt><![CDATA[Waypoint no: 5]]></cmt>
                    <desc><![CDATA[This is waypoint no: 5]]></desc>
                </wpt>
                                                                                                                            
                <wpt lat="54.7267154752238" lon="-123.329803153414">
                                                            <ele>0</ele>
                    <name><![CDATA[CARP3-Z3-61]]></name>
                    <cmt><![CDATA[Waypoint no: 6]]></cmt>
                    <desc><![CDATA[This is waypoint no: 6]]></desc>
                </wpt>
                                                                                                                            
                <wpt lat="54.76092803184011" lon="-123.372086477032">
                                                            <ele>0</ele>
                    <name><![CDATA[CARP3-Z3-62]]></name>
                    <cmt><![CDATA[Waypoint no: 7]]></cmt>
                    <desc><![CDATA[This is waypoint no: 7]]></desc>
                </wpt>
                                                                                                                            
                <wpt lat="54.72068908868989" lon="-123.36961490842">
                                                            <ele>0</ele>
                    <name><![CDATA[CARP3-Z3-71]]></name>
                    <cmt><![CDATA[Waypoint no: 8]]></cmt>
                    <desc><![CDATA[This is waypoint no: 8]]></desc>
                </wpt>
                                                                                                                            
                <wpt lat="54.71422109038" lon="-123.368551139724">
                                                            <ele>0</ele>
                    <name><![CDATA[CARP3-Z3-97]]></name>
                    <cmt><![CDATA[Waypoint no: 9]]></cmt>
                    <desc><![CDATA[This is waypoint no: 9]]></desc>
                </wpt>
                                                                                                                            
                <wpt lat="54.7222796613369" lon="-123.364238313287">
                                                            <ele>0</ele>
                    <name><![CDATA[CARP3-Z3-115]]></name>
                    <cmt><![CDATA[Waypoint no: 10]]></cmt>
                    <desc><![CDATA[This is waypoint no: 10]]></desc>
                </wpt>
                                                                                                                            
                <wpt lat="54.7186910090658" lon="-123.363257847226">
                                                            <ele>0</ele>
                    <name><![CDATA[CARP3-Z3-122]]></name>
                    <cmt><![CDATA[Waypoint no: 11]]></cmt>
                    <desc><![CDATA[This is waypoint no: 11]]></desc>
                </wpt>
                                                                                                                            
                <wpt lat="54.72723711875151" lon="-123.321819227223">
                                                            <ele>0</ele>
                    <name><![CDATA[CARP3-Z3-149]]></name>
                    <cmt><![CDATA[Waypoint no: 12]]></cmt>
                    <desc><![CDATA[This is waypoint no: 12]]></desc>
                </wpt>
                                                                                                                            
                <wpt lat="54.72087776194889" lon="-123.374602439808">
                                                            <ele>0</ele>
                    <name><![CDATA[CARP3-Z3-169]]></name>
                    <cmt><![CDATA[Waypoint no: 13]]></cmt>
                    <desc><![CDATA[This is waypoint no: 13]]></desc>
                </wpt>
                                                                                                                            
                <wpt lat="54.7558764002367" lon="-123.353886252571">
                                                            <ele>0</ele>
                    <name><![CDATA[CARP3-Z3-182]]></name>
                    <cmt><![CDATA[Waypoint no: 14]]></cmt>
                    <desc><![CDATA[This is waypoint no: 14]]></desc>
                </wpt>
                                                                                                                            
                <wpt lat="54.7367150257276" lon="-123.373112964836">
                                                            <ele>0</ele>
                    <name><![CDATA[CARP3-Z3-220]]></name>
                    <cmt><![CDATA[Waypoint no: 15]]></cmt>
                    <desc><![CDATA[This is waypoint no: 15]]></desc>
                </wpt>
                                                                                                                            
                <wpt lat="54.7239223442215" lon="-123.344358552704">
                                                            <ele>0</ele>
                    <name><![CDATA[CARP3-Z3-256]]></name>
                    <cmt><![CDATA[Waypoint no: 16]]></cmt>
                    <desc><![CDATA[This is waypoint no: 16]]></desc>
                </wpt>
                                                                                                                            
                <wpt lat="54.7257244529863" lon="-123.328541689518">
                                                            <ele>0</ele>
                    <name><![CDATA[CARP3-Z3-318]]></name>
                    <cmt><![CDATA[Waypoint no: 17]]></cmt>
                    <desc><![CDATA[This is waypoint no: 17]]></desc>
                </wpt>
                                                                                                                            
                <wpt lat="54.75456720571881" lon="-123.368459454056">
                                                            <ele>0</ele>
                    <name><![CDATA[CARP3-Z3-352]]></name>
                    <cmt><![CDATA[Waypoint no: 18]]></cmt>
                    <desc><![CDATA[This is waypoint no: 18]]></desc>
                </wpt>
                                                                                                                            
                <wpt lat="54.7273490864034" lon="-123.373596188259">
                                                            <ele>0</ele>
                    <name><![CDATA[CARP3-Z3-371]]></name>
                    <cmt><![CDATA[Waypoint no: 19]]></cmt>
                    <desc><![CDATA[This is waypoint no: 19]]></desc>
                </wpt>
                                                                                                                            
                <wpt lat="54.7415319943771" lon="-123.372695334097">
                                                            <ele>0</ele>
                    <name><![CDATA[CARP3-Z3-388]]></name>
                    <cmt><![CDATA[Waypoint no: 20]]></cmt>
                    <desc><![CDATA[This is waypoint no: 20]]></desc>
                </wpt>
                                                                                                                            
                <wpt lat="54.7222070531747" lon="-123.359995315554">
                                                            <ele>0</ele>
                    <name><![CDATA[CARP3-Z3-391]]></name>
                    <cmt><![CDATA[Waypoint no: 21]]></cmt>
                    <desc><![CDATA[This is waypoint no: 21]]></desc>
                </wpt>
                                                                                                                            
                <wpt lat="54.7154804508013" lon="-123.377201162693">
                                                            <ele>0</ele>
                    <name><![CDATA[CARP3-Z3-428]]></name>
                    <cmt><![CDATA[Waypoint no: 22]]></cmt>
                    <desc><![CDATA[This is waypoint no: 22]]></desc>
                </wpt>
                                                            
                    
    
</gpx>