<?xml version="1.0" standalone="yes"?>
<gpx xmlns="http://www.topografix.com/GPX/1/1" creator="KML2GPX.COM" version="1.1" xmlns:xsi="http://www.w3.org/2001/XMLSchema-instance" xsi:schemaLocation="http://www.topografix.com/GPX/1/1 http://www.topografix.com/GPX/1/1/gpx.xsd">
    <metadata>
        <name><![CDATA[Carp_oc5_Z1.kml]]></name>
        <desc><![CDATA[Converted from a KML file KML2GPX.COM]]></desc>
                </metadata>

                                                                                
                <wpt lat="54.7971319770987" lon="-123.365559241833">
                                                            <ele>0</ele>
                    <name><![CDATA[CARP5-Z1-21]]></name>
                    <cmt><![CDATA[Waypoint no: 1]]></cmt>
                    <desc><![CDATA[This is waypoint no: 1]]></desc>
                </wpt>
                                                                                                                            
                <wpt lat="54.8103770837872" lon="-123.341491140915">
                                                            <ele>0</ele>
                    <name><![CDATA[CARP5-Z1-52]]></name>
                    <cmt><![CDATA[Waypoint no: 2]]></cmt>
                    <desc><![CDATA[This is waypoint no: 2]]></desc>
                </wpt>
                                                                                                                            
                <wpt lat="54.790266946779" lon="-123.363591535265">
                                                            <ele>0</ele>
                    <name><![CDATA[CARP5-Z1-57]]></name>
                    <cmt><![CDATA[Waypoint no: 3]]></cmt>
                    <desc><![CDATA[This is waypoint no: 3]]></desc>
                </wpt>
                                                                                                                            
                <wpt lat="54.801376067304" lon="-123.350837856728">
                                                            <ele>0</ele>
                    <name><![CDATA[CARP5-Z1-68]]></name>
                    <cmt><![CDATA[Waypoint no: 4]]></cmt>
                    <desc><![CDATA[This is waypoint no: 4]]></desc>
                </wpt>
                                                                                                                            
                <wpt lat="54.8182323711298" lon="-123.345583399667">
                                                            <ele>0</ele>
                    <name><![CDATA[CARP5-Z1-71]]></name>
                    <cmt><![CDATA[Waypoint no: 5]]></cmt>
                    <desc><![CDATA[This is waypoint no: 5]]></desc>
                </wpt>
                                                                                                                            
                <wpt lat="54.7903558727733" lon="-123.36961490842">
                                                            <ele>0</ele>
                    <name><![CDATA[CARP5-Z1-75]]></name>
                    <cmt><![CDATA[Waypoint no: 6]]></cmt>
                    <desc><![CDATA[This is waypoint no: 6]]></desc>
                </wpt>
                                                                                                                            
                <wpt lat="54.8108805051951" lon="-123.327311286627">
                                                            <ele>0</ele>
                    <name><![CDATA[CARP5-Z1-113]]></name>
                    <cmt><![CDATA[Waypoint no: 7]]></cmt>
                    <desc><![CDATA[This is waypoint no: 7]]></desc>
                </wpt>
                                                                                                                            
                <wpt lat="54.8093993323483" lon="-123.35053363126">
                                                            <ele>0</ele>
                    <name><![CDATA[CARP5-Z1-115]]></name>
                    <cmt><![CDATA[Waypoint no: 8]]></cmt>
                    <desc><![CDATA[This is waypoint no: 8]]></desc>
                </wpt>
                                                                                                                            
                <wpt lat="54.7937194097954" lon="-123.335602467471">
                                                            <ele>0</ele>
                    <name><![CDATA[CARP5-Z1-130]]></name>
                    <cmt><![CDATA[Waypoint no: 9]]></cmt>
                    <desc><![CDATA[This is waypoint no: 9]]></desc>
                </wpt>
                                                                                                                            
                <wpt lat="54.7829112691811" lon="-123.31565168531">
                                                            <ele>0</ele>
                    <name><![CDATA[CARP5-Z1-153]]></name>
                    <cmt><![CDATA[Waypoint no: 10]]></cmt>
                    <desc><![CDATA[This is waypoint no: 10]]></desc>
                </wpt>
                                                                                                                            
                <wpt lat="54.8055910520039" lon="-123.354931702626">
                                                            <ele>0</ele>
                    <name><![CDATA[CARP5-Z1-160]]></name>
                    <cmt><![CDATA[Waypoint no: 11]]></cmt>
                    <desc><![CDATA[This is waypoint no: 11]]></desc>
                </wpt>
                                                                                                                            
                <wpt lat="54.7972167275427" lon="-123.325095551831">
                                                            <ele>0</ele>
                    <name><![CDATA[CARP5-Z1-163]]></name>
                    <cmt><![CDATA[Waypoint no: 12]]></cmt>
                    <desc><![CDATA[This is waypoint no: 12]]></desc>
                </wpt>
                                                                                                                            
                <wpt lat="54.7932762138631" lon="-123.360828044777">
                                                            <ele>0</ele>
                    <name><![CDATA[CARP5-Z1-174]]></name>
                    <cmt><![CDATA[Waypoint no: 13]]></cmt>
                    <desc><![CDATA[This is waypoint no: 13]]></desc>
                </wpt>
                                                                                                                            
                <wpt lat="54.7970983903743" lon="-123.33693194831">
                                                            <ele>0</ele>
                    <name><![CDATA[CARP5-Z1-179]]></name>
                    <cmt><![CDATA[Waypoint no: 14]]></cmt>
                    <desc><![CDATA[This is waypoint no: 14]]></desc>
                </wpt>
                                                                                                                            
                <wpt lat="54.7790428554047" lon="-123.31824921392">
                                                            <ele>0</ele>
                    <name><![CDATA[CARP5-Z1-184]]></name>
                    <cmt><![CDATA[Waypoint no: 15]]></cmt>
                    <desc><![CDATA[This is waypoint no: 15]]></desc>
                </wpt>
                                                                                                                            
                <wpt lat="54.79479893607021" lon="-123.342552441068">
                                                            <ele>0</ele>
                    <name><![CDATA[CARP5-Z1-188]]></name>
                    <cmt><![CDATA[Waypoint no: 16]]></cmt>
                    <desc><![CDATA[This is waypoint no: 16]]></desc>
                </wpt>
                                                                                                                            
                <wpt lat="54.8004772604503" lon="-123.329424815963">
                                                            <ele>0</ele>
                    <name><![CDATA[CARP5-Z1-198]]></name>
                    <cmt><![CDATA[Waypoint no: 17]]></cmt>
                    <desc><![CDATA[This is waypoint no: 17]]></desc>
                </wpt>
                                                                                                                            
                <wpt lat="54.7918328219131" lon="-123.324488093965">
                                                            <ele>0</ele>
                    <name><![CDATA[CARP5-Z1-201]]></name>
                    <cmt><![CDATA[Waypoint no: 18]]></cmt>
                    <desc><![CDATA[This is waypoint no: 18]]></desc>
                </wpt>
                                                                                                                            
                <wpt lat="54.7918741590488" lon="-123.369031471497">
                                                            <ele>0</ele>
                    <name><![CDATA[CARP5-Z1-208]]></name>
                    <cmt><![CDATA[Waypoint no: 19]]></cmt>
                    <desc><![CDATA[This is waypoint no: 19]]></desc>
                </wpt>
                                                                                                                            
                <wpt lat="54.79150248643491" lon="-123.343348179085">
                                                            <ele>0</ele>
                    <name><![CDATA[CARP5-Z1-214]]></name>
                    <cmt><![CDATA[Waypoint no: 20]]></cmt>
                    <desc><![CDATA[This is waypoint no: 20]]></desc>
                </wpt>
                                                            
                    
    
</gpx>