<?xml version="1.0" encoding="UTF-8"?>
<kml xmlns="http://www.opengis.net/kml/2.2" xmlns:gx="http://www.google.com/kml/ext/2.2" xmlns:kml="http://www.opengis.net/kml/2.2" xmlns:atom="http://www.w3.org/2005/Atom">
<Document>
	<name>creel catch locns.kml</name>
	<StyleMap id="m_ylw-pushpin">
		<Pair>
			<key>normal</key>
			<styleUrl>#s_ylw-pushpin</styleUrl>
		</Pair>
		<Pair>
			<key>highlight</key>
			<styleUrl>#s_ylw-pushpin_hl</styleUrl>
		</Pair>
	</StyleMap>
	<Style id="s_ylw-pushpin">
		<IconStyle>
			<scale>1.1</scale>
			<Icon>
				<href>http://maps.google.com/mapfiles/kml/pushpin/ylw-pushpin.png</href>
			</Icon>
			<hotSpot x="20" y="2" xunits="pixels" yunits="pixels"/>
		</IconStyle>
	</Style>
	<Style id="s_ylw-pushpin_hl">
		<IconStyle>
			<scale>1.3</scale>
			<Icon>
				<href>http://maps.google.com/mapfiles/kml/pushpin/ylw-pushpin.png</href>
			</Icon>
			<hotSpot x="20" y="2" xunits="pixels" yunits="pixels"/>
		</IconStyle>
	</Style>
	<Folder>
		<name>creel catch locns</name>
		<open>1</open>
		<Placemark>
			<name>White Spruce Isl</name>
			<LookAt>
				<longitude>-123.3580299330958</longitude>
				<latitude>54.77684724437495</latitude>
				<altitude>0</altitude>
				<heading>-0.009732650767052412</heading>
				<tilt>19.97648038644186</tilt>
				<range>3467.913998312286</range>
				<gx:altitudeMode>relativeToSeaFloor</gx:altitudeMode>
			</LookAt>
			<styleUrl>#m_ylw-pushpin</styleUrl>
			<Point>
				<gx:drawOrder>1</gx:drawOrder>
				<coordinates>-123.34902418593,54.77414637745551,0</coordinates>
			</Point>
		</Placemark>
		<Placemark>
			<name>Bay between Bert&apos;s Cabin and beetle-kill island</name>
			<LookAt>
				<longitude>-123.3542248975016</longitude>
				<latitude>54.80980406494628</latitude>
				<altitude>0</altitude>
				<heading>-0.006631076920632986</heading>
				<tilt>19.97645431858418</tilt>
				<range>3459.411747606575</range>
				<gx:altitudeMode>relativeToSeaFloor</gx:altitudeMode>
			</LookAt>
			<styleUrl>#m_ylw-pushpin</styleUrl>
			<Point>
				<gx:drawOrder>1</gx:drawOrder>
				<coordinates>-123.3404944032442,54.81187840375654,0</coordinates>
			</Point>
		</Placemark>
		<Placemark>
			<name>big island past bay</name>
			<LookAt>
				<longitude>-123.3572261861575</longitude>
				<latitude>54.80831953004193</latitude>
				<altitude>0</altitude>
				<heading>-0.009083129967034261</heading>
				<tilt>19.97646883713885</tilt>
				<range>3464.084665452172</range>
				<gx:altitudeMode>relativeToSeaFloor</gx:altitudeMode>
			</LookAt>
			<styleUrl>#m_ylw-pushpin</styleUrl>
			<Point>
				<gx:drawOrder>1</gx:drawOrder>
				<coordinates>-123.3412057836527,54.80757213230176,0</coordinates>
			</Point>
		</Placemark>
		<Placemark>
			<name>White Spruce Isl</name>
			<LookAt>
				<longitude>-123.3580299330958</longitude>
				<latitude>54.77684724437495</latitude>
				<altitude>0</altitude>
				<heading>-0.009732650767052412</heading>
				<tilt>19.97648038644186</tilt>
				<range>3467.913998312286</range>
				<gx:altitudeMode>relativeToSeaFloor</gx:altitudeMode>
			</LookAt>
			<styleUrl>#m_ylw-pushpin</styleUrl>
			<Point>
				<gx:drawOrder>1</gx:drawOrder>
				<coordinates>-123.3501203336757,54.77463796922839,0</coordinates>
			</Point>
		</Placemark>
		<Placemark>
			<name>off Balsam Isl</name>
			<LookAt>
				<longitude>-123.3986872379364</longitude>
				<latitude>54.763434059694</latitude>
				<altitude>0</altitude>
				<heading>-0.0438483096212313</heading>
				<tilt>19.54262530119989</tilt>
				<range>717.4517216129159</range>
				<gx:altitudeMode>relativeToSeaFloor</gx:altitudeMode>
			</LookAt>
			<styleUrl>#m_ylw-pushpin</styleUrl>
			<Point>
				<gx:drawOrder>1</gx:drawOrder>
				<coordinates>-123.396976318763,54.76395092063694,0</coordinates>
			</Point>
		</Placemark>
		<Placemark>
			<name>White Spruce Isl</name>
			<LookAt>
				<longitude>-123.3590949902458</longitude>
				<latitude>54.77420860734046</latitude>
				<altitude>0</altitude>
				<heading>-0.0153323292846057</heading>
				<tilt>14.53025332237071</tilt>
				<range>1723.032996368379</range>
				<gx:altitudeMode>relativeToSeaFloor</gx:altitudeMode>
			</LookAt>
			<styleUrl>#m_ylw-pushpin</styleUrl>
			<Point>
				<gx:drawOrder>1</gx:drawOrder>
				<coordinates>-123.3504466387654,54.77241882503883,0</coordinates>
			</Point>
		</Placemark>
		<Placemark>
			<name>near creek</name>
			<LookAt>
				<longitude>-123.3357870583543</longitude>
				<latitude>54.81250427416119</latitude>
				<altitude>0</altitude>
				<heading>0.00907613214700766</heading>
				<tilt>19.21998144691168</tilt>
				<range>1383.542107999175</range>
				<gx:altitudeMode>relativeToSeaFloor</gx:altitudeMode>
			</LookAt>
			<styleUrl>#m_ylw-pushpin</styleUrl>
			<Point>
				<gx:drawOrder>1</gx:drawOrder>
				<coordinates>-123.3278989179866,54.81178888582412,0</coordinates>
			</Point>
		</Placemark>
		<Placemark>
			<name>1st island</name>
			<LookAt>
				<longitude>-123.3456925547003</longitude>
				<latitude>54.81996609382384</latitude>
				<altitude>0</altitude>
				<heading>0.002189060525875336</heading>
				<tilt>21.48096907667691</tilt>
				<range>805.5189616432194</range>
				<gx:altitudeMode>relativeToSeaFloor</gx:altitudeMode>
			</LookAt>
			<styleUrl>#m_ylw-pushpin</styleUrl>
			<Point>
				<gx:drawOrder>1</gx:drawOrder>
				<coordinates>-123.3438359697996,54.82061212416365,0</coordinates>
			</Point>
		</Placemark>
		<Placemark>
			<name>little island past the burnt island</name>
			<LookAt>
				<longitude>-123.3364031955713</longitude>
				<latitude>54.7968651206995</latitude>
				<altitude>0</altitude>
				<heading>0.01140857095930829</heading>
				<tilt>24.58096178049173</tilt>
				<range>927.5550259280647</range>
				<gx:altitudeMode>relativeToSeaFloor</gx:altitudeMode>
			</LookAt>
			<styleUrl>#m_ylw-pushpin</styleUrl>
			<Point>
				<gx:drawOrder>1</gx:drawOrder>
				<coordinates>-123.3341111277756,54.79694865468262,0</coordinates>
			</Point>
		</Placemark>
		<Placemark>
			<name>Southeast corner</name>
			<LookAt>
				<longitude>-123.2766830456926</longitude>
				<latitude>54.77155200710143</latitude>
				<altitude>0</altitude>
				<heading>0.02434517263134883</heading>
				<tilt>10.63065778912605</tilt>
				<range>3316.747438151667</range>
				<gx:altitudeMode>relativeToSeaFloor</gx:altitudeMode>
			</LookAt>
			<styleUrl>#m_ylw-pushpin</styleUrl>
			<Point>
				<gx:drawOrder>1</gx:drawOrder>
				<coordinates>-123.252450056157,54.7744159639,0</coordinates>
			</Point>
		</Placemark>
		<Placemark>
			<name>second bay just past the shack/isthmus</name>
			<LookAt>
				<longitude>-123.4116550725709</longitude>
				<latitude>54.7468774915568</latitude>
				<altitude>0</altitude>
				<heading>-0.05635876148789765</heading>
				<tilt>22.16421298547371</tilt>
				<range>2370.349223071611</range>
				<gx:altitudeMode>relativeToSeaFloor</gx:altitudeMode>
			</LookAt>
			<styleUrl>#m_ylw-pushpin</styleUrl>
			<Point>
				<gx:drawOrder>1</gx:drawOrder>
				<coordinates>-123.40677195525,54.74700991511332,0</coordinates>
			</Point>
		</Placemark>
		<Placemark>
			<name>point off Bert&apos;s Cabin; mid-channel by 3rd island</name>
			<LookAt>
				<longitude>-123.3516009442145</longitude>
				<latitude>54.81266330602374</latitude>
				<altitude>0</altitude>
				<heading>-0.01576280204022405</heading>
				<tilt>17.0047931140285</tilt>
				<range>1790.513122320834</range>
				<gx:altitudeMode>relativeToSeaFloor</gx:altitudeMode>
			</LookAt>
			<styleUrl>#m_ylw-pushpin</styleUrl>
			<Point>
				<gx:drawOrder>1</gx:drawOrder>
				<coordinates>-123.3472646365392,54.81207640188266,0</coordinates>
			</Point>
		</Placemark>
		<Placemark>
			<name>East side of White Spruce Isl</name>
			<LookAt>
				<longitude>-123.357491516022</longitude>
				<latitude>54.77384485256032</latitude>
				<altitude>0</altitude>
				<heading>-0.0196895548102182</heading>
				<tilt>17.54891233405091</tilt>
				<range>1494.189202399877</range>
				<gx:altitudeMode>relativeToSeaFloor</gx:altitudeMode>
			</LookAt>
			<styleUrl>#m_ylw-pushpin</styleUrl>
			<Point>
				<gx:drawOrder>1</gx:drawOrder>
				<coordinates>-123.348522337396,54.77349756225894,0</coordinates>
			</Point>
		</Placemark>
		<Placemark>
			<name>off Balsam Isl</name>
			<LookAt>
				<longitude>-123.3981631905676</longitude>
				<latitude>54.76354625766432</latitude>
				<altitude>0</altitude>
				<heading>-0.0448234617790081</heading>
				<tilt>20.35206389381919</tilt>
				<range>3754.606819225508</range>
				<gx:altitudeMode>relativeToSeaFloor</gx:altitudeMode>
			</LookAt>
			<styleUrl>#m_ylw-pushpin</styleUrl>
			<Point>
				<gx:drawOrder>1</gx:drawOrder>
				<coordinates>-123.3949359094173,54.76346879164802,0</coordinates>
			</Point>
		</Placemark>
		<Placemark>
			<name>&quot;by the islands&quot;</name>
			<LookAt>
				<longitude>-123.3715467586737</longitude>
				<latitude>54.7714131571964</latitude>
				<altitude>0</altitude>
				<heading>-0.01788618345028787</heading>
				<tilt>22.51003384294715</tilt>
				<range>3755.39165905936</range>
				<gx:altitudeMode>relativeToSeaFloor</gx:altitudeMode>
			</LookAt>
			<styleUrl>#m_ylw-pushpin</styleUrl>
			<Point>
				<gx:drawOrder>1</gx:drawOrder>
				<coordinates>-123.3562240354011,54.76904409570849,0</coordinates>
			</Point>
		</Placemark>
		<Placemark>
			<name>&quot;by the islands&quot;</name>
			<LookAt>
				<longitude>-123.3715467586737</longitude>
				<latitude>54.7714131571964</latitude>
				<altitude>0</altitude>
				<heading>-0.01788618345028787</heading>
				<tilt>22.51003384294715</tilt>
				<range>3755.39165905936</range>
				<gx:altitudeMode>relativeToSeaFloor</gx:altitudeMode>
			</LookAt>
			<styleUrl>#m_ylw-pushpin</styleUrl>
			<Point>
				<gx:drawOrder>1</gx:drawOrder>
				<coordinates>-123.3572202566588,54.76727639826749,0</coordinates>
			</Point>
		</Placemark>
		<Placemark>
			<name>Balsam Island</name>
			<LookAt>
				<longitude>-123.3966296876579</longitude>
				<latitude>54.7642182624077</latitude>
				<altitude>0</altitude>
				<heading>-0.04570320824778348</heading>
				<tilt>18.37201586082804</tilt>
				<range>2014.118629948882</range>
				<gx:altitudeMode>relativeToSeaFloor</gx:altitudeMode>
			</LookAt>
			<styleUrl>#m_ylw-pushpin</styleUrl>
			<Point>
				<gx:drawOrder>1</gx:drawOrder>
				<coordinates>-123.3965637442481,54.76225581112204,0</coordinates>
			</Point>
		</Placemark>
		<Placemark>
			<name>Balsam Island</name>
			<LookAt>
				<longitude>-123.3966296876579</longitude>
				<latitude>54.7642182624077</latitude>
				<altitude>0</altitude>
				<heading>-0.04570320824778348</heading>
				<tilt>18.37201586082804</tilt>
				<range>2014.118629948882</range>
				<gx:altitudeMode>relativeToSeaFloor</gx:altitudeMode>
			</LookAt>
			<styleUrl>#m_ylw-pushpin</styleUrl>
			<Point>
				<gx:drawOrder>1</gx:drawOrder>
				<coordinates>-123.3982685499155,54.76288171390842,0</coordinates>
			</Point>
		</Placemark>
		<Placemark>
			<name>bay near Bert&apos;s Cabin</name>
			<LookAt>
				<longitude>-123.34641944357</longitude>
				<latitude>54.81700402476176</latitude>
				<altitude>0</altitude>
				<heading>0.001142549049023068</heading>
				<tilt>24.14947923078876</tilt>
				<range>456.3177087349581</range>
				<gx:altitudeMode>relativeToSeaFloor</gx:altitudeMode>
			</LookAt>
			<styleUrl>#m_ylw-pushpin</styleUrl>
			<Point>
				<gx:drawOrder>1</gx:drawOrder>
				<coordinates>-123.3445810319814,54.81653952418371,0</coordinates>
			</Point>
		</Placemark>
		<Placemark>
			<name>Balsam Isl</name>
			<LookAt>
				<longitude>-123.4005539243692</longitude>
				<latitude>54.76425223818366</latitude>
				<altitude>0</altitude>
				<heading>-0.04306272487172998</heading>
				<tilt>24.17467201213124</tilt>
				<range>1367.271312206432</range>
				<gx:altitudeMode>relativeToSeaFloor</gx:altitudeMode>
			</LookAt>
			<styleUrl>#m_ylw-pushpin</styleUrl>
			<Point>
				<gx:drawOrder>1</gx:drawOrder>
				<coordinates>-123.3948988381604,54.76423596715178,0</coordinates>
			</Point>
		</Placemark>
		<Placemark>
			<name>right off an island on steep dropoff</name>
			<LookAt>
				<longitude>-123.3625072799598</longitude>
				<latitude>54.77195518063429</latitude>
				<altitude>0</altitude>
				<heading>-0.01833921900764535</heading>
				<tilt>18.9972777310351</tilt>
				<range>1484.794612028257</range>
				<gx:altitudeMode>relativeToSeaFloor</gx:altitudeMode>
			</LookAt>
			<styleUrl>#m_ylw-pushpin</styleUrl>
			<Point>
				<gx:drawOrder>1</gx:drawOrder>
				<coordinates>-123.3550016325115,54.77350269733554,0</coordinates>
			</Point>
		</Placemark>
		<Placemark>
			<name>small island in the middle of the main lake</name>
			<LookAt>
				<longitude>-123.3669879988265</longitude>
				<latitude>54.76834614093864</latitude>
				<altitude>0</altitude>
				<heading>-0.04589539148601766</heading>
				<tilt>10.09309556793637</tilt>
				<range>1296.159264517398</range>
				<gx:altitudeMode>relativeToSeaFloor</gx:altitudeMode>
			</LookAt>
			<styleUrl>#m_ylw-pushpin</styleUrl>
			<Point>
				<gx:drawOrder>1</gx:drawOrder>
				<coordinates>-123.3651112699153,54.76920588676641,0</coordinates>
			</Point>
		</Placemark>
		<Placemark>
			<name>around Black Spruce Island</name>
			<LookAt>
				<longitude>-123.3680613143347</longitude>
				<latitude>54.80699550019421</latitude>
				<altitude>0</altitude>
				<heading>-0.04451689091420221</heading>
				<tilt>10.884446231383</tilt>
				<range>3694.043024663627</range>
				<gx:altitudeMode>relativeToSeaFloor</gx:altitudeMode>
			</LookAt>
			<styleUrl>#m_ylw-pushpin</styleUrl>
			<Point>
				<gx:drawOrder>1</gx:drawOrder>
				<coordinates>-123.3394814089476,54.80639270255536,0</coordinates>
			</Point>
		</Placemark>
		<Placemark>
			<name>White Spruce south</name>
			<LookAt>
				<longitude>-123.3547721694079</longitude>
				<latitude>54.7734934259253</latitude>
				<altitude>0</altitude>
				<heading>-0.00946083290265798</heading>
				<tilt>20.02845088395895</tilt>
				<range>1685.768132785358</range>
				<gx:altitudeMode>relativeToSeaFloor</gx:altitudeMode>
			</LookAt>
			<styleUrl>#m_ylw-pushpin</styleUrl>
			<Point>
				<gx:drawOrder>1</gx:drawOrder>
				<coordinates>-123.3524522556952,54.77146579230114,0</coordinates>
			</Point>
		</Placemark>
		<Placemark>
			<name>behind island left side halfway down lake</name>
			<LookAt>
				<longitude>-123.3546613049027</longitude>
				<latitude>54.77130468696614</latitude>
				<altitude>0</altitude>
				<heading>-0.02795259164196668</heading>
				<tilt>13.81318886640641</tilt>
				<range>1664.336381890372</range>
				<gx:altitudeMode>relativeToSeaFloor</gx:altitudeMode>
			</LookAt>
			<styleUrl>#m_ylw-pushpin</styleUrl>
			<Point>
				<gx:drawOrder>1</gx:drawOrder>
				<coordinates>-123.3506312571263,54.77172845577957,0</coordinates>
			</Point>
		</Placemark>
		<Placemark>
			<name>just before White Spruce</name>
			<LookAt>
				<longitude>-123.3636748080854</longitude>
				<latitude>54.77686507199602</latitude>
				<altitude>0</altitude>
				<heading>-0.02260677204412482</heading>
				<tilt>17.62501868735933</tilt>
				<range>2519.581721453872</range>
				<gx:altitudeMode>relativeToSeaFloor</gx:altitudeMode>
			</LookAt>
			<styleUrl>#m_ylw-pushpin</styleUrl>
			<Point>
				<gx:drawOrder>1</gx:drawOrder>
				<coordinates>-123.3530039753431,54.77547341041458,0</coordinates>
			</Point>
		</Placemark>
		<Placemark>
			<name>off north end of White Spruce</name>
			<LookAt>
				<longitude>-123.3532270760574</longitude>
				<latitude>54.77552885715203</latitude>
				<altitude>0</altitude>
				<heading>-0.00371268161092926</heading>
				<tilt>23.47937281767886</tilt>
				<range>570.8888475130441</range>
				<gx:altitudeMode>relativeToSeaFloor</gx:altitudeMode>
			</LookAt>
			<styleUrl>#m_ylw-pushpin</styleUrl>
			<Point>
				<gx:drawOrder>1</gx:drawOrder>
				<coordinates>-123.3490674229483,54.77474850010572,0</coordinates>
			</Point>
		</Placemark>
		<Placemark>
			<name>northeast bay - east of Black Spruce Isl</name>
			<LookAt>
				<longitude>-123.3517726299528</longitude>
				<latitude>54.80972886645218</latitude>
				<altitude>0</altitude>
				<heading>-0.01775295671105025</heading>
				<tilt>16.2934648243671</tilt>
				<range>2883.049618996839</range>
				<gx:altitudeMode>relativeToSeaFloor</gx:altitudeMode>
			</LookAt>
			<styleUrl>#m_ylw-pushpin</styleUrl>
			<Point>
				<gx:drawOrder>1</gx:drawOrder>
				<coordinates>-123.3350532547248,54.80848254679245,0</coordinates>
			</Point>
		</Placemark>
		<Placemark>
			<name>by the river/first big island</name>
			<LookAt>
				<longitude>-123.3452016611959</longitude>
				<latitude>54.81012178654445</latitude>
				<altitude>0</altitude>
				<heading>-0.01238296060890812</heading>
				<tilt>16.29346482941416</tilt>
				<range>2883.049816883781</range>
				<gx:altitudeMode>relativeToSeaFloor</gx:altitudeMode>
			</LookAt>
			<styleUrl>#m_ylw-pushpin</styleUrl>
			<Point>
				<gx:drawOrder>1</gx:drawOrder>
				<coordinates>-123.3305869858343,54.81043269233552,0</coordinates>
			</Point>
		</Placemark>
		<Placemark>
			<name>off first point past Kettle Bay</name>
			<LookAt>
				<longitude>-123.350165824564</longitude>
				<latitude>54.8134040312825</latitude>
				<altitude>0</altitude>
				<heading>-0.008334919009922193</heading>
				<tilt>19.20595255708571</tilt>
				<range>1289.855052352524</range>
				<gx:altitudeMode>relativeToSeaFloor</gx:altitudeMode>
			</LookAt>
			<styleUrl>#m_ylw-pushpin</styleUrl>
			<Point>
				<gx:drawOrder>1</gx:drawOrder>
				<coordinates>-123.3431203062448,54.81249129588473,0</coordinates>
			</Point>
		</Placemark>
		<Placemark>
			<name>first big bay past island</name>
			<LookAt>
				<longitude>-123.3718982650175</longitude>
				<latitude>54.79878075273126</latitude>
				<altitude>0</altitude>
				<heading>-0.02327531622005556</heading>
				<tilt>20.21596629038456</tilt>
				<range>9743.443454137632</range>
				<gx:altitudeMode>relativeToSeaFloor</gx:altitudeMode>
			</LookAt>
			<styleUrl>#m_ylw-pushpin</styleUrl>
			<Point>
				<gx:drawOrder>1</gx:drawOrder>
				<coordinates>-123.3208990479914,54.78497866392143,0</coordinates>
			</Point>
		</Placemark>
		<Placemark>
			<name>bay past Pine Island</name>
			<LookAt>
				<longitude>-123.3454560912193</longitude>
				<latitude>54.79116285365878</latitude>
				<altitude>0</altitude>
				<heading>-0.0154248477547954</heading>
				<tilt>16.69713402727931</tilt>
				<range>6270.907817746155</range>
				<gx:altitudeMode>relativeToSeaFloor</gx:altitudeMode>
			</LookAt>
			<styleUrl>#m_ylw-pushpin</styleUrl>
			<Point>
				<gx:drawOrder>1</gx:drawOrder>
				<coordinates>-123.3185048919298,54.78274471885275,0</coordinates>
			</Point>
		</Placemark>
		<Placemark>
			<name>near White Spruce</name>
			<LookAt>
				<longitude>-123.3557996211384</longitude>
				<latitude>54.77381695958536</latitude>
				<altitude>0</altitude>
				<heading>-0.009579568871771334</heading>
				<tilt>20.95765223838574</tilt>
				<range>1027.982632908704</range>
				<gx:altitudeMode>relativeToSeaFloor</gx:altitudeMode>
			</LookAt>
			<styleUrl>#m_ylw-pushpin</styleUrl>
			<Point>
				<gx:drawOrder>1</gx:drawOrder>
				<coordinates>-123.3485960917626,54.77399981004755,0</coordinates>
			</Point>
		</Placemark>
		<Placemark>
			<name>near Fir Island at dropoff</name>
			<LookAt>
				<longitude>-123.3183664281133</longitude>
				<latitude>54.75047619864442</latitude>
				<altitude>0</altitude>
				<heading>-0.131902817800792</heading>
				<tilt>4.718038690231094</tilt>
				<range>2092.730173652911</range>
				<gx:altitudeMode>relativeToSeaFloor</gx:altitudeMode>
			</LookAt>
			<styleUrl>#m_ylw-pushpin</styleUrl>
			<Point>
				<gx:drawOrder>1</gx:drawOrder>
				<coordinates>-123.3062195788369,54.75054160731146,0</coordinates>
			</Point>
		</Placemark>
	</Folder>
</Document>
</kml>
