<?xml version="1.0" encoding="UTF-8"?>
<kml xmlns="http://www.opengis.net/kml/2.2" xmlns:gx="http://www.google.com/kml/ext/2.2" xmlns:kml="http://www.opengis.net/kml/2.2" xmlns:atom="http://www.w3.org/2005/Atom">
<Document>
	<name>tag-report-locs.kml</name>
	<StyleMap id="m_ylw-pushpin">
		<Pair>
			<key>normal</key>
			<styleUrl>#s_ylw-pushpin</styleUrl>
		</Pair>
		<Pair>
			<key>highlight</key>
			<styleUrl>#s_ylw-pushpin_hl</styleUrl>
		</Pair>
	</StyleMap>
	<Style id="s_ylw-pushpin">
		<IconStyle>
			<color>ffff02fc</color>
			<scale>1.1</scale>
			<Icon>
				<href>http://maps.google.com/mapfiles/kml/pushpin/ylw-pushpin.png</href>
			</Icon>
			<hotSpot x="20" y="2" xunits="pixels" yunits="pixels"/>
		</IconStyle>
	</Style>
	<Style id="s_ylw-pushpin_hl">
		<IconStyle>
			<color>ffff02fc</color>
			<scale>1.3</scale>
			<Icon>
				<href>http://maps.google.com/mapfiles/kml/pushpin/ylw-pushpin.png</href>
			</Icon>
			<hotSpot x="20" y="2" xunits="pixels" yunits="pixels"/>
		</IconStyle>
	</Style>
	<Folder>
		<name>tag-report-locs</name>
		<open>1</open>
		<Placemark>
			<name>&quot;point off Sekani Bay - drop-off&quot;</name>
			<LookAt>
				<longitude>-123.3942181628233</longitude>
				<latitude>54.77795565628796</latitude>
				<altitude>0</altitude>
				<heading>-0.05723852439210186</heading>
				<tilt>9.30127705976858</tilt>
				<range>4021.59944828643</range>
				<gx:altitudeMode>relativeToSeaFloor</gx:altitudeMode>
			</LookAt>
			<styleUrl>#m_ylw-pushpin</styleUrl>
			<Point>
				<gx:drawOrder>1</gx:drawOrder>
				<coordinates>-123.4141651470204,54.77282419654557,0</coordinates>
			</Point>
		</Placemark>
		<Placemark>
			<name>&quot;east of Fir Island&quot;</name>
			<LookAt>
				<longitude>-123.3073767932044</longitude>
				<latitude>54.73957946547618</latitude>
				<altitude>0</altitude>
				<heading>0.01410363868365711</heading>
				<tilt>11.55150609280092</tilt>
				<range>4539.818294425695</range>
				<gx:altitudeMode>relativeToSeaFloor</gx:altitudeMode>
			</LookAt>
			<styleUrl>#m_ylw-pushpin</styleUrl>
			<Point>
				<gx:drawOrder>1</gx:drawOrder>
				<coordinates>-123.2968181365167,54.74759832652286,0</coordinates>
			</Point>
		</Placemark>
		<Placemark>
			<name>&quot;back side of Black Spruce Island&quot;</name>
			<LookAt>
				<longitude>-123.343765765469</longitude>
				<latitude>54.80923864403758</latitude>
				<altitude>0</altitude>
				<heading>-0.01653982646310404</heading>
				<tilt>15.96987400351803</tilt>
				<range>2432.423398449825</range>
				<gx:altitudeMode>relativeToSeaFloor</gx:altitudeMode>
			</LookAt>
			<styleUrl>#m_ylw-pushpin</styleUrl>
			<Point>
				<gx:drawOrder>1</gx:drawOrder>
				<coordinates>-123.3448670384265,54.80347294594712,0</coordinates>
			</Point>
		</Placemark>
		<Placemark>
			<name>&quot;east of Pine Island - closer to shore of lake than to shore of island&quot;</name>
			<LookAt>
				<longitude>-123.3335334127106</longitude>
				<latitude>54.79047236064972</latitude>
				<altitude>0</altitude>
				<heading>0.008168263747559646</heading>
				<tilt>25.73123742465426</tilt>
				<range>2849.961041914422</range>
				<gx:altitudeMode>relativeToSeaFloor</gx:altitudeMode>
			</LookAt>
			<styleUrl>#m_ylw-pushpin</styleUrl>
			<Point>
				<gx:drawOrder>1</gx:drawOrder>
				<coordinates>-123.3259323955476,54.7910053523374,0</coordinates>
			</Point>
		</Placemark>
		<Placemark>
			<name>&quot;behind island left side halfway down lake&quot;</name>
			<LookAt>
				<longitude>-123.3639568025325</longitude>
				<latitude>54.76108498265138</latitude>
				<altitude>0</altitude>
				<heading>-0.02811970808039749</heading>
				<tilt>8.055067031215962</tilt>
				<range>5147.406090480725</range>
				<gx:altitudeMode>relativeToSeaFloor</gx:altitudeMode>
			</LookAt>
			<styleUrl>#m_ylw-pushpin</styleUrl>
			<Point>
				<gx:drawOrder>1</gx:drawOrder>
				<coordinates>-123.3510242274157,54.76971324352915,0</coordinates>
			</Point>
		</Placemark>
		<Placemark>
			<name>&quot;200m east of Balsam Island&quot;</name>
			<LookAt>
				<longitude>-123.3720197468658</longitude>
				<latitude>54.75405556767475</latitude>
				<altitude>0</altitude>
				<heading>-0.03470404381749684</heading>
				<tilt>8.055068619356629</tilt>
				<range>5148.665432065529</range>
				<gx:altitudeMode>relativeToSeaFloor</gx:altitudeMode>
			</LookAt>
			<styleUrl>#m_ylw-pushpin</styleUrl>
			<Point>
				<gx:drawOrder>1</gx:drawOrder>
				<coordinates>-123.3937986275059,54.76380456830898,0</coordinates>
			</Point>
		</Placemark>
		<Placemark>
			<name>&quot;between Bert&apos;s Cabin and burnt island&quot;</name>
			<LookAt>
				<longitude>-123.3420066185405</longitude>
				<latitude>54.81243576560338</latitude>
				<altitude>0</altitude>
				<heading>-0.009083752549982024</heading>
				<tilt>17.60991222183383</tilt>
				<range>935.0057681686029</range>
				<gx:altitudeMode>relativeToSeaFloor</gx:altitudeMode>
			</LookAt>
			<styleUrl>#m_ylw-pushpin</styleUrl>
			<Point>
				<gx:drawOrder>1</gx:drawOrder>
				<coordinates>-123.3409531443879,54.81239791866728,0</coordinates>
			</Point>
		</Placemark>
		<Placemark>
			<name>&quot;Birch Island - north side&quot;</name>
			<LookAt>
				<longitude>-123.3720197468658</longitude>
				<latitude>54.75405556767475</latitude>
				<altitude>0</altitude>
				<heading>-0.03470404381749684</heading>
				<tilt>8.055068619356629</tilt>
				<range>5148.665432065529</range>
				<gx:altitudeMode>relativeToSeaFloor</gx:altitudeMode>
			</LookAt>
			<styleUrl>#m_ylw-pushpin</styleUrl>
			<Point>
				<gx:drawOrder>1</gx:drawOrder>
				<coordinates>-123.360863612726,54.76025811173624,0</coordinates>
			</Point>
		</Placemark>
		<Placemark>
			<name>&quot;Black Spruce Island&quot;</name>
			<LookAt>
				<longitude>-123.3440303819713</longitude>
				<latitude>54.80953767525758</latitude>
				<altitude>0</altitude>
				<heading>8.448582685058076e-05</heading>
				<tilt>0</tilt>
				<range>857.3465435346334</range>
				<gx:altitudeMode>relativeToSeaFloor</gx:altitudeMode>
			</LookAt>
			<styleUrl>#m_ylw-pushpin</styleUrl>
			<Point>
				<gx:drawOrder>1</gx:drawOrder>
				<coordinates>-123.3440303819713,54.80953767525758,0</coordinates>
			</Point>
		</Placemark>
		<Placemark>
			<name>&quot;east of Black Spruce Island, 45 ft depth&quot;</name>
			<LookAt>
				<longitude>-123.3408578483761</longitude>
				<latitude>54.80895637858156</latitude>
				<altitude>0</altitude>
				<heading>0.002830263473533822</heading>
				<tilt>0</tilt>
				<range>2834.683167512404</range>
				<gx:altitudeMode>relativeToSeaFloor</gx:altitudeMode>
			</LookAt>
			<styleUrl>#m_ylw-pushpin</styleUrl>
			<Point>
				<gx:drawOrder>1</gx:drawOrder>
				<coordinates>-123.3393621652933,54.80666245465817,0</coordinates>
			</Point>
		</Placemark>
		<Placemark>
			<name>&quot;midway between Birch and Spirea Island, 30 ft depth&quot;</name>
			<LookAt>
				<longitude>-123.3412263300867</longitude>
				<latitude>54.75648773119008</latitude>
				<altitude>0</altitude>
				<heading>0.002578632450679589</heading>
				<tilt>3.516072341082839</tilt>
				<range>4188.472343106216</range>
				<gx:altitudeMode>relativeToSeaFloor</gx:altitudeMode>
			</LookAt>
			<styleUrl>#m_ylw-pushpin</styleUrl>
			<Point>
				<gx:drawOrder>1</gx:drawOrder>
				<coordinates>-123.3564807352161,54.75257450584045,0</coordinates>
			</Point>
		</Placemark>
		<Placemark>
			<name>&quot;near Bert&apos;s Cabin&quot;</name>
			<LookAt>
				<longitude>-123.343922327459</longitude>
				<latitude>54.81508184255612</latitude>
				<altitude>0</altitude>
				<heading>-0.004674100673635046</heading>
				<tilt>27.50470174039288</tilt>
				<range>800.3049933055657</range>
				<gx:altitudeMode>relativeToSeaFloor</gx:altitudeMode>
			</LookAt>
			<styleUrl>#m_ylw-pushpin</styleUrl>
			<Point>
				<gx:drawOrder>1</gx:drawOrder>
				<coordinates>-123.3458060100926,54.81537348754447,0</coordinates>
			</Point>
		</Placemark>
		<Placemark>
			<name>&quot;near Black Spruce Island&quot;</name>
			<LookAt>
				<longitude>-123.3404814516772</longitude>
				<latitude>54.80861049650576</latitude>
				<altitude>0</altitude>
				<heading>0.003137867373396031</heading>
				<tilt>0</tilt>
				<range>2463.062469684263</range>
				<gx:altitudeMode>relativeToSeaFloor</gx:altitudeMode>
			</LookAt>
			<styleUrl>#m_ylw-pushpin</styleUrl>
			<Point>
				<gx:drawOrder>1</gx:drawOrder>
				<coordinates>-123.3460462757691,54.80790231631145,0</coordinates>
			</Point>
		</Placemark>
		<Placemark>
			<name>&quot;near Spirea Island&quot;</name>
			<LookAt>
				<longitude>-123.3639568025325</longitude>
				<latitude>54.76108498265138</latitude>
				<altitude>0</altitude>
				<heading>-0.02811970808039749</heading>
				<tilt>8.055067031215962</tilt>
				<range>5147.406090480725</range>
				<gx:altitudeMode>relativeToSeaFloor</gx:altitudeMode>
			</LookAt>
			<styleUrl>#m_ylw-pushpin</styleUrl>
			<Point>
				<gx:drawOrder>1</gx:drawOrder>
				<coordinates>-123.354260265898,54.74804483486248,0</coordinates>
			</Point>
		</Placemark>
		<Placemark>
			<name>&quot;near Willow Island&quot;</name>
			<LookAt>
				<longitude>-123.3685465115168</longitude>
				<latitude>54.71827490626161</latitude>
				<altitude>0</altitude>
				<heading>-0.002859043922306562</heading>
				<tilt>0</tilt>
				<range>1065.337498436267</range>
				<gx:altitudeMode>relativeToSeaFloor</gx:altitudeMode>
			</LookAt>
			<styleUrl>#m_ylw-pushpin</styleUrl>
			<Point>
				<gx:drawOrder>1</gx:drawOrder>
				<coordinates>-123.3719589235426,54.71785239103756,0</coordinates>
			</Point>
		</Placemark>
		<Placemark>
			<name>&quot;south of Birch Island&quot;</name>
			<LookAt>
				<longitude>-123.3412263300867</longitude>
				<latitude>54.75648773119008</latitude>
				<altitude>0</altitude>
				<heading>0.002578632450679589</heading>
				<tilt>3.516072341082839</tilt>
				<range>4188.472343106216</range>
				<gx:altitudeMode>relativeToSeaFloor</gx:altitudeMode>
			</LookAt>
			<styleUrl>#m_ylw-pushpin</styleUrl>
			<Point>
				<gx:drawOrder>1</gx:drawOrder>
				<coordinates>-123.3632013349057,54.75015579785429,0</coordinates>
			</Point>
		</Placemark>
		<Placemark>
			<name>&quot;west side of Aspen Island&quot;</name>
			<LookAt>
				<longitude>-123.3639568025325</longitude>
				<latitude>54.76108498265138</latitude>
				<altitude>0</altitude>
				<heading>-0.02811970808039749</heading>
				<tilt>8.055067031215962</tilt>
				<range>5147.406090480725</range>
				<gx:altitudeMode>relativeToSeaFloor</gx:altitudeMode>
			</LookAt>
			<styleUrl>#m_ylw-pushpin</styleUrl>
			<Point>
				<gx:drawOrder>1</gx:drawOrder>
				<coordinates>-123.3651482326477,54.76740501017084,0</coordinates>
			</Point>
		</Placemark>
		<Placemark>
			<name>&quot;White Spruce Island - south end&quot;</name>
			<LookAt>
				<longitude>-123.3525951351436</longitude>
				<latitude>54.77322102031233</latitude>
				<altitude>0</altitude>
				<heading>0.01142028162675514</heading>
				<tilt>18.64415395289762</tilt>
				<range>710.2871522571135</range>
				<gx:altitudeMode>relativeToSeaFloor</gx:altitudeMode>
			</LookAt>
			<styleUrl>#m_ylw-pushpin</styleUrl>
			<Point>
				<gx:drawOrder>1</gx:drawOrder>
				<coordinates>-123.3550873191831,54.77153205456339,0</coordinates>
			</Point>
		</Placemark>
		<Placemark>
			<name>&quot;White Spruce Island&quot;</name>
			<LookAt>
				<longitude>-123.3525951351436</longitude>
				<latitude>54.77322102031233</latitude>
				<altitude>0</altitude>
				<heading>0.01142028162675514</heading>
				<tilt>18.64415395289762</tilt>
				<range>710.2871522571135</range>
				<gx:altitudeMode>relativeToSeaFloor</gx:altitudeMode>
			</LookAt>
			<styleUrl>#m_ylw-pushpin</styleUrl>
			<Point>
				<gx:drawOrder>1</gx:drawOrder>
				<coordinates>-123.3502052108259,54.77459521710109,0</coordinates>
			</Point>
		</Placemark>
		<Placemark>
			<name>&quot;most-Eastern bay near small island&quot;</name>
			<LookAt>
				<longitude>-123.2726542346341</longitude>
				<latitude>54.77250657809088</latitude>
				<altitude>0</altitude>
				<heading>0.07147019783718546</heading>
				<tilt>12.97570448833429</tilt>
				<range>2030.709872056146</range>
				<gx:altitudeMode>relativeToSeaFloor</gx:altitudeMode>
			</LookAt>
			<styleUrl>#m_ylw-pushpin</styleUrl>
			<Point>
				<gx:drawOrder>1</gx:drawOrder>
				<coordinates>-123.262351510292,54.77115250458116,0</coordinates>
			</Point>
		</Placemark>
		<Placemark>
			<name>&quot;Black Spruce Island&quot;</name>
			<LookAt>
				<longitude>-123.3429940620811</longitude>
				<latitude>54.80789766466076</latitude>
				<altitude>0</altitude>
				<heading>-0.003273580388273168</heading>
				<tilt>11.07872403631768</tilt>
				<range>1321.772491699389</range>
				<gx:altitudeMode>relativeToSeaFloor</gx:altitudeMode>
			</LookAt>
			<styleUrl>#m_ylw-pushpin</styleUrl>
			<Point>
				<gx:drawOrder>1</gx:drawOrder>
				<coordinates>-123.3488025575142,54.8074576749462,0</coordinates>
			</Point>
		</Placemark>
		<Placemark>
			<name>&quot;Balsam Island&quot;</name>
			<LookAt>
				<longitude>-123.3897424566714</longitude>
				<latitude>54.76258236051106</latitude>
				<altitude>0</altitude>
				<heading>-0.04265001296315389</heading>
				<tilt>20.61654256988972</tilt>
				<range>1532.496435906287</range>
				<gx:altitudeMode>relativeToSeaFloor</gx:altitudeMode>
			</LookAt>
			<styleUrl>#m_ylw-pushpin</styleUrl>
			<Point>
				<gx:drawOrder>1</gx:drawOrder>
				<coordinates>-123.3963247636873,54.76248195475752,0</coordinates>
			</Point>
		</Placemark>
		<Placemark>
			<name>&quot;Balsam Island&quot;</name>
			<LookAt>
				<longitude>-123.3897424566714</longitude>
				<latitude>54.76258236051106</latitude>
				<altitude>0</altitude>
				<heading>-0.04265001296315389</heading>
				<tilt>20.61654256988972</tilt>
				<range>1532.496435906287</range>
				<gx:altitudeMode>relativeToSeaFloor</gx:altitudeMode>
			</LookAt>
			<styleUrl>#m_ylw-pushpin</styleUrl>
			<Point>
				<gx:drawOrder>1</gx:drawOrder>
				<coordinates>-123.3980475598229,54.76168469044285,0</coordinates>
			</Point>
		</Placemark>
		<Placemark>
			<name>&quot;near cabin by Balsam Island&quot;</name>
			<LookAt>
				<longitude>-123.3930544991031</longitude>
				<latitude>54.76463748860844</latitude>
				<altitude>0</altitude>
				<heading>-0.04526287275536883</heading>
				<tilt>13.26528087115375</tilt>
				<range>2648.916102197817</range>
				<gx:altitudeMode>relativeToSeaFloor</gx:altitudeMode>
			</LookAt>
			<styleUrl>#m_ylw-pushpin</styleUrl>
			<Point>
				<gx:drawOrder>1</gx:drawOrder>
				<coordinates>-123.3993234769139,54.76216993642374,0</coordinates>
			</Point>
		</Placemark>
		<Placemark>
			<name>&quot;by Spirea Island&quot;</name>
			<LookAt>
				<longitude>-123.3463180060947</longitude>
				<latitude>54.75140638854379</latitude>
				<altitude>0</altitude>
				<heading>-0.007667461659295902</heading>
				<tilt>16.89315518360137</tilt>
				<range>1882.992619868592</range>
				<gx:altitudeMode>relativeToSeaFloor</gx:altitudeMode>
			</LookAt>
			<styleUrl>#m_ylw-pushpin</styleUrl>
			<Point>
				<gx:drawOrder>1</gx:drawOrder>
				<coordinates>-123.3525373697352,54.75065759922094,0</coordinates>
			</Point>
		</Placemark>
		<Placemark>
			<name>&quot;by Esker Bay (off trapper cabin&quot;</name>
			<LookAt>
				<longitude>-123.3584196375446</longitude>
				<latitude>54.71377141463963</latitude>
				<altitude>0</altitude>
				<heading>-0.01658830433085564</heading>
				<tilt>27.7356342224698</tilt>
				<range>2227.532728990384</range>
				<gx:altitudeMode>relativeToSeaFloor</gx:altitudeMode>
			</LookAt>
			<styleUrl>#m_ylw-pushpin</styleUrl>
			<Point>
				<gx:drawOrder>1</gx:drawOrder>
				<coordinates>-123.364348122887,54.71357053244619,0</coordinates>
			</Point>
		</Placemark>
		<Placemark>
			<name>&quot;near Bert&apos;s Cabin, in the bay to the south&quot;</name>
			<LookAt>
				<longitude>-123.3301260824171</longitude>
				<latitude>54.8077773280278</latitude>
				<altitude>0</altitude>
				<heading>-0.004983142994891776</heading>
				<tilt>0</tilt>
				<range>2842.000434227063</range>
				<gx:altitudeMode>relativeToSeaFloor</gx:altitudeMode>
			</LookAt>
			<styleUrl>#m_ylw-pushpin</styleUrl>
			<Point>
				<gx:drawOrder>1</gx:drawOrder>
				<coordinates>-123.3449490641325,54.81417364390449,0</coordinates>
			</Point>
		</Placemark>
		<Placemark>
			<name>&quot;near Spirea Island&quot;</name>
			<LookAt>
				<longitude>-123.3500826200433</longitude>
				<latitude>54.75050558730698</latitude>
				<altitude>0</altitude>
				<heading>-0.02092306078043428</heading>
				<tilt>8.554253551470495</tilt>
				<range>1492.844188906544</range>
				<gx:altitudeMode>relativeToSeaFloor</gx:altitudeMode>
			</LookAt>
			<styleUrl>#m_ylw-pushpin</styleUrl>
			<Point>
				<gx:drawOrder>1</gx:drawOrder>
				<coordinates>-123.3564136276166,54.75034880910691,0</coordinates>
			</Point>
		</Placemark>
		<Placemark>
			<name>&quot;near Balsam Island&quot;</name>
			<LookAt>
				<longitude>-123.3935247360839</longitude>
				<latitude>54.7646505883667</latitude>
				<altitude>0</altitude>
				<heading>-0.05697056481311872</heading>
				<tilt>14.49379390793222</tilt>
				<range>1782.403204660872</range>
				<gx:altitudeMode>relativeToSeaFloor</gx:altitudeMode>
			</LookAt>
			<styleUrl>#m_ylw-pushpin</styleUrl>
			<Point>
				<gx:drawOrder>1</gx:drawOrder>
				<coordinates>-123.3981120396146,54.76325101949518,0</coordinates>
			</Point>
		</Placemark>
		<Placemark>
			<name>&quot;near Kettle Bay&quot;</name>
			<LookAt>
				<longitude>-123.3367361208602</longitude>
				<latitude>54.81365627853971</latitude>
				<altitude>0</altitude>
				<heading>-0.01057456939081696</heading>
				<tilt>14.4981423715377</tilt>
				<range>3717.400205820084</range>
				<gx:altitudeMode>relativeToSeaFloor</gx:altitudeMode>
			</LookAt>
			<styleUrl>#m_ylw-pushpin</styleUrl>
			<Point>
				<gx:drawOrder>1</gx:drawOrder>
				<coordinates>-123.3483118242745,54.81884015298007,0</coordinates>
			</Point>
		</Placemark>
		<Placemark>
			<name>&quot;near Bert&apos;s Cabin&quot;</name>
			<LookAt>
				<longitude>-123.3426567948874</longitude>
				<latitude>54.81592570507225</latitude>
				<altitude>0</altitude>
				<heading>-0.01581045741199254</heading>
				<tilt>21.78594112983571</tilt>
				<range>856.8676238874014</range>
				<gx:altitudeMode>relativeToSeaFloor</gx:altitudeMode>
			</LookAt>
			<styleUrl>#m_ylw-pushpin</styleUrl>
			<Point>
				<gx:drawOrder>1</gx:drawOrder>
				<coordinates>-123.3465671679029,54.81646407748946,0</coordinates>
			</Point>
		</Placemark>
		<atom:link rel="app" href="https://www.google.com/earth/about/versions/#earth-pro" title="Google Earth Pro 7.3.6.10201"></atom:link>
	</Folder>
</Document>
</kml>
